state,suburb,postcode,latitude,longitude
NSW,Abbotsbury,2176,-33.865,150.85111
NSW,Abbotsford,2046,-33.85667,151.12611
NSW,Abercrombie,2795,-33.39,149.565
NSW,Abercrombie River,2795,-33.95667,149.33444
NSW,Aberdare,2325,-32.84278,151.38028
NSW,Aberdeen,2336,-30.00667,151.06778
NSW,Aberfoyle,2350,-30.27333,152.01778
NSW,Aberglasslyn,2320,-32.69833,151.53444
NSW,Abermain,2326,-32.79833,151.41778
NSW,Abernethy,2325,-32.87306,151.40444
NSW,Abington,2350,-30.32361,151.23639
NSW,Acacia Creek,2476,-28.365,152.31778
NSW,Acacia Gardens,2763,-33.73222,150.91278
NSW,Acacia Plateau,2476,-28.38167,152.36778
NSW,Adaminaby,2629,-35.99556,148.77472
NSW,Adamstown,2289,-32.93167,151.71778
NSW,Adamstown Heights,2289,-32.94833,151.70111
NSW,Adelong,2729,-35.29833,148.05111
NSW,Adjungbilly,2727,-35.09833,148.40111
NSW,Afterlee,2474,-28.57389,152.82861
NSW,Agnes Banks,2753,-33.615,150.71778
NSW,Airds,2560,-34.09,150.82611
NSW,Akolele,2546,-36.34833,150.06778
NSW,Albion Park,2527,-34.58167,150.77611
NSW,Albion Park Rail,2527,-34.565,150.79278
NSW,Albury,2640,-36.065,146.90111
NSW,Aldavilla,2440,-31.08167,152.76778
NSW,Alexandria,2015,-33.915,151.19278
NSW,Alfredtown,2650,-35.165,147.51778
NSW,Alice,2460,-29.03167,152.58444
NSW,Alison,2420,-33.265,151.39833
NSW,Allambie Heights,2100,-33.76083,151.25111
NSW,Allandale,2320,-32.715,151.41778
NSW,Allawah,2218,-33.97333,151.11778
NSW,Alleena,2671,-34.065,147.13444
NSW,Allgomera,2441,-30.81333,152.80528
NSW,Allworth,2425,-32.53667,151.94167
NSW,Allynbrook,2311,-32.3475,151.5525
NSW,Alma Park,2659,-35.59833,146.78444
NSW,Alpine,2575,-34.415,150.51778
NSW,Alstonvale,2477,-28.79556,153.44139
NSW,Alstonville,2477,-28.83167,153.43444
NSW,Alumy Creek,2460,-29.64833,152.95111
NSW,Ambarvale,2560,-34.08167,150.80111
NSW,Anambah,2320,-32.67333,151.49278
NSW,Ando,2631,-36.73167,149.26778
NSW,Anembo,2621,-35.815,149.41778
NSW,Angledale,2550,-36.63167,149.88444
NSW,Anglers Reach,2629,-36.015,148.66778
NSW,Angourie,2464,-29.48167,153.35944
NSW,Anna Bay,2316,-32.78167,152.08444
NSW,Annandale,2038,-33.89,151.16778
NSW,Annangrove,2156,-33.65944,150.93444
NSW,Apollo,2830,-32.23167,148.63444
NSW,Appin,2560,-34.20667,150.78444
NSW,Appleby,2340,-30.965,150.85111
NSW,Appletree Flat,2330,-32.515,150.86778
NSW,Arable,2630,-36.39,148.98444
NSW,Arakoon,2431,-30.865,153.08444
NSW,Araluen,2622,-35.64833,149.81778
NSW,Arcadia,2159,-33.62333,151.04278
NSW,Arcadia Vale,2283,-33.06222,151.58722
NSW,Ardglen,2338,-31.73167,150.78444
NSW,Arding,2358,-30.5675,151.52528
NSW,Ardlethan,2665,-34.34833,146.90111
NSW,Argalong,2720,-35.315,148.43444
NSW,Argenton,2284,-32.93167,151.61778
NSW,Argents Hill,2449,-30.50083,152.74222
NSW,Argoon,2707,-34.80528,145.57556
NSW,Argyle,2350,-30.57972,151.84361
NSW,Ariah Park,2665,-34.33167,147.21778
NSW,Arkell,2795,-33.73167,149.38444
NSW,Arkstone,2795,-34.03167,149.65944
NSW,Armidale,2350,-30.515,151.665
NSW,Arncliffe,2205,-33.93167,151.15111
NSW,Arndell Park,2148,-33.79,150.87611
NSW,Arrawarra,2456,-30.065,153.20111
NSW,Arrawarra Headland,2456,-30.06861,153.19528
NSW,Artarmon,2064,-33.79833,151.18444
NSW,Ashbury,2193,-33.90667,151.12611
NSW,Ashby,2463,-29.43167,153.19278
NSW,Ashby Heights,2463,-29.39833,153.17611
NSW,Ashby Island,2463,-29.42333,153.20111
NSW,Ashcroft,2168,-33.915,150.90111
NSW,Ashfield,2131,-33.88167,151.11778
NSW,Ashford,2361,-29.315,151.08444
NSW,Ashley,2400,-29.315,149.81778
NSW,Ashmont,2650,-35.13167,147.33444
NSW,Ashtonfield,2323,-32.78167,151.60111
NSW,Asquith,2077,-33.69,151.10944
NSW,Atholwood,2361,-28.99833,151.05111
NSW,Attunga,2345,-30.93167,150.85111
NSW,Auburn,2144,-33.84833,151.03444
NSW,Auburn Vale,2360,-29.82083,151.04528
NSW,Audley,2232,-34.08167,151.05111
NSW,Austinmer,2515,-34.30306,150.93
NSW,Austral,2179,-33.93167,150.81778
NSW,Austral Eden,2440,-31.03167,152.93444
NSW,Avalon,2107,-33.63167,151.31778
NSW,Avalon Beach,2107,-33.63167,151.31778
NSW,Avoca,2577,-33.465,151.43444
NSW,Avoca Beach,2251,-33.465,151.43444
NSW,Avon,2520,-34.42528,150.67583
NSW,Avondale,2530,-34.52306,150.73278
NSW,Awaba,2283,-33.015,151.53444
NSW,Baan Baa,2390,-30.59833,149.95111
NSW,Babinda,2825,-31.92722,146.51389
NSW,Babyl Creek,2470,-28.72,152.80028
NSW,Back Creek,2622,-30.12833,150.26972
NSW,Back Forest,2535,-34.84833,150.68444
NSW,Backwater,2365,-30.065,151.88444
NSW,Badgerys Creek,2555,-33.815,150.76778
NSW,Badja,2630,-36.04833,149.53444
NSW,Baerami,2333,-32.38167,150.46778
NSW,Baerami Creek,2333,-32.465,150.48444
NSW,Bagnoo,2446,-31.465,152.53444
NSW,Bago,2730,-31.50667,152.66778
NSW,Bagotville,2477,-28.98167,153.41778
NSW,Bakers Creek,2422,-30.32056,150.99778
NSW,Balala,2358,-30.61306,151.335
NSW,Balcolyn,2264,-33.09833,151.55111
NSW,Bald Blair,2365,-30.23167,151.79278
NSW,Bald Hills,2549,-36.90667,149.83444
NSW,Bald Nob,2370,-29.63167,151.96778
NSW,Bald Ridge,2795,-33.93167,149.43444
NSW,Baldersleigh,2365,-30.25528,151.42583
NSW,Balgowlah,2093,-33.79833,151.25111
NSW,Balgowlah Heights,2093,-33.79833,151.26778
NSW,Balgownie,2519,-34.385,150.86944
NSW,Balickera,2324,-32.64833,151.80944
NSW,Ballalaba,2622,-35.59833,149.63444
NSW,Balldale,2646,-35.84833,146.51778
NSW,Ballengarra,2441,-31.315,152.70111
NSW,Ballina,2478,-28.83167,153.53444
NSW,Ballyroe,2795,-34.04833,149.56778
NSW,Balmain,2041,-33.84833,151.16778
NSW,Balmain East,2041,-33.84833,151.18444
NSW,Balmoral,2283,-33.05389,151.58167
NSW,Balranald,2715,-34.63167,143.56778
NSW,Bamarang,2540,-34.89833,150.51778
NSW,Banda Banda,2446,-31.19,152.45111
NSW,Bandon Grove,2420,-32.26694,151.69778
NSW,Bangadang,2729,-35.24861,147.95417
NSW,Bangalee,2541,-34.84833,150.51778
NSW,Bangalow,2479,-28.68167,153.51778
NSW,Banksia,2216,-33.94833,151.14278
NSW,Banksmeadow,2019,-33.965,151.21778
NSW,Bankstown,2200,-33.92333,151.03444
NSW,Bankstown Aerodrome,2200,-33.92333,150.99
NSW,Bannaby,2580,-34.415,150.00111
NSW,Bannister,2580,-34.59833,149.49278
NSW,Banoon,2347,-30.54833,150.37611
NSW,Banora Point,2486,-28.2225,153.53861
NSW,Banyabba,2469,-29.34833,153.01778
NSW,Bar Beach,2300,-32.94,151.76778
NSW,Bar Point,2083,-33.49278,151.16778
NSW,Baradine,2396,-30.94833,149.06778
NSW,Baraimal,2470,-28.715,152.98444
NSW,Barcoongere,2460,-29.93167,153.21778
NSW,Barden Ridge,2234,-34.015,151.00111
NSW,Bardwell Park,2207,-33.94,151.13444
NSW,Bardwell Valley,2207,-33.93694,151.13306
NSW,Barellan,2665,-34.28167,146.56778
NSW,Bargo,2574,-34.29833,150.58444
NSW,Barham,2732,-35.63167,144.11778
NSW,Barkers Vale,2474,-28.53639,153.12056
NSW,Barmedman,2668,-34.14833,147.38444
NSW,Barnsley,2278,-32.93167,151.58444
NSW,Barraba,2347,-30.38167,150.61778
NSW,Barrack Heights,2528,-34.565,150.85111
NSW,Barrack Point,2528,-34.565,150.86778
NSW,Barraganyatti,2441,-30.85667,152.93444
NSW,Barragga Bay,2546,-36.50389,150.05417
NSW,Barratta,2710,-35.17611,144.5475
NSW,Barren Grounds,2577,-34.68167,150.71778
NSW,Barrengarry,2577,-34.715,150.53444
NSW,Barretts Creek,2460,-29.34833,152.75111
NSW,Barringella,2540,-34.9125,150.45778
NSW,Barrington,2422,-31.98167,151.85111
NSW,Barrington Tops,2422,-32.02333,151.48444
NSW,Barwon,2396,-30.98722,148.95111
NSW,Baryulgil,2460,-29.215,152.60111
NSW,Basin View,2540,-35.09833,150.56778
NSW,Bass Hill,2197,-33.89833,150.99556
NSW,Bassendean,2365,-30.065,151.14278
NSW,Batar Creek,2439,-31.665,152.66778
NSW,Bateau Bay,2261,-33.38167,151.48444
NSW,Batehaven,2536,-35.73167,150.20111
NSW,Batemans Bay,2536,-35.715,150.18444
NSW,Bathampton,2795,-33.49,149.40111
NSW,Bathurst,2795,-33.41667,149.58056
NSW,Batlow,2730,-35.515,148.13444
NSW,Baulkham Hills,2153,-33.75944,151.00111
NSW,Baw Baw,2580,-34.715,149.63444
NSW,Bawley Point,2539,-35.49833,150.38444
NSW,Baxters Ridge,2422,-31.69833,151.90111
NSW,Bayview,2104,-33.64833,151.28444
NSW,Beacon Hill,2100,-33.74833,151.25111
NSW,Beaconsfield,2015,-33.915,151.19278
NSW,Bean Creek,2469,-28.58861,152.5925
NSW,Beaumont,2577,-34.78167,150.56778
NSW,Beaumont Hills,2155,-33.69972,150.94056
NSW,Beaury Creek,2475,-28.465,152.51778
NSW,Beauty Point,2546,-33.09833,151.46778
NSW,Beckom,2665,-34.315,146.96778
NSW,Bective,2340,-30.965,150.73444
NSW,Bectric,2665,-34.515,147.26778
NSW,Beechwood,2446,-31.43167,152.66778
NSW,Beecroft,2119,-33.74833,151.05944
NSW,Beecroft Peninsula,2540,-35.04833,150.80111
NSW,Beelbangera,2680,-34.24833,146.10111
NSW,Bega,2550,-36.68167,149.90111
NSW,Belbora,2422,-31.97333,152.15111
NSW,Belfield,2191,-33.89833,151.08444
NSW,Belford,2335,-32.64833,151.27611
NSW,Belfrayden,2650,-35.115,147.06778
NSW,Belimbla Park,2570,-34.08167,150.53444
NSW,Bell,2786,-33.49694,150.27861
NSW,Bella Vista,2153,-33.74167,150.95472
NSW,Bellambi,2518,-34.36806,150.91833
NSW,Bellangry,2446,-31.33167,152.61778
NSW,Bellata,2397,-29.915,149.78444
NSW,Bellawongarah,2535,-34.765,150.61778
NSW,Bellbird,2325,-32.855,151.31833
NSW,Bellbrook,2440,-30.815,152.50111
NSW,Bellevue Hill,2023,-33.88167,151.25944
NSW,Bellimbopinni,2440,-30.99833,152.90111
NSW,Bellingen,2454,-30.44833,152.90111
NSW,Bellmount Forest,2581,-34.92611,149.22722
NSW,Belltrees,2337,-31.99833,151.11778
NSW,Belmont,2280,-33.03722,151.65944
NSW,Belmont North,2280,-33.015,151.66778
NSW,Belmont South,2280,-33.04833,151.65111
NSW,Belmore,2192,-33.915,151.09278
NSW,Belmore River,2440,-31.065,152.96778
NSW,Beloka,2628,-36.53167,148.73444
NSW,Belowra,2545,-36.14833,149.71778
NSW,Belrose,2085,-33.715,151.23444
NSW,Bemboka,2550,-36.615,149.56778
NSW,Ben Bullen,2790,-33.215,150.01778
NSW,Ben Lomond,2365,-30.015,151.65111
NSW,Benandarah,2536,-35.64833,150.23444
NSW,Benanee,2737,-34.515,142.83444
NSW,Benarca,2710,-33.94833,144.71778
NSW,Bendalong,2539,-35.22694,150.49
NSW,Bendemeer,2355,-30.88167,151.15111
NSW,Bendolba,2420,-32.35167,151.73
NSW,Bendoura,2622,-35.53167,149.66778
NSW,Benerembah,2680,-34.41583,145.86806
NSW,Bengalla,2333,-32.29,150.80944
NSW,Benkennie,2570,-34.065,150.70111
NSW,Bennetts Green,2290,-32.99278,151.69278
NSW,Bensville,2251,-33.49833,151.38444
NSW,Bentley,2480,-28.78167,153.11778
NSW,Berala,2141,-33.87333,151.03444
NSW,Berambing,2758,-33.53278,150.44833
NSW,Beresfield,2322,-32.79833,151.63444
NSW,Bergalia,2537,-35.98167,150.10111
NSW,Berkeley,2506,-34.47417,150.84778
NSW,Berkeley Vale,2261,-33.34,151.43444
NSW,Berkshire Park,2765,-33.68167,150.78444
NSW,Berlang,2622,-35.64833,149.65111
NSW,Bermagui,2546,-36.43167,150.06778
NSW,Berowra,2081,-33.62333,151.14278
NSW,Berowra Heights,2082,-33.60667,151.14278
NSW,Berowra Waters,2082,-33.59833,151.11778
NSW,Berrambool,2548,-36.87611,149.91528
NSW,Berrara,2540,-35.19833,150.56778
NSW,Berremangra,2582,-34.79833,148.46778
NSW,Berrico,2422,-32.065,151.81778
NSW,Berridale,2628,-36.365,148.81778
NSW,Berrigan,2712,-35.63167,145.80111
NSW,Berrilee,2159,-33.615,151.10111
NSW,Berrima,2577,-34.48167,150.33444
NSW,Berringer Lake,2539,-35.24833,150.50444
NSW,Berry,2535,-34.78167,150.70111
NSW,Berry Jerry,2650,-34.69833,147.26778
NSW,Berry Mountain,2535,-34.765,150.65111
NSW,Berry Park,2321,-32.74,151.65667
NSW,Berthong,2594,-34.34,148.03444
NSW,Bethungra,2590,-34.76083,147.85528
NSW,Bevendale,2581,-34.52722,149.08056
NSW,Beverley Park,2217,-33.98167,151.12611
NSW,Beverly Hills,2209,-33.94833,151.08444
NSW,Bewong,2540,-35.08167,150.53444
NSW,Bexhill,2480,-28.765,153.35111
NSW,Bexley,2207,-33.95667,151.12611
NSW,Bexley North,2207,-33.94,151.11361
NSW,Biala,2581,-34.59444,149.2625
NSW,Bibbenluke,2632,-36.815,149.28444
NSW,Bickley Vale,2570,-34.065,150.65944
NSW,Bidwill,2770,-33.72611,150.81222
NSW,Bielsdown Hills,2454,-30.36639,152.67639
NSW,Big Hill,2579,-34.54833,150.00111
NSW,Big Jacks Creek,2339,-31.7925,150.60639
NSW,Big Ridge,2330,-32.57472,151.22472
NSW,Big Springs,2650,-35.315,147.41778
NSW,Bigga,2583,-34.04833,149.15111
NSW,Bilambil,2486,-28.22639,153.4675
NSW,Bilambil Heights,2486,-28.20833,153.48667
NSW,Bilbul,2680,-34.28167,146.13444
NSW,Bilgola,2107,-33.63167,151.31778
NSW,Billilingra,2630,-36.015,149.12611
NSW,Billinudgel,2483,-28.49833,153.51778
NSW,Billyrimba,2372,-29.18167,152.23444
NSW,Billys Creek,2453,-30.165,152.58444
NSW,Billywillinga,2795,-33.27333,149.43444
NSW,Bilpin,2758,-33.49833,150.51778
NSW,Bimbimbie,2536,-35.815,150.13444
NSW,Binalong,2584,-34.67333,148.63444
NSW,Binda,2583,-34.34833,149.40111
NSW,Bindera,2422,-32.015,151.81778
NSW,Bingara,2404,-29.865,150.56778
NSW,Bingeebeebra Creek,2469,-28.80972,152.77806
NSW,Bingie,2537,-36.01,150.14444
NSW,Bingleburra,2311,-32.39833,151.58444
NSW,Biniguy,2399,-29.57167,150.14
NSW,Binjura,2630,-36.18167,149.10111
NSW,Binna Burra,2479,-28.69833,153.48444
NSW,Binnaway,2395,-31.55667,149.39278
NSW,Binya,2665,-34.23167,146.35111
NSW,Birchgrove,2041,-33.84833,151.16778
NSW,Birdlip,2655,-35.315,147.18444
NSW,Birdwood,2446,-31.34833,152.33444
NSW,Birganbigil,2710,-35.515,145.13444
NSW,Birmingham Gardens,2287,-32.88167,151.68444
NSW,Birrego,2700,-35.015,146.58444
NSW,Birrong,2143,-33.89,151.02611
NSW,Bishops Bridge,2326,-32.73167,151.46778
NSW,Bithramere,2340,-31.13167,150.76778
NSW,Black Creek,2729,-35.32611,148.03167
NSW,Black Head,2430,-32.07083,152.53611
NSW,Black Hill,2322,-32.84,151.61222
NSW,Black Mountain,2365,-30.315,151.65111
NSW,Black Range,2550,-36.03167,146.93444
NSW,Black Springs,2787,-33.84833,149.75111
NSW,Black Swamp,2372,-29.015,152.15111
NSW,Blackalls Park,2283,-33.00111,151.58722
NSW,Blackbutt,2529,-34.57056,150.84278
NSW,Blackett,2770,-33.73722,150.815
NSW,Blackheath,2785,-33.63389,150.28472
NSW,Blackmans Flat,2790,-33.335,150.07056
NSW,Blackmans Point,2444,-31.415,152.85111
NSW,Blacksmiths,2281,-33.07333,151.65667
NSW,Blacktown,2148,-33.77056,150.90667
NSW,Blackville,2343,-31.63167,150.23444
NSW,Blackwall,2256,-33.5025,151.32611
NSW,Blair Athol,2560,-34.06278,150.79972
NSW,Blairmount,2559,-34.04833,150.79278
NSW,Blakebrook,2480,-28.765,153.25111
NSW,Blakehurst,2221,-33.99833,151.10111
NSW,Blakney Creek,2581,-34.63278,149.02111
NSW,Bland,2721,-33.665,147.66778
NSW,Blandford,2338,-31.78167,150.90111
NSW,Blanket Flat,2583,-34.13167,149.20111
NSW,Blaxland,2774,-33.74528,150.6175
NSW,Blaxlands Creek,2460,-29.88167,152.80111
NSW,Blaxlands Ridge,2758,-33.49833,150.71778
NSW,Blayney,2799,-33.53167,149.25111
NSW,Bligh Park,2756,-33.63167,150.78444
NSW,Blighty,2713,-35.58167,145.28444
NSW,Blowering,2720,-35.48694,148.26361
NSW,Blue Bay,2261,-33.3525,151.50111
NSW,Blue Haven,2262,-33.19833,151.48444
NSW,Blue Knob,2480,-28.54833,153.18444
NSW,Blue Vale,2380,-30.82333,150.19278
NSW,Blueys Beach,2428,-32.34917,152.53167
NSW,Bluff Rock,2372,-29.165,152.00111
NSW,Boambee,2450,-30.33167,153.08444
NSW,Boambee East,2452,-30.34417,153.07806
NSW,Boat Harbour,2480,-32.78167,152.10944
NSW,Bobadah,2825,-32.19889,146.61472
NSW,Bobbin Head,2074,-33.65667,151.15944
NSW,Bobin,2429,-31.715,152.28444
NSW,Bobs Creek,2443,-31.59,152.7525
NSW,Bobs Farm,2316,-32.765,152.01778
NSW,Bobundara,2630,-36.48167,148.98444
NSW,Boco,2631,-36.60944,149.15889
NSW,Bodalla,2545,-36.09,150.08444
NSW,Boeill Creek,2648,-34.13167,145.11778
NSW,Bogangar,2488,-28.33167,153.55944
NSW,Bogee,2849,-32.965,150.10111
NSW,Boggabilla,2409,-28.59833,150.35111
NSW,Boggabri,2382,-30.715,150.03444
NSW,Bogong Peaks Wilderness,2720,-35.51972,148.37667
NSW,Bohena Creek,2390,-30.41194,149.64194
NSW,Bohnock,2430,-31.94833,152.56778
NSW,Bolaro,2629,-35.915,148.83444
NSW,Bolivia,2372,-29.29833,151.95111
NSW,Bolong,2540,-34.84833,150.66778
NSW,Bolton Point,2283,-33.0025,151.615
NSW,Bolwarra,2320,-32.715,151.565
NSW,Bolwarra Heights,2320,-32.69833,151.58444
NSW,Bom Bom,2460,-29.76194,152.97167
NSW,Bomaderry,2541,-34.84833,150.61778
NSW,Bombah Point,2423,-32.50083,152.26639
NSW,Bombala,2632,-36.915,149.23444
NSW,Bombay,2622,-35.43167,149.65111
NSW,Bombo,2533,-34.64833,150.85944
NSW,Bombowlee,2720,-35.25806,148.24111
NSW,Bombowlee Creek,2720,-35.26972,148.31583
NSW,Bomen,2650,-35.08167,147.41778
NSW,Bonalbo,2469,-28.73167,152.61778
NSW,Bondi,2026,-33.89,151.26778
NSW,Bondi Beach,2026,-33.88167,151.26778
NSW,Bondi Forest,2632,-37.14889,149.22056
NSW,Bondi Junction,2022,-33.89833,151.25111
NSW,Bong Bong,2576,-34.53167,150.40111
NSW,Bongalong,2722,-34.815,148.11778
NSW,Bongongalong,2722,-34.93167,148.05111
NSW,Bonnells Bay,2264,-33.09833,151.51778
NSW,Bonnet Bay,2226,-34.015,151.05111
NSW,Bonny Hills,2445,-31.58167,152.83444
NSW,Bonnyrigg,2177,-33.89,150.88444
NSW,Bonnyrigg Heights,2177,-33.89833,150.86778
NSW,Bonshaw,2361,-29.04833,151.26778
NSW,Bonville,2441,-30.38167,153.05111
NSW,Booerie Creek,2480,-28.74833,153.28444
NSW,Book Book,2650,-35.365,147.55111
NSW,Booker Bay,2257,-33.50806,151.34556
NSW,Bookham,2582,-34.84056,148.63306
NSW,Bookram,2460,-29.71083,153.22611
NSW,Boolambayte,2423,-32.39806,152.26944
NSW,Boolaroo,2284,-32.94833,151.61778
NSW,Boolcarroll,2388,-30.04833,149.43444
NSW,Booligal,2711,-33.65361,144.53306
NSW,Boolijah,2540,-35.11167,150.32583
NSW,Boomanoomana,2712,-35.915,145.90111
NSW,Boomerang Beach,2428,-32.33944,152.53361
NSW,Boomi,2405,-28.715,149.56778
NSW,Boomi Creek,2476,-28.46694,152.59889
NSW,Boomoodeerie,2469,-28.89833,153.01778
NSW,Boonoo Boonoo,2372,-28.8775,152.10111
NSW,Boorabee Park,2480,-28.715,153.05111
NSW,Booragul,2284,-32.94,151.60944
NSW,Booral,2425,-32.46833,151.98583
NSW,Boorga,2652,-34.02944,146.01361
NSW,Boorganna,2429,-31.63167,152.40111
NSW,Boorolong,2350,-30.32333,151.53444
NSW,Boorook,2372,-28.83167,152.25111
NSW,Boorooma,2650,-35.065,147.36778
NSW,Booroorban,2710,-34.93167,144.75111
NSW,Boorowa,2586,-34.43972,148.72028
NSW,Bootawa,2430,-31.93167,152.36778
NSW,Booti Booti,2428,-32.31667,152.52194
NSW,Booyong,2480,-28.74833,153.45111
NSW,Borambil,2329,-31.505,150.63667
NSW,Borambola,2650,-35.165,147.63444
NSW,Border Ranges,2474,-28.39444,153.06722
NSW,Boree,2325,-33.065,151.00944
NSW,Boree Creek,2652,-35.13167,146.61778
NSW,Boro,2622,-35.13167,149.65111
NSW,Bossley Park,2176,-33.84833,150.88444
NSW,Bostobrick,2453,-30.53361,152.60333
NSW,Botany,2019,-33.94833,151.20111
NSW,Bottle Creek,2469,-28.78861,152.65194
NSW,Bouddi,2251,-33.5175,151.39944
NSW,Bourkelands,2650,-35.14833,147.35111
NSW,Bournda,2550,-36.80667,149.90639
NSW,Bow Bowing,2566,-34.015,150.84278
NSW,Bowen Mountain,2753,-33.58167,150.63444
NSW,Bowenfels,2790,-33.48167,150.13444
NSW,Bowling Alley Point,2340,-31.39833,151.13444
NSW,Bowman,2422,-31.93167,151.83444
NSW,Bowman Farm,2422,-31.93167,151.93444
NSW,Bowmans Creek,2330,-32.265,151.13444
NSW,Bowna,2644,-35.93167,147.10111
NSW,Bowning,2582,-34.74472,148.80889
NSW,Bowral,2576,-34.48167,150.41778
NSW,Bowraville,2449,-30.64667,152.85111
NSW,Box Head,2257,-33.54833,151.35111
NSW,Box Hill,2765,-33.665,150.88444
NSW,Box Ridge,2795,-31.24833,148.78444
NSW,Boydtown,2551,-37.115,149.88444
NSW,Bradbury,2560,-34.08167,150.81778
NSW,Braefield,2339,-31.57056,150.70167
NSW,Braemar,2575,-36.09833,148.63444
NSW,Braidwood,2622,-35.44833,149.80111
NSW,Brandy Hill,2324,-32.68917,151.69583
NSW,Branga Plains,2354,-31.265,151.58444
NSW,Branxton,2335,-32.64833,151.35111
NSW,Brassi,2710,-35.48167,144.73444
NSW,Braunstone,2460,-29.79833,152.95111
NSW,Brawboy,2337,-31.94833,150.64278
NSW,Bray Park,2484,-28.34083,153.37611
NSW,Brays Creek,2484,-28.40667,153.19278
NSW,Brayton,2579,-34.64833,149.96778
NSW,Breadalbane,2581,-34.79611,149.44778
NSW,Breakfast Point,2137,-33.84417,151.11361
NSW,Bream Beach,2540,-35.115,150.66778
NSW,Bredbo,2626,-35.94833,149.15111
NSW,Breeza,2381,-31.24833,150.46778
NSW,Bretti,2422,-31.78167,151.91778
NSW,Brewarrina,2839,-29.94833,146.86778
NSW,Brewongle,2795,-33.43167,149.71778
NSW,Briarbrook,2365,-30.16833,151.37222
NSW,Bribbaree,2594,-34.10528,147.8875
NSW,Bridgman,2330,-32.43167,151.16778
NSW,Brierfield,2454,-30.49833,152.90111
NSW,Brighton-Le-Sands,2216,-33.965,151.15111
NSW,Brightwaters,2264,-33.09833,151.53444
NSW,Bril Bril,2441,-31.27333,152.53444
NSW,Brimbin,2430,-31.84,152.45111
NSW,Brindabella,2611,-35.38167,149.45111
NSW,Brinerville,2441,-30.48167,152.55111
NSW,Bringelly,2556,-33.94833,150.73444
NSW,Brisbane Grove,2580,-34.79833,149.70111
NSW,Broadmeadow,2292,-32.91667,151.73333
NSW,Broadwater,2549,-29.01667,153.43333
NSW,Broadway,2581,-34.70806,149.07944
NSW,Brobenah,2705,-34.4,146.45
NSW,Brocklesby,2642,-35.83333,146.66667
NSW,Brockley,2365,-30.28333,151.875
NSW,Brogers Creek,2535,-34.70333,150.68944
NSW,Brogo,2550,-36.53333,149.79167
NSW,Broke,2330,-32.75,151.1
NSW,Broken Head,2481,-28.71667,153.58333
NSW,Brombin,2446,-31.45,152.65
NSW,Bronte,2024,-33.9,151.26667
NSW,Brookdale,2656,-35.1,146.88333
NSW,Brookfield,2420,-32.5,151.76667
NSW,Brooklana,2450,-30.26667,152.85
NSW,Brooklands,2583,-34.45833,149.45833
NSW,Brooklet,2479,-28.73333,153.51667
NSW,Brooklyn,2083,-33.55,151.21667
NSW,Brookvale,2100,-33.76667,151.26667
NSW,Brooman,2538,-35.46667,150.23333
NSW,Brooms Head,2463,-29.61667,153.33333
NSW,Broughton,2535,-34.76667,150.73333
NSW,Broughton Vale,2535,-34.73333,150.71667
NSW,Broughton Village,2535,-34.76667,150.73333
NSW,Broulee,2537,-35.85,150.16667
NSW,Brownlow Hill,2570,-34.03333,150.65
NSW,Browns Mountain,2540,-34.80194,150.52194
NSW,Brownsville,2530,-34.48417,150.80972
NSW,Brucedale,2650,-35.03333,147.41667
NSW,Bruinbun,2795,-33.13333,149.45
NSW,Brumby Plains,2476,-28.46056,152.65667
NSW,Brundee,2540,-34.9,150.66667
NSW,Brungle,2722,-35.15,148.23333
NSW,Brungle Creek,2722,-35.145,148.26139
NSW,Brunkerville,2323,-32.95833,151.475
NSW,Brunswick Heads,2483,-28.53333,153.55
NSW,Brushgrove,2460,-29.56667,153.08333
NSW,Brushy Creek,2365,-30.16667,151.48333
NSW,Bryans Gap,2372,-29.01667,152.08333
NSW,Buangla,2540,-34.85,150.39167
NSW,Bucca,2450,-30.14861,153.09306
NSW,Bucca Wauka,2429,-32.1,152.15
NSW,Buccarumbi,2460,-29.83333,152.58333
NSW,Buchanan,2323,-32.81667,151.51667
NSW,Buckajo,2550,-36.68333,149.71667
NSW,Buckenbowra,2536,-35.67083,149.98528
NSW,Buckenderra,2630,-36.165,148.75111
NSW,Buckendoon,2472,-29.04833,153.35111
NSW,Bucketty,2250,-33.10667,151.13444
NSW,Buckra Bendinni,2449,-30.65083,152.70583
NSW,Budawang,2622,-35.45,149.98
NSW,Budderoo,2535,-34.70667,150.63444
NSW,Buddong,2720,-35.7025,148.22611
NSW,Budgewoi,2262,-33.23167,151.56778
NSW,Budgewoi Peninsula,2262,-33.215,151.58444
NSW,Budgong,2577,-34.82083,150.45361
NSW,Buff Point,2262,-33.23167,151.53444
NSW,Buffer Creek,2454,-30.38167,152.85111
NSW,Bugaldie,2357,-31.115,149.10111
NSW,Bukalong,2632,-36.79833,149.20111
NSW,Bukkulla,2360,-29.49833,151.11778
NSW,Bulahdelah,2423,-32.38306,152.19528
NSW,Bulga,2330,-32.65667,151.01778
NSW,Bulga Forest,2429,-31.54833,152.26778
NSW,Bulgary,2650,-35.065,146.95111
NSW,Bull Plain,2646,-35.715,146.16778
NSW,Bulla Creek,2594,-34.115,148.25111
NSW,Bullaburra,2784,-33.725,150.41333
NSW,Bullarah,2400,-29.465,149.23444
NSW,Bullawa Creek,2390,-30.30667,150.00111
NSW,Bulldog,2469,-29.03806,152.50139
NSW,Bulli,2516,-34.32889,150.90222
NSW,Bulli Tops,2516,-34.29833,150.90111
NSW,Bulliac,2422,-31.915,152.03444
NSW,Bullio,2575,-34.33167,150.15111
NSW,Bulyeroi,2387,-29.78167,149.08444
NSW,Bumbaldry,2794,-33.86806,148.42472
NSW,Bumbalong,2626,-35.83083,149.11306
NSW,Bundabah,2324,-32.66944,152.06528
NSW,Bundagen,2454,-30.41222,153.06028
NSW,Bundanoon,2578,-34.68167,150.25111
NSW,Bundarbo,2726,-34.89833,148.41778
NSW,Bundarra,2359,-30.165,151.08444
NSW,Bundeena,2230,-34.08167,151.15111
NSW,Bundella,2343,-31.565,149.98444
NSW,Bundewallah,2535,-34.765,150.68444
NSW,Bundook,2422,-31.89833,152.13444
NSW,Bundure,2663,-35.165,146.00111
NSW,Bungabbee,2480,-28.78167,153.15111
NSW,Bungalora,2486,-28.24778,153.47528
NSW,Bungarby,2630,-36.665,149.01778
NSW,Bungawalbin,2469,-29.08167,153.28444
NSW,Bungendore,2621,-35.24833,149.45111
NSW,Bungonia,2580,-34.84833,149.95111
NSW,Bungowannah,2640,-35.99833,146.78444
NSW,Bungulla,2372,-29.115,152.00111
NSW,Bungwahl,2423,-32.36472,152.40861
NSW,Bunnaloo,2731,-35.78167,144.58444
NSW,Bunnan,2337,-32.03167,150.60111
NSW,Bunyah,2429,-32.18083,152.20556
NSW,Bunyan,2630,-36.165,149.15111
NSW,Buraja,2646,-35.865,146.38444
NSW,Burburgate,2380,-30.90667,150.23444
NSW,Bureen,2328,-32.465,150.71778
NSW,Burgooney,2672,-33.38167,146.56778
NSW,Burnt Bridge,2440,-31.09833,152.80111
NSW,Burnt Yards,2792,-33.565,149.01778
NSW,Burra,2653,-35.56,149.22083
NSW,Burra Creek,2722,-34.88889,147.995
NSW,Burraboi,2732,-35.33583,144.34083
NSW,Burraga,2795,-33.94833,149.53444
NSW,Burragate,2550,-36.99833,149.61778
NSW,Burrandana,2650,-35.415,147.33444
NSW,Burrangong,2594,-34.28167,148.26778
NSW,Burrapine,2447,-30.72278,152.64361
NSW,Burrawang,2577,-34.73167,150.40111
NSW,Burrell Creek,2429,-31.94833,152.28444
NSW,Burren Junction,2386,-30.09833,148.96778
NSW,Burrier,2540,-34.865,150.45111
NSW,Burrill Lake,2539,-35.38167,150.45111
NSW,Burringbar,2483,-28.42333,153.45944
NSW,Burrinjuck,2582,-34.95111,148.62306
NSW,Burrumbuttock,2642,-35.83167,146.80111
NSW,Burwood,2134,-33.87333,151.10111
NSW,Burwood Heights,2136,-33.87333,151.10111
NSW,Busby,2168,-33.915,150.88444
NSW,Busbys Flat,2469,-29.04833,152.80111
NSW,Bushells Ridge,2259,-33.19833,151.46778
NSW,Buttaba,2283,-33.05111,151.58444
NSW,Buttai,2323,-32.82611,151.56222
NSW,Butterwick,2321,-32.64833,151.63444
NSW,Buxton,2571,-34.25583,150.53306
NSW,Byabarra,2446,-31.53167,152.53444
NSW,Byadbo Wilderness,2628,-36.82889,148.54778
NSW,Byangum,2484,-28.35667,153.35944
NSW,Bygalorie,2669,-33.44833,146.76778
NSW,Byron Bay,2481,-28.64833,153.61778
NSW,Byrrill Creek,2484,-28.44,153.23444
NSW,Bywong,2621,-35.165,149.33444
NSW,Cabarita,2137,-33.83167,151.11778
NSW,Cabarita Beach,2488,-28.32917,153.56972
NSW,Cabbage Tree Island,2477,-28.98167,153.45111
NSW,Cabramatta,2166,-33.89833,150.93444
NSW,Cabramatta West,2166,-33.89,150.90944
NSW,Cabramurra,2629,-36.015,148.48444
NSW,Cadgee,2545,-36.13167,149.91778
NSW,Caffreys Flat,2424,-31.79833,152.07611
NSW,Cairncross,2446,-31.34833,152.68444
NSW,Cal Lal,2648,-34.04833,141.05111
NSW,Calala,2340,-34.115,151.03444
NSW,Calamia,2460,-29.84833,153.11778
NSW,Calderwood,2527,-34.55667,150.74278
NSW,Caldwell,2710,-35.63167,144.50944
NSW,Calga,2250,-33.43167,151.21778
NSW,Califat,2729,-35.23167,148.08444
NSW,Calimo,2710,-35.415,144.58444
NSW,Callaghan,2308,-32.89,151.70111
NSW,Callaghans Creek,2422,-31.85694,152.02333
NSW,Callala Bay,2540,-34.98889,150.71778
NSW,Callala Beach,2540,-34.99833,150.73444
NSW,Calliope,2462,-29.615,153.06778
NSW,Caloola,2795,-33.59833,149.43444
NSW,Calorafield,2705,-34.44833,146.21778
NSW,Calwalla,2577,-34.565,150.48444
NSW,Cambalong,2632,-36.88167,149.10111
NSW,Camberwell,2330,-32.465,151.08444
NSW,Cambewarra,2540,-34.83167,150.56778
NSW,Cambewarra Village,2540,-34.82639,150.55889
NSW,Cambra,2420,-32.465,151.83444
NSW,Cambridge Gardens,2747,-33.73167,150.71778
NSW,Cambridge Park,2747,-33.74833,150.73444
NSW,Cambridge Plateau,2469,-28.80361,152.73611
NSW,Camden,2570,-34.04833,150.68444
NSW,Camden Head,2443,-31.63167,152.83444
NSW,Camden Park,2570,-34.09,150.71778
NSW,Camden South,2570,-34.065,150.70111
NSW,Camellia,2142,-33.815,151.03444
NSW,Cameron Park,2285,-32.90444,151.60917
NSW,Camerons Creek,2359,-30.32694,151.10028
NSW,Camira,2469,-29.22,152.93833
NSW,Cammeray,2062,-33.83167,151.20111
NSW,Campbelltown,2560,-34.07333,150.82611
NSW,Camperdown,2050,-33.89,151.18444
NSW,Campsie,2194,-33.90667,151.10944
NSW,Campvale,2318,-32.77333,151.85111
NSW,Cams Wharf,2281,-33.12611,151.615
NSW,Canada Bay,2046,-33.865,151.11778
NSW,Candelo,2550,-36.765,149.70111
NSW,Cangai,2460,-29.49833,152.46778
NSW,Caniaba,2480,-28.83167,153.23444
NSW,Canley Heights,2166,-33.88167,150.92611
NSW,Canley Vale,2166,-33.88167,150.94278
NSW,Canobolas,2800,-33.35472,149.01389
NSW,Canoelands,2157,-33.49833,151.05111
NSW,Canowindra,2804,-33.565,148.65111
NSW,Canterbury,2193,-33.915,151.11778
NSW,Canton Beach,2263,-33.27333,151.54833
NSW,Caparra,2429,-31.73167,152.25111
NSW,Capeen,2469,-28.59833,152.60111
NSW,Capertee,2846,-33.14833,149.98444
NSW,Capoompeta,2371,-29.38083,152.05861
NSW,Captains Flat,2623,-35.58167,149.45111
NSW,Carabost,2650,-35.59833,147.71778
NSW,Caravan Head,2225,-33.99833,151.08444
NSW,Carcoar,2791,-33.59833,149.13444
NSW,Cardiff,2285,-32.93167,151.65111
NSW,Cardiff Heights,2285,-32.93167,151.66778
NSW,Cardiff South,2285,-32.9525,151.66222
NSW,Careel Bay,2107,-33.62333,151.31778
NSW,Carey Bay,2283,-33.02889,151.60944
NSW,Caringbah,2229,-34.04833,151.11778
NSW,Carlaminda,2630,-36.28167,149.31778
NSW,Carlingford,2118,-33.77889,151.05111
NSW,Carlton,2218,-33.965,151.12611
NSW,Carnham,2460,-29.33167,152.53444
NSW,Carnsdale,2660,-35.865,146.51778
NSW,Caroda,2347,-30.015,150.36778
NSW,Carool,2486,-28.22333,153.42611
NSW,Caroona,2343,-31.39833,150.43444
NSW,Carrabolla,2311,-32.23167,151.36778
NSW,Carrai,2440,-30.8275,152.24917
NSW,Carramar,2163,-33.88167,150.96778
NSW,Carrathool,2711,-34.39833,145.43444
NSW,Carrington,2324,-32.915,151.76778
NSW,Carrington Falls,2577,-34.65028,150.64556
NSW,Carroll,2340,-30.98167,150.45111
NSW,Carrolls Creek,2372,-28.84833,152.10111
NSW,Carrowbrook,2330,-32.265,151.30111
NSW,Carrs Creek,2460,-29.64833,152.91778
NSW,Carrs Island,2460,-29.67167,152.91333
NSW,Carrs Peninsular,2460,-29.65361,152.90278
NSW,Carss Park,2221,-33.98167,151.11778
NSW,Cartwright,2168,-33.93167,150.88444
NSW,Cartwrights Hill,2650,-35.065,147.38444
NSW,Carwoola,2620,-35.36972,149.33083
NSW,Cascade,2453,-30.23167,152.78444
NSW,Casino,2470,-28.84833,153.05111
NSW,Cassilis,2329,-32.00667,149.98444
NSW,Castle Cove,2069,-33.78167,151.20111
NSW,Castle Doyle,2350,-30.615,151.76778
NSW,Castle Hill,2154,-33.73167,151.00944
NSW,Castle Rock,2333,-32.24833,150.71778
NSW,Castlecrag,2068,-33.79833,151.21778
NSW,Castlereagh,2749,-33.665,150.68444
NSW,Casuarina,2487,-28.28889,153.57389
NSW,Casula,2170,-33.94833,150.98444
NSW,Catalina,2536,-35.72333,150.1875
NSW,Cathcart,2632,-36.84833,149.38444
NSW,Catherine Field,2557,-33.99,150.76778
NSW,Catherine Hill Bay,2281,-33.14833,151.61778
NSW,Cattai,2756,-33.55667,150.91778
NSW,Cattle Creek,2339,-31.79556,150.28333
NSW,Cavan,2582,-35.015,148.85111
NSW,Caves Beach,2281,-33.115,151.65111
NSW,Cawdor,2570,-34.09,150.67889
NSW,Cawongla,2474,-28.60167,153.095
NSW,Cecil Hills,2171,-33.89,150.85111
NSW,Cecil Park,2178,-33.88167,150.83444
NSW,Cedar Brush Creek,2259,-33.165,151.27611
NSW,Cedar Creek,2484,-32.84833,151.18444
NSW,Cedar Party,2429,-31.815,152.40111
NSW,Cedar Point,2474,-28.68417,153.00194
NSW,Cells River,2424,-31.54833,152.08444
NSW,Centennial Park,2021,-33.89,151.24278
NSW,Central Colo,2756,-33.41667,150.78333
NSW,Central Macdonald,2775,-33.33333,150.98333
NSW,Central Mangrove,2250,-33.3,151.23333
NSW,Central Tilba,2546,-36.31667,150.06667
NSW,Cessnock,2325,-32.83333,151.35
NSW,Chaelundi,2460,-29.99361,152.44806
NSW,Chain Valley Bay,2259,-33.13333,151.65
NSW,Chakola,2630,-36.1,149.16667
NSW,Chambigne,2460,-29.76667,152.73333
NSW,Charles Sturt University,2795,-35.05,147.34167
NSW,Charlestown,2290,-32.96667,151.68333
NSW,Charleys Forest,2622,-35.4,149.98333
NSW,Charlotte Bay,2428,-32.3525,152.50667
NSW,Charlton,2795,-33.68333,149.61667
NSW,Charmhaven,2263,-33.225,151.50833
NSW,Chatham Valley,2787,-33.85,149.9
NSW,Chatswood,2067,-33.78333,151.16667
NSW,Chatswood West,2067,-33.80056,151.16889
NSW,Chatsworth,2469,-29.38333,153.23333
NSW,Cheero Point,2083,-33.51222,151.19222
NSW,Cheltenham,2119,-33.75833,151.08333
NSW,Cherry Tree Hill,2360,-29.53333,150.98333
NSW,Cherrybrook,2126,-33.7,151.03333
NSW,Chester Hill,2162,-33.88333,151
NSW,Chichester,2420,-32.17194,151.62556
NSW,Chifley,2036,-33.965,151.23444
NSW,Chilcotts Creek,2339,-31.65944,150.84972
NSW,Chilcotts Grass,2480,-28.83167,153.33444
NSW,Chillingham,2484,-28.30667,153.28444
NSW,Chinderah,2487,-28.25667,153.53444
NSW,Chinnock,2550,-36.69833,149.95111
NSW,Chippendale,2008,-33.89,151.20111
NSW,Chipping Norton,2170,-33.915,150.96778
NSW,Chiswick,2046,-33.84833,151.13444
NSW,Chittaway Bay,2261,-33.33167,151.45111
NSW,Chittaway Point,2261,-33.315,151.45111
NSW,Chowan Creek,2484,-28.45083,153.37222
NSW,Chullora,2190,-33.89833,151.05944
NSW,Church Point,2105,-33.64833,151.28444
NSW,Claremont Meadows,2747,-33.76917,150.74833
NSW,Clarence,2790,-33.47333,150.22611
NSW,Clarence Town,2321,-32.58417,151.78194
NSW,Clarendon,2756,-33.60667,150.78444
NSW,Clarenza,2460,-29.70667,153.01778
NSW,Clareville,2107,-33.62333,151.31778
NSW,Claymore,2559,-34.04,150.80944
NSW,Clear Creek,2795,-33.32333,149.70111
NSW,Clear Range,2620,-35.69389,149.11861
NSW,Clearfield,2469,-29.14833,152.93444
NSW,Clemton Park,2206,-33.93167,151.10944
NSW,Cleveland,2530,-34.50222,150.76861
NSW,Clifden,2460,-29.53167,152.95111
NSW,Cliftleigh,2321,-32.78167,151.51778
NSW,Clifton,2515,-34.25806,150.96861
NSW,Clifton Grove,2800,-33.24972,149.17972
NSW,Clontarf,2093,-33.80667,151.25111
NSW,Clothiers Creek,2484,-28.33,153.49583
NSW,Clouds Creek,2453,-30.08167,152.63444
NSW,Clovass,2480,-28.865,153.15111
NSW,Clovelly,2031,-33.915,151.25111
NSW,Clunes,2480,-28.73167,153.40667
NSW,Clybucca,2440,-30.94833,152.95111
NSW,Clyde,2150,-33.84,151.01778
NSW,Clydesdale,2330,-32.57056,151.20944
NSW,Coads Tank,2646,-35.72333,146.30111
NSW,Coal Point,2283,-33.03722,151.60944
NSW,Coalcliff,2508,-34.24389,150.97361
NSW,Coaldale,2460,-29.39833,152.80111
NSW,Coasters Retreat,2108,-33.59833,151.28444
NSW,Cobaki,2486,-28.20306,153.4575
NSW,Cobaki Lakes,2486,-28.17389,153.47778
NSW,Cobar,2835,-31.49833,145.83444
NSW,Cobar Park,2790,-33.46389,150.15778
NSW,Cobargo,2550,-36.38167,149.90111
NSW,Cobark,2422,-31.94833,151.70944
NSW,Cobbadah,2347,-30.23167,150.58444
NSW,Cobbitty,2570,-34.015,150.68444
NSW,Cockwhy,2539,-35.54028,150.31583
NSW,Codrington,2471,-29.28167,150.70111
NSW,Coffee Camp,2480,-28.665,153.21778
NSW,Coffs Harbour,2450,-30.315,153.11778
NSW,Cogra Bay,2083,-33.515,151.21778
NSW,Coila,2537,-36.00667,150.09639
NSW,Coldstream,2462,-29.60667,153.10528
NSW,Coleambally,2707,-34.80667,145.88444
NSW,Colebee,2761,-33.715,150.85111
NSW,Coledale,2515,-34.28833,150.94
NSW,Colinroobie,2700,-34.44833,146.55111
NSW,Colinton,2626,-35.865,149.15111
NSW,Collaroy,2097,-33.73167,151.28444
NSW,Collaroy Beach,2097,-33.73167,151.28444
NSW,Collector,2581,-34.93778,149.4175
NSW,Collendina,2646,-35.99833,146.15111
NSW,Collingullie,2650,-35.09833,147.13444
NSW,Collins Creek,2474,-28.47833,153.03111
NSW,Collombatti,2440,-30.94833,152.75111
NSW,Collum Collum,2460,-29.25639,152.47194
NSW,Colly Blue,2343,-31.44833,150.15111
NSW,Colo,2795,-33.43167,150.81778
NSW,Colo Heights,2756,-33.365,150.71778
NSW,Colongra,2262,-33.20667,151.54278
NSW,Colyton,2760,-33.78167,150.81778
NSW,Comara,2440,-30.78167,152.36778
NSW,Combaning,2666,-34.465,147.68444
NSW,Comberton,2540,-34.97111,150.64833
NSW,Combo,2330,-32.55667,151.19278
NSW,Comboyne,2429,-31.59833,152.46778
NSW,Comerong Island,2540,-34.88167,150.73444
NSW,Commissioners Creek,2484,-28.49833,153.33194
NSW,Como,2226,-33.99833,151.06778
NSW,Conargo,2710,-35.29833,145.16778
NSW,Concord,2137,-33.84833,151.08444
NSW,Concord West,2138,-33.84,151.08444
NSW,Condell Park,2200,-33.92333,151.00111
NSW,Condobolin,2877,-33.065,147.15111
NSW,Condong,2484,-28.315,153.43444
NSW,Coneac,2422,-31.84833,151.81778
NSW,Congarinni,2447,-30.75167,152.87889
NSW,Congarinni North,2447,-30.69833,152.88528
NSW,Congewai,2325,-32.99,151.34278
NSW,Congo,2537,-35.94833,150.16778
NSW,Coniston,2500,-34.43833,150.88278
NSW,Conjola,2539,-35.215,150.43444
NSW,Conjola Park,2539,-35.26333,150.44306
NSW,Connells Point,2221,-33.99833,151.08444
NSW,Constitution Hill,2150,-33.78167,150.96778
NSW,Cooba,2663,-34.965,147.88444
NSW,Coobool,2734,-35.23167,143.73444
NSW,Coogee,2034,-33.92333,151.24278
NSW,Cookardinia,2650,-35.54833,147.21778
NSW,Cooks Hill,2300,-32.93167,151.76778
NSW,Coolabah,2831,-31.01889,146.68861
NSW,Coolac,2727,-34.92833,148.165
NSW,Coolagolite,2550,-36.39833,149.91778
NSW,Coolamon,2701,-34.83167,147.20111
NSW,Coolaness,2470,-28.83167,153.10111
NSW,Coolangatta,2535,-34.865,150.71778
NSW,Coolangubra,2550,-36.99833,149.47778
NSW,Coolatai,2402,-29.24833,150.73444
NSW,Cooleys Creek,2729,-35.34111,148.09194
NSW,Coolgardie,2478,-28.915,153.45944
NSW,Coolongolook,2423,-32.21722,152.32194
NSW,Coolringdon,2630,-36.25667,148.98444
NSW,Coolumbooka,2632,-36.91611,149.33528
NSW,Coolumburra,2622,-35.04639,150.1075
NSW,Cooma,2630,-36.23167,149.11778
NSW,Coomba Bay,2428,-32.26833,152.44194
NSW,Coomba Park,2428,-32.2375,152.45694
NSW,Coombadjha,2460,-29.34833,152.51778
NSW,Coombell,2470,-28.99833,152.96778
NSW,Coomoo Coomoo,2343,-31.56583,150.12083
NSW,Coonabarabran,2357,-31.265,149.26778
NSW,Coongbar,2469,-29.09972,152.69056
NSW,Coonong,2645,-35.13167,146.11778
NSW,Cooperabung,2441,-31.28167,152.78444
NSW,Coopernook,2426,-31.83167,152.60111
NSW,Coopers Gully,2550,-36.64833,149.78444
NSW,Coopers Shoot,2479,-28.68167,153.58444
NSW,Cooplacurripa,2424,-31.58167,151.91778
NSW,Coorabell,2479,-28.63167,153.50111
NSW,Cooranbong,2265,-33.07333,151.45111
NSW,Cootamundra,2590,-34.64833,148.03444
NSW,Cootralantra,2628,-36.265,148.86778
NSW,Copacabana,2251,-33.49,151.43444
NSW,Copeland,2422,-31.99833,151.83444
NSW,Copeton,2360,-29.95722,150.92333
NSW,Copmanhurst,2460,-29.58167,152.78444
NSW,Coppabella,2644,-35.73167,147.71778
NSW,Copperhannia,2795,-33.88167,149.20111
NSW,Coraki,2471,-28.99833,153.28444
NSW,Coralville,2443,-31.78167,152.70111
NSW,Coramba,2450,-30.215,153.01778
NSW,Corang,2622,-35.18167,150.01778
NSW,Corangula,2440,-31.00667,152.67611
NSW,Corbie Hill,2705,-34.565,146.45111
NSW,Cordeaux,2526,-34.38861,150.77944
NSW,Cordeaux Heights,2526,-34.44167,150.83083
NSW,Coree,2710,-35.365,145.43444
NSW,Coree South,2716,-35.515,145.55111
NSW,Coreen,2646,-31.465,147.03444
NSW,Corindi Beach,2456,-30.03167,153.20111
NSW,Corlette,2315,-32.715,152.10111
NSW,Cornalla,2710,-35.69833,145.05111
NSW,Corndale,2480,-28.69833,153.36778
NSW,Corney Town,2790,-33.47528,150.17667
NSW,Cornwallis,2756,-33.59,150.80944
NSW,Corobimilla,2700,-34.865,146.41778
NSW,Corowa,2646,-35.99417,146.38444
NSW,Corrimal,2518,-34.36694,150.89194
NSW,Corroboree Flat,2422,-31.665,151.75111
NSW,Corrowong,2633,-36.915,148.83444
NSW,Corunna,2546,-36.28167,150.10111
NSW,Cottage Point,2084,-33.61889,151.20389
NSW,Cottawalla,2583,-34.48167,149.52611
NSW,Cougal,2474,-28.365,152.96778
NSW,Countegany,2630,-36.18167,149.45111
NSW,Courabyra,2653,-35.665,148.03444
NSW,Couradda,2390,-30.02333,149.96778
NSW,Couridjah,2571,-34.23167,150.55111
NSW,Coutts Crossing,2460,-29.83167,152.88444
NSW,Cow Flat,2795,-33.565,149.51778
NSW,Cowabbie,2663,-34.615,146.96778
NSW,Cowan,2081,-33.58167,151.16778
NSW,Cowper,2460,-29.565,153.07611
NSW,Cowra,2794,-33.815,148.68444
NSW,Crabbes Creek,2483,-28.46083,153.48222
NSW,Crackenback,2627,-36.44556,148.50944
NSW,Craigie,2632,-37.065,149.05111
NSW,Cranebrook,2749,-33.715,150.70111
NSW,Crangan Bay,2259,-33.17333,151.59278
NSW,Craven,2422,-32.14833,151.95111
NSW,Craven Plateau,2422,-31.865,151.76778
NSW,Crawford River,2423,-32.40139,152.11778
NSW,Crawney,2338,-31.6325,151.075
NSW,Creewah,2631,-36.74833,149.36778
NSW,Cremorne,2090,-33.815,151.21778
NSW,Cremorne Point,2090,-33.83167,151.21778
NSW,Crescent Head,2440,-31.19,152.97611
NSW,Crestwood,2153,-35.34833,149.21611
NSW,Cringila,2502,-34.47028,150.86667
NSW,Croki,2430,-31.865,152.60111
NSW,Cromer,2099,-33.73583,151.27194
NSW,Cronulla,2230,-34.04833,151.15111
NSW,Crooble,2400,-29.265,150.25111
NSW,Croobyar,2539,-35.32083,150.39028
NSW,Crooked Corner,2583,-34.23167,149.30111
NSW,Crookwell,2583,-34.45667,149.46778
NSW,Croom,2527,-34.59,150.82611
NSW,Croppa Creek,2411,-29.12083,150.3275
NSW,Crosslands,2446,-31.43167,152.70111
NSW,Croudace Bay,2280,-33.00389,151.64278
NSW,Crowdy Head,2427,-31.84833,152.75111
NSW,Crows Nest,2065,-33.815,151.18444
NSW,Crowther Island,2460,-29.62583,152.92056
NSW,Croydon,2132,-33.88167,151.12611
NSW,Croydon Park,2133,-33.89833,151.10944
NSW,Crudine,2795,-32.93167,149.70111
NSW,Crystal Creek,2484,-28.31417,153.315
NSW,Cudal,2864,-33.28167,148.73444
NSW,Cudgel,2700,-34.68167,146.43444
NSW,Cudgen,2487,-28.28167,153.55111
NSW,Cudgera Creek,2484,-28.39,153.51778
NSW,Cudmirrah,2540,-35.19833,150.56778
NSW,Culburra Beach,2540,-34.93472,150.75389
NSW,Culcairn,2660,-35.665,147.03444
NSW,Cullen Bullen,2790,-33.29833,150.03444
NSW,Cullerin,2581,-34.78167,149.40944
NSW,Cullinga,2588,-34.615,147.16778
NSW,Culmaran Creek,2469,-28.86611,152.66889
NSW,Cumbalum,2478,-28.83167,153.53444
NSW,Cumberland Reach,2756,-33.465,150.88444
NSW,Cumnock,2867,-32.89833,148.75111
NSW,Cundle Flat,2424,-31.83167,152.01778
NSW,Cundletown,2430,-31.88167,152.51778
NSW,Cunjurong Point,2539,-35.26444,150.50611
NSW,Cunningar,2587,-34.53167,148.43444
NSW,Cunninyeuk,2734,-35.24389,143.91083
NSW,Curl Curl,2096,-33.76917,151.28444
NSW,Curlewis,2381,-31.115,150.26778
NSW,Curlwaa,2648,-34.09833,141.96778
NSW,Currabubula,2342,-31.265,150.73444
NSW,Curragh,2795,-33.95667,149.20944
NSW,Curramore,2533,-34.63167,150.75944
NSW,Currans Hill,2567,-34.04,150.75944
NSW,Currarong,2540,-35.015,150.81778
NSW,Currawananna,2650,-34.99833,147.11778
NSW,Currawang,2580,-34.965,149.51778
NSW,Currawarna,2650,-35.015,147.06778
NSW,Currawong Beach,2108,-33.59,151.30111
NSW,Curricabark,2422,-31.74,151.63444
NSW,Currowan,2536,-35.58167,150.16778
NSW,Cuttabri,2388,-30.315,149.21778
NSW,Cuttagee,2546,-36.49056,150.04806
NSW,Daceyville,2032,-33.93167,151.22611
NSW,Dairy Flat,2474,-28.38,152.71306
NSW,Dairymans Plains,2630,-36.215,149.05111
NSW,Daleys Point,2257,-33.5025,151.34694
NSW,Dalgety,2628,-36.50667,148.83444
NSW,Dalmeny,2546,-36.165,150.13444
NSW,Dalmorton,2460,-29.865,152.45111
NSW,Dalswinton,2328,-32.415,150.70111
NSW,Dalton,2581,-34.71778,149.19306
NSW,Dalwood,2477,-32.62472,151.41778
NSW,Dangar,2309,-30.74833,149.50111
NSW,Dangar Island,2083,-33.54,151.24278
NSW,Dangarsleigh,2350,-30.60528,151.68972
NSW,Dangelong,2630,-36.38167,149.30111
NSW,Dapto,2530,-34.50194,150.7925
NSW,Darawank,2428,-32.10611,152.49806
NSW,Darbalara,2722,-35.03167,148.20111
NSW,Darbys Falls,2793,-33.90222,148.85583
NSW,Dareton,2717,-34.08167,142.03444
NSW,Dargan,2786,-33.48167,150.25111
NSW,Dark Corner,2795,-33.29833,149.88444
NSW,Darkes Forest,2508,-34.21889,150.90694
NSW,Darkwood,2454,-30.44833,152.65111
NSW,Darling Point,2027,-33.865,151.23444
NSW,Darlinghurst,2010,-33.88167,151.22611
NSW,Darlington,2330,-33.89833,151.20111
NSW,Darlington Point,2706,-34.565,146.00111
NSW,Darlow,2729,-35.38167,147.91778
NSW,Dartbrook,2336,-32.14833,150.85111
NSW,Daruka,2340,-31.04833,150.97333
NSW,Davidson,2085,-33.715,151.20111
NSW,Davis Creek,2336,-32.165,151.15111
NSW,Davistown,2251,-33.48167,151.35944
NSW,Dawes Point,2000,-33.84833,151.20111
NSW,Dean Park,2761,-33.73167,150.85111
NSW,Deauville,2443,-31.665,152.80111
NSW,Debenham,2446,-31.47333,152.22611
NSW,Dee Why,2099,-33.73167,151.28444
NSW,Dee Why Beach,2099,-33.74833,151.28444
NSW,Deep Creek,2469,-29.15639,152.63944
NSW,Deepwater,2371,-29.43167,151.85111
NSW,Deer Vale,2453,-30.34833,152.55111
NSW,Delegate,2633,-37.04833,148.93444
NSW,Delroy Gardens,2830,-32.24833,148.56778
NSW,Delungra,2403,-29.63278,150.80222
NSW,Demondrille,2587,-34.53167,148.31778
NSW,Denham Court,2565,-33.99833,150.81778
NSW,Denhams Beach,2536,-35.74972,150.21139
NSW,Deniliquin,2710,-35.53167,144.93444
NSW,Denistone,2114,-33.79833,151.07611
NSW,Denistone East,2112,-33.79417,151.09278
NSW,Denistone West,2114,-33.80389,151.07611
NSW,Denman,2328,-32.38167,150.68444
NSW,Depot Beach,2536,-35.63278,150.32167
NSW,Deua,2537,-35.92472,149.81389
NSW,Deua River Valley,2537,-35.78861,149.91528
NSW,Devils Hole,2550,-36.88167,149.65111
NSW,Dewitt,2422,-31.815,151.76778
NSW,Dharruk,2770,-33.74556,150.82611
NSW,Dhuragoon,2733,-35.18167,144.16778
NSW,Diamond Beach,2430,-32.04,152.53444
NSW,Diamond Head,2443,-31.69833,152.78444
NSW,Dicks Hill,2443,-31.65667,152.82611
NSW,Diehard,2370,-29.71583,152.09222
NSW,Diggers Camp,2462,-29.815,153.29278
NSW,Dignams Creek,2546,-36.34833,149.98444
NSW,Dilkoon,2460,-29.49833,153.00111
NSW,Dilpurra,2734,-35.165,143.68444
NSW,Dingo Forest,2429,-31.69833,152.13444
NSW,Dinoga,2404,-29.98167,150.58444
NSW,Dirnaseer,2666,-34.60917,147.76306
NSW,Dirty Creek,2460,-29.98167,153.14833
NSW,Dobies Bight,2470,-28.80139,152.93667
NSW,Doctor George Mountain,2550,-36.66167,149.89639
NSW,Doctors Gap,2790,-33.49083,150.17639
NSW,Dodsworth,2620,-35.34889,144.24944
NSW,Dog Rocks,2795,-33.73167,149.56778
NSW,Dog Trap Crossing,2582,-35.08167,148.93444
NSW,Dolans Bay,2229,-34.065,151.13444
NSW,Dolls Point,2219,-33.99556,151.14278
NSW,Dollys Flat,2429,-31.84833,152.31778
NSW,Dolphin Point,2539,-35.39833,150.45111
NSW,Dombarton,2526,-34.45667,150.76444
NSW,Donald Creek,2350,-30.45861,151.74944
NSW,Dondingalong,2440,-31.115,152.73444
NSW,Donnellyville,2447,-30.75528,152.91778
NSW,Donovans Forest,2250,-33.38167,151.16778
NSW,Doon Ayre,2422,-31.89,152.08444
NSW,Doon Doon,2484,-28.49694,153.29278
NSW,Doonside,2767,-33.76778,150.86778
NSW,Dooralong,2259,-33.18167,151.35111
NSW,Dora Creek,2264,-33.08167,151.50111
NSW,Dorrigo,2453,-30.33167,152.71778
NSW,Dorrigo Mountain,2453,-30.38167,152.73444
NSW,Dorroughby,2480,-28.665,153.35111
NSW,Double Bay,2028,-33.87333,151.24278
NSW,Doubtful Creek,2470,-28.71056,152.88056
NSW,Douglas Park,2569,-34.19,150.70111
NSW,Dover Heights,2030,-33.87333,151.26778
NSW,Downside,2650,-34.99833,147.35111
NSW,Doyalson,2262,-33.19833,151.51778
NSW,Doyalson North,2262,-33.18722,151.54278
NSW,Doyles Creek,2330,-32.54833,150.78444
NSW,Doyles River,2446,-31.44833,152.11778
NSW,Drake,2469,-29.0075,152.36528
NSW,Drildool,2386,-30.165,149.06778
NSW,Drummoyne,2047,-33.85667,151.15111
NSW,Dry Creek,2337,-31.865,150.80111
NSW,Dry Plain,2630,-36.08167,148.93444
NSW,Dubbo,2830,-32.24833,148.60111
NSW,Dubbo South,2830,-32.265,148.61778
NSW,Duck Creek,2469,-28.61139,152.6575
NSW,Duckenfield,2321,-32.73167,151.68444
NSW,Duckmaloi,2787,-33.68167,149.96778
NSW,Dudley,2290,-32.99,151.71778
NSW,Duffys Forest,2084,-33.67333,151.19278
NSW,Dulguigan,2484,-28.27833,153.41861
NSW,Dulhunty,2830,-32.24833,148.63444
NSW,Dulwich Hill,2203,-33.90667,151.14278
NSW,Dum Dum,2484,-28.38167,153.35944
NSW,Dumaresq,2350,-30.44194,151.56583
NSW,Dumaresq Island,2430,-31.91222,152.50944
NSW,Dumbudgery,2460,-29.29556,152.52389
NSW,Dunbible,2484,-28.37444,153.39694
NSW,Dunbogan,2443,-31.64833,152.81778
NSW,Dundas,2117,-33.79833,151.03444
NSW,Dundas Valley,2117,-33.79,151.06778
NSW,Dundee,2370,-29.565,151.85111
NSW,Dundurrabin,2453,-30.19833,152.55111
NSW,Dungarubba,2480,-28.99833,153.38444
NSW,Dungay,2484,-28.27222,153.35833
NSW,Dungog,2420,-32.39833,151.7525
NSW,Dungowan,2340,-31.215,151.11778
NSW,Dunkeld,2795,-33.39833,149.48444
NSW,Dunmore,2529,-34.62333,150.82611
NSW,Dunolly,2330,-32.53167,151.16778
NSW,Dunoon,2480,-28.68167,153.31778
NSW,Duns Creek,2321,-32.615,151.65111
NSW,Dural,2330,-33.68167,151.02611
NSW,Duramana,2795,-33.29833,149.56778
NSW,Duranbah,2487,-28.30667,153.53444
NSW,Duri,2344,-31.215,150.81778
NSW,Duroby,2486,-28.24167,153.46083
NSW,Durran Durra,2622,-35.315,149.88444
NSW,Durras North,2536,-35.63167,150.30111
NSW,Durren Durren,2259,-33.18167,151.38444
NSW,Duval,2350,-30.44444,151.64444
NSW,Dyers Crossing,2429,-32.08167,152.30111
NSW,Dyraaba,2470,-28.76778,152.855
NSW,Dyrring,2330,-32.48167,151.00111
NSW,Eagle Vale,2558,-34.03167,150.80944
NSW,Eagleton,2324,-32.69833,151.75111
NSW,Earlwood,2206,-33.93167,151.12611
NSW,East Albury,2640,-36.08167,146.91778
NSW,East Ballina,2478,-28.85944,153.58722
NSW,East Bowral,2576,-34.49639,150.45917
NSW,East Branxton,2335,-32.655,151.36389
NSW,East Coraki,2471,-28.99833,153.30111
NSW,East Corrimal,2520,-34.3775,150.91167
NSW,East Gosford,2250,-33.43167,151.35111
NSW,East Gresford,2311,-32.41361,151.55639
NSW,East Hills,2213,-33.95667,150.98444
NSW,East Jindabyne,2627,-36.39833,148.70111
NSW,East Kangaloon,2576,-34.55667,150.56778
NSW,East Kempsey,2440,-31.08167,152.85111
NSW,East Killara,2071,-33.75667,151.17611
NSW,East Kurrajong,2758,-33.515,150.76778
NSW,East Lindfield,2070,-33.77056,151.19
NSW,East Lismore,2480,-28.82333,153.28444
NSW,East Lynne,2536,-35.615,150.26778
NSW,East Maitland,2323,-32.74833,151.57611
NSW,East Ryde,2113,-33.80667,151.13306
NSW,East Seaham,2324,-32.64,151.74833
NSW,East Tamworth,2340,-31.08944,150.94361
NSW,East Wagga Wagga,2650,-35.14,147.40111
NSW,East Wardell,2477,-28.965,153.46778
NSW,Eastern Creek,2766,-33.78167,150.85111
NSW,Eastgardens,2036,-33.94556,151.22528
NSW,Eastlakes,2018,-33.93167,151.20944
NSW,Eastwood,2122,-33.79,151.08444
NSW,Eatonsville,2460,-29.64833,152.81778
NSW,Ebenezer,2756,-33.53167,150.86778
NSW,Ebor,2453,-30.40111,152.35111
NSW,Eccleston,2311,-32.24833,151.48444
NSW,Edderton,2333,-32.34417,150.84556
NSW,Eden,2551,-37.065,149.90111
NSW,Eden Creek,2474,-28.58028,152.91472
NSW,Edensor Park,2176,-33.87333,150.87611
NSW,Edenville,2474,-28.6875,152.95611
NSW,Edgecliff,2027,-33.88167,151.23444
NSW,Edgeroi,2390,-30.115,149.80111
NSW,Edgeworth,2285,-32.915,151.61778
NSW,Edith,2787,-33.79833,149.91778
NSW,Edmondson Park,2174,-33.965,150.86778
NSW,Edrom,2551,-37.13694,149.95389
NSW,Edwardstown,2722,-35.115,148.08444
NSW,Eglinton,2795,-33.38167,149.53444
NSW,Eighteen Mile,2460,-29.2775,152.57778
NSW,Elands,2429,-31.63167,152.30111
NSW,Elanora Heights,2101,-33.69833,151.26778
NSW,Elderslie,2570,-34.05389,150.715
NSW,Eleebana,2282,-32.99556,151.63444
NSW,Elermore Vale,2287,-32.915,151.66778
NSW,Elizabeth Bay,2011,-33.865,151.21778
NSW,Elizabeth Beach,2428,-32.33222,152.53806
NSW,Ellalong,2325,-32.915,151.33444
NSW,Elland,2460,-29.77333,152.88444
NSW,Ellangowan,2470,-29.015,153.13444
NSW,Ellenborough,2446,-31.44833,152.46778
NSW,Ellerslie,2729,-35.265,147.93444
NSW,Ellerston,2337,-31.815,151.31778
NSW,Ellis Lane,2570,-34.015,150.68444
NSW,Elrington,2325,-32.87333,151.43444
NSW,Elsmore,2360,-29.79833,151.26778
NSW,Eltham,2480,-28.74833,153.40111
NSW,Elvina Bay,2105,-33.63167,151.26778
NSW,Emerald,2450,-30.165,153.18444
NSW,Emerald Beach,2456,-30.165,153.18444
NSW,Emerald Hill,2380,-30.88167,150.10111
NSW,Emerton,2770,-33.74833,150.80389
NSW,Emmaville,2371,-29.44833,151.60111
NSW,Empire Bay,2257,-33.49,151.35944
NSW,Empire Vale,2478,-28.915,153.51778
NSW,Emu Heights,2750,-33.73722,150.65111
NSW,Emu Plains,2750,-33.74833,150.66778
NSW,Emu Swamp,2800,-33.2975,149.15667
NSW,Enfield,2136,-33.89,151.09278
NSW,Engadine,2233,-34.065,151.01778
NSW,Englorie Park,2560,-34.08056,150.79806
NSW,Enmore,2358,-33.90667,151.17611
NSW,Environa,2620,-35.41194,149.18444
NSW,Epping,2121,-33.77333,151.08444
NSW,Equus,2830,-32.24833,148.65111
NSW,Eraring,2264,-33.065,151.51778
NSW,Erigolia,2669,-33.84833,146.35111
NSW,Erin Vale,2663,-34.67944,147.53778
NSW,Erina,2250,-33.44,151.39278
NSW,Erina Heights,2260,-33.43167,151.41778
NSW,Ermington,2115,-33.815,151.06778
NSW,Erowal Bay,2540,-35.09833,150.66167
NSW,Errowanbang,2791,-33.53167,149.05111
NSW,Erskine Park,2759,-33.78167,150.76778
NSW,Erskineville,2043,-33.90667,151.19278
NSW,Eschol Park,2558,-34.03167,150.80111
NSW,Essington,2795,-33.69833,149.68444
NSW,Estella,2650,-35.065,147.33444
NSW,Ettalong Beach,2257,-33.515,151.33444
NSW,Ettamogah,2640,-36.015,146.98444
NSW,Ettrick,2474,-28.64917,152.91417
NSW,Euberta,2650,-35.065,147.20111
NSW,Eucumbene,2628,-36.13167,148.60111
NSW,Eugowra,2806,-33.415,148.36778
NSW,Eulah Creek,2390,-30.34833,149.95111
NSW,Eunanoreenya,2650,-35.065,147.46778
NSW,Eungai Creek,2441,-30.82111,152.88417
NSW,Eungai Rail,2441,-30.8575,152.88778
NSW,Eureka,2480,-28.68167,153.43444
NSW,Eurobodalla,2545,-36.14833,149.96778
NSW,Euroka,2440,-31.08167,152.80111
NSW,Eurongilly,2663,-34.92667,147.80111
NSW,Euston,2737,-34.58167,142.73444
NSW,Evans Head,2473,-29.115,153.43444
NSW,Evans Plains,2795,-33.43167,149.50111
NSW,Eveleigh,2015,-33.895,151.19139
NSW,Eviron,2484,-28.30528,153.48278
NSW,Ewingar,2469,-29.08194,152.51528
NSW,Ewingsdale,2481,-28.63167,153.55111
NSW,Exeter,2579,-34.615,150.31778
NSW,Failford,2430,-32.08472,152.44417
NSW,Fairfield,2165,-33.865,150.95111
NSW,Fairfield East,2165,-33.87333,150.83444
NSW,Fairfield Heights,2165,-33.865,150.94278
NSW,Fairfield West,2165,-33.865,150.92611
NSW,Fairlight,2094,-33.79833,151.26778
NSW,Fairy Meadow,2519,-34.39528,150.895
NSW,Faithfull,2700,-35.015,146.65111
NSW,Falbrook,2330,-32.415,151.13444
NSW,Falconer,2365,-30.18167,151.71778
NSW,Falls Creek,2540,-34.98167,150.58444
NSW,Far Meadow,2535,-34.815,150.71778
NSW,Farley,2320,-32.72889,151.51778
NSW,Farmborough Heights,2526,-34.45611,150.81139
NSW,Farrants Hill,2484,-28.31778,153.48556
NSW,Farringdon,2622,-35.515,149.66778
NSW,Fassifern,2283,-32.98722,151.58444
NSW,Faulconbridge,2776,-33.6875,150.54389
NSW,Faulkland,2422,-32.065,151.88444
NSW,Fawcetts Plain,2474,-28.56278,153.01694
NSW,Federal,2480,-28.64833,153.45111
NSW,Fennell Bay,2283,-32.99417,151.59833
NSW,Fern Bay,2295,-32.87333,151.79278
NSW,Fern Gully,2330,-32.55667,151.20111
NSW,Fernances,2775,-33.215,151.00111
NSW,Fernbank Creek,2444,-31.42333,152.84278
NSW,Fernbrook,2453,-30.365,152.58444
NSW,Fernhill,2519,-34.38167,150.89278
NSW,Fernleigh,2479,-28.765,153.50111
NSW,Fernmount,2454,-30.47556,152.96667
NSW,Fernside,2480,-28.78167,153.16778
NSW,Fernvale,2484,-28.365,153.41889
NSW,Ferodale,2318,-32.68167,151.85111
NSW,Fiddletown,2159,-33.59833,151.05111
NSW,Fig Tree,2520,-34.44,150.85944
NSW,Figtree,2525,-34.43,150.84806
NSW,Findon Creek,2474,-28.36222,152.88028
NSW,Fine Flower,2460,-29.38167,152.66778
NSW,Fingal Bay,2315,-32.74833,152.16778
NSW,Fingal Head,2487,-28.20278,153.56667
NSW,Finley,2713,-35.63167,145.56778
NSW,Firefly,2429,-32.08167,152.25111
NSW,Fishermans Bay,2316,-32.79,152.09278
NSW,Fishermans Paradise,2539,-35.22972,150.44528
NSW,Fishermans Reach,2441,-30.865,152.98444
NSW,Fishers Hill,2421,-32.515,151.53444
NSW,Fishing Point,2283,-33.05667,151.59556
NSW,Fitzgeralds Valley,2795,-33.53167,149.40111
NSW,Five Dock,2046,-33.865,151.12611
NSW,Five Ways,2825,-32.14611,147.00417
NSW,Flat Tops,2420,-32.465,151.81778
NSW,Fletcher,2287,-32.865,151.63444
NSW,Flinders,2529,-34.58167,150.84556
NSW,Floraville,2280,-33.00944,151.66778
NSW,Forbes Creek,2621,-35.43167,149.48444
NSW,Forbes River,2446,-31.29833,152.31778
NSW,Forbesdale,2422,-32.04833,151.95111
NSW,Fordwich,2330,-32.70667,151.05944
NSW,Forest Glen,2157,-33.54833,151.01778
NSW,Forest Grove,2795,-33.37333,149.66222
NSW,Forest Hill,2651,-35.14833,147.46778
NSW,Forest Lodge,2037,-33.88167,151.18444
NSW,Forestville,2087,-33.74833,151.20111
NSW,Forresters Beach,2260,-33.40667,151.47611
NSW,Forster,2428,-30.515,151.66778
NSW,Fortis Creek,2460,-29.49361,152.87694
NSW,Fosters Valley,2795,-33.64833,149.55111
NSW,Fosterton,2420,-32.34722,151.76111
NSW,Fountaindale,2258,-33.34,151.39278
NSW,Four Corners,2716,-34.84833,145.41778
NSW,Foxground,2534,-34.715,150.76778
NSW,Frazer Park,2259,-33.18444,151.61833
NSW,Frazers Creek,2446,-31.415,152.63444
NSW,Frederickton,2440,-31.03167,152.86778
NSW,Freeburn Island,2464,-29.40667,153.33444
NSW,Freemans,2259,-33.19833,151.59278
NSW,Freemans Reach,2756,-33.55667,150.80111
NSW,Freemans Waterhole,2323,-32.98167,151.48444
NSW,Freemantle,2795,-33.27333,149.33444
NSW,Frenchs Forest,2086,-33.74833,151.20111
NSW,Frogmore,2586,-34.265,148.85111
NSW,Frogs Hollow,2550,-36.92417,149.81083
NSW,Frying Pan,2630,-30.24833,152.65111
NSW,Fullerton,2583,-34.215,149.55111
NSW,Fullerton Cove,2318,-32.84,151.83167
NSW,Furracabad,2370,-29.78167,151.66778
NSW,Gadara,2720,-35.28167,148.08444
NSW,Galong,2585,-34.59833,148.55111
NSW,Galore,2652,-34.99833,146.81778
NSW,Galston,2159,-33.65667,151.04278
NSW,Gan Gan,2315,-32.73167,152.13444
NSW,Ganbenang,2790,-33.64833,150.11778
NSW,Gangara,2453,-30.315,152.61778
NSW,Gangat,2422,-32.02333,152.08444
NSW,Ganmain,2702,-34.78167,147.05111
NSW,Garah,2405,-29.065,149.61778
NSW,Garangula,2587,-34.68167,148.28444
NSW,Garden Suburb,2289,-32.94833,151.65111
NSW,Garie,2232,-34.165,151.06778
NSW,Garland Valley,2330,-32.92611,150.74556
NSW,Garoo,2340,-31.40056,150.97917
NSW,Garthowen,2795,-30.88167,150.88444
NSW,Gateshead,2290,-32.98167,151.69278
NSW,Gearys Flat,2446,-31.19,152.56778
NSW,Geehi,2642,-36.34833,148.16778
NSW,Gelston Park,2650,-35.24556,147.34417
NSW,Gemalla,2795,-33.515,149.81778
NSW,Geneva,2474,-28.615,152.98444
NSW,Georges Creek,2440,-30.12194,151.16778
NSW,Georges Hall,2198,-33.90667,150.98444
NSW,Georges Plains,2795,-33.515,149.51778
NSW,Georgetown,2298,-32.89833,151.73444
NSW,Georgica,2480,-28.64833,153.18444
NSW,Gerogery,2642,-35.83167,147.00111
NSW,Gerringong,2534,-34.74833,150.83444
NSW,Gerroa,2534,-34.78167,150.81778
NSW,Ghinni Ghi,2474,-28.61889,152.78972
NSW,Ghinni Ghinni,2430,-31.865,152.55111
NSW,Ghoolendaadi,2380,-30.965,149.93444
NSW,Giants Creek,2328,-32.315,150.53444
NSW,Gibberagee,2469,-29.23167,153.10111
NSW,Gibraltar Range,2370,-29.56472,152.28806
NSW,Gidginbung,2666,-34.33167,147.46778
NSW,Gidley,2340,-31.015,150.85111
NSW,Gilead,2560,-34.115,150.78444
NSW,Gilgai,2360,-29.84833,151.11778
NSW,Gilletts Ridge,2462,-29.64833,153.10944
NSW,Gillieston Heights,2321,-32.765,151.53444
NSW,Gilmandyke,2795,-33.765,149.55111
NSW,Gilmore,2720,-35.33167,148.16778
NSW,Gingkin,2787,-33.89833,149.93444
NSW,Girards Hill,2480,-28.82056,153.29694
NSW,Girilambone,2831,-31.23611,146.88667
NSW,Giro,2422,-31.715,151.80944
NSW,Girral,2669,-33.69833,147.08444
NSW,Girralong,2449,-30.56944,152.65528
NSW,Girraween,2145,-33.79833,150.94278
NSW,Girvan,2425,-32.4775,152.065
NSW,Gladesville,2111,-33.83167,151.11778
NSW,Gladstone,2440,-31.03167,152.95111
NSW,Glanmire,2795,-33.415,149.70111
NSW,Glebe,2037,-33.88167,151.18444
NSW,Glebe Point,2001,-33.87472,151.18444
NSW,Glen Allen,2631,-36.69833,149.36778
NSW,Glen Alpine,2560,-34.09,150.78444
NSW,Glen Davis,2846,-33.13167,150.28444
NSW,Glen Elgin,2370,-29.565,152.15111
NSW,Glen Fergus,2630,-36.215,149.23444
NSW,Glen Innes,2370,-29.73167,151.75111
NSW,Glen Martin,2321,-32.53167,151.81778
NSW,Glen Nevis,2365,-29.92389,152.22583
NSW,Glen Oak,2320,-32.60583,151.70917
NSW,Glen Ward,2422,-31.815,151.66778
NSW,Glen William,2321,-32.515,151.80111
NSW,Glenbawn,2337,-32.04,151.06778
NSW,Glenbrook,2773,-33.765,150.62667
NSW,Glencoe,2365,-29.915,151.71778
NSW,Glendale,2285,-32.915,151.65111
NSW,Glendenning,2761,-33.74833,150.85111
NSW,Glendon,2330,-29.565,150.40111
NSW,Glendon Brook,2330,-32.52056,151.33444
NSW,Glenerin,2583,-34.49833,149.37611
NSW,Glenfield,2167,-33.965,150.89278
NSW,Glenfield Park,2650,-35.13167,147.33444
NSW,Glengarrie,2486,-28.23111,153.40139
NSW,Glenhaven,2156,-33.69833,150.99833
NSW,Gleniffer,2454,-30.38833,152.88694
NSW,Glenmore,2570,-34.05667,150.60111
NSW,Glenmore Park,2745,-33.79,150.67611
NSW,Glennies Creek,2330,-32.44833,151.10111
NSW,Glenning Valley,2261,-33.34833,151.41778
NSW,Glenorie,2157,-33.59833,151.00111
NSW,Glenreagh,2450,-30.04833,152.98444
NSW,Glenridding,2330,-32.58583,151.165
NSW,Glenrock,2337,-31.665,151.41778
NSW,Glenroy,2653,-36.04833,146.90111
NSW,Glenthorne,2430,-31.915,152.46778
NSW,Glenugie,2460,-29.78167,153.01778
NSW,Glenwood,2768,-33.73389,150.93361
NSW,Glenworth Valley,2250,-33.415,151.18444
NSW,Glossodia,2756,-33.53167,150.81778
NSW,Gloucester,2422,-31.99833,151.96778
NSW,Gloucester Tops,2422,-32.06444,151.62639
NSW,Goat Island,2477,-32.565,149.40111
NSW,Gobbagombalin,2650,-35.04,147.28444
NSW,Gocup,2720,-35.23167,148.20111
NSW,Godfreys Creek,2586,-34.14833,148.70111
NSW,Gogeldrie,2705,-34.54833,146.30111
NSW,Gol Gol,2738,-34.18167,142.21778
NSW,Golspie,2580,-34.29833,149.66778
NSW,Goobarragandra,2720,-35.38167,148.41778
NSW,Good Hope,2582,-34.915,148.80944
NSW,Goodnight,2736,-34.94833,143.33444
NSW,Goodwood Island,2469,-29.37611,153.30944
NSW,Googong,2620,-35.44083,149.22556
NSW,Goolgowi,2652,-33.965,145.70111
NSW,Goolhi,2379,-30.89833,149.75111
NSW,Goolmangar,2480,-28.64833,153.23444
NSW,Goombargana,2646,-35.79833,146.56778
NSW,Goondah,2582,-34.73167,148.73444
NSW,Goonellabah,2480,-28.815,153.31778
NSW,Goonengerry,2482,-28.615,153.43444
NSW,Goonoo Goonoo,2340,-31.29833,150.90111
NSW,Goorangoola,2330,-32.28167,151.18444
NSW,Gordon,2072,-33.74833,151.15111
NSW,Gordonville,2454,-30.39833,152.85111
NSW,Gorge Creek,2469,-28.73361,152.72
NSW,Gormans Hill,2795,-33.44833,149.58444
NSW,Gorokan,2263,-33.25667,151.51778
NSW,Gosford,2250,-33.42333,151.34139
NSW,Gosforth,2320,-32.64833,151.48444
NSW,Gostwyck,2358,-30.69861,151.60722
NSW,Goulburn,2580,-34.74833,149.73444
NSW,Gouldsville,2330,-32.565,151.09278
NSW,Gowan,2795,-33.18167,149.35111
NSW,Gowrie,2340,-31.33167,150.85111
NSW,Grabben Gullen,2583,-34.54,149.40111
NSW,Grabine,2583,-33.94833,149.01778
NSW,Gradys Creek,2474,-28.41361,152.95111
NSW,Grafton,2460,-29.68167,152.93444
NSW,Gragin,2403,-29.53194,150.81556
NSW,Grahamstown,2729,-35.24833,148.01778
NSW,Graman,2360,-29.43417,150.915
NSW,Grants Beach,2445,-31.615,152.81778
NSW,Granville,2142,-33.83167,151.03444
NSW,Grasmere,2570,-34.065,150.68444
NSW,Grassy Head,2441,-30.79833,153.00111
NSW,Gravesend,2401,-29.58167,150.33444
NSW,Grays Point,2232,-34.065,151.08444
NSW,Great Mackerel Beach,2108,-33.58167,151.30111
NSW,Great Marlow,2460,-29.65667,152.96917
NSW,Green Cape,2551,-37.20667,149.98778
NSW,Green Creek,2338,-31.78278,151.0325
NSW,Green Forest,2471,-28.98167,153.35111
NSW,Green Hills,2730,-31.065,152.80111
NSW,Green Pigeon,2474,-28.49028,153.07472
NSW,Green Point,2428,-33.465,151.35944
NSW,Green Valley,2168,-33.89833,150.86778
NSW,Greenacre,2190,-33.90667,151.05944
NSW,Greendale,2745,-33.915,150.66778
NSW,Greenfield Park,2176,-33.865,150.88444
NSW,Greengrove,2250,-33.39,151.14278
NSW,Greenhill,2440,-31.065,152.80111
NSW,Greenlands,2631,-36.515,149.41778
NSW,Greenleigh,2620,-35.36028,149.25917
NSW,Greenmantle,2583,-33.93167,149.10111
NSW,Greenwell Point,2540,-34.915,150.73444
NSW,Greenwich,2065,-33.82944,151.18611
NSW,Greenwich Park,2580,-34.58167,149.93444
NSW,Greg Greg,2642,-36.04833,148.05111
NSW,Gregadoo,2650,-35.23167,147.41778
NSW,Greigs Flat,2549,-36.965,149.86778
NSW,Grenfell,2810,-33.89833,148.15111
NSW,Gresford,2311,-32.41167,151.50333
NSW,Greta,2334,-32.68722,151.38444
NSW,Greta Main,2325,-32.89278,151.28056
NSW,Grevillia,2474,-28.44417,152.82583
NSW,Greystanes,2145,-33.815,150.93444
NSW,Griffith,2680,-34.28167,146.03444
NSW,Grogan,2666,-34.315,147.81778
NSW,Grong Grong,2652,-34.73167,146.78444
NSW,Grose Vale,2753,-33.58167,150.66778
NSW,Grose Wold,2753,-33.59833,150.68444
NSW,Grosses Plain,2627,-36.565,148.48444
NSW,Grubben,2658,-35.44833,146.96778
NSW,Guerilla Bay,2536,-35.82806,150.22056
NSW,Guildford,2161,-33.84833,150.98444
NSW,Guildford West,2161,-33.84833,150.96778
NSW,Gulf Creek,2347,-30.19833,150.70111
NSW,Gulmarrad,2463,-29.49,153.23444
NSW,Gulpa,2710,-35.69833,144.88444
NSW,Gum Flat,2360,-29.765,150.96778
NSW,Gum Scrub,2441,-31.29833,152.73444
NSW,Gumly Gumly,2652,-35.115,147.43444
NSW,Gumma,2447,-30.72139,152.965
NSW,Gunbar,2711,-34.04833,145.38444
NSW,Gundagai,2722,-35.065,148.10111
NSW,Gundamulda,2347,-30.27139,150.71611
NSW,Gundaroo,2620,-35.03167,149.28444
NSW,Gundary,2580,-34.83167,149.75111
NSW,Gunderman,2775,-33.44,151.06778
NSW,Gundy,2337,-32.015,151.00111
NSW,Gungal,2333,-32.265,150.48444
NSW,Gungarlin,2627,-36.165,148.46778
NSW,Gunnedah,2380,-30.98167,150.25111
NSW,Gunning,2581,-34.78222,149.2675
NSW,Gunningrah,2632,-36.765,149.16778
NSW,Gurley,2398,-29.73167,149.80111
NSW,Gurnang,2787,-34.04417,149.85111
NSW,Gurranang,2460,-29.465,153.00111
NSW,Gurrundah,2581,-34.66083,149.40667
NSW,Guthega,2624,-36.34833,148.40111
NSW,Guyong,2798,-33.41222,149.25889
NSW,Guyra,2365,-30.215,151.66778
NSW,Gwabegar,2356,-30.615,148.80111
NSW,Gwandalan,2259,-33.13167,151.58444
NSW,Gwynneville,2500,-34.415,150.88361
NSW,Gymea,2227,-34.03167,151.08444
NSW,Gymea Bay,2227,-34.04833,151.08444
NSW,Haberfield,2045,-33.88167,151.14278
NSW,Hacks Ferry,2441,-31.33167,152.83444
NSW,Hadley,2583,-34.14833,149.56778
NSW,Halekulani,2262,-33.21917,151.55111
NSW,Halfway Creek,2460,-29.93167,153.06778
NSW,Hallidays Point,2430,-32.065,152.53444
NSW,Halloran,2259,-33.23028,151.43917
NSW,Halls Creek,2346,-30.73167,150.90111
NSW,Hallsville,2340,-31.015,150.86778
NSW,Halton,2311,-32.29861,151.545
NSW,Hambledon Hill,2330,-32.59833,151.11778
NSW,Hamilton,2303,-32.915,151.75111
NSW,Hamilton East,2303,-32.92472,151.75389
NSW,Hamilton North,2292,-32.915,151.73583
NSW,Hamilton South,2303,-32.93028,151.75111
NSW,Hamilton Valley,2641,-36.03167,146.90111
NSW,Hamlyn Terrace,2259,-33.25444,151.47278
NSW,Hammondville,2170,-33.965,150.96778
NSW,Hampden Hall,2440,-31.07056,152.85944
NSW,Hampton,2790,-33.64833,150.05111
NSW,Hanging Rock,2340,-34.62611,150.16889
NSW,Hannam Vale,2443,-31.715,152.60111
NSW,Hanwood,2680,-34.33167,146.03444
NSW,Harbord,2096,-33.77333,151.28444
NSW,Harden,2587,-34.54833,148.36778
NSW,Hardys Bay,2257,-33.52333,151.35611
NSW,Harefield,2650,-34.965,147.51778
NSW,Hargraves,2850,-33.26222,151.56222
NSW,Harness Cask,2453,-30.265,152.55111
NSW,Harolds Cross,2622,-35.57556,149.55861
NSW,Harparary,2390,-30.53167,150.01778
NSW,Harpers Hill,2321,-32.69833,151.40944
NSW,Harrington,2427,-31.865,152.68444
NSW,Harrington Park,2567,-34.015,150.73444
NSW,Harris Park,2150,-33.82333,151.00944
NSW,Hartley,2790,-33.54833,150.18444
NSW,Hartley Vale,2790,-33.53167,150.23444
NSW,Hartwood,2710,-35.34556,145.34944
NSW,Hartys Plains,2446,-31.465,152.63444
NSW,Harwood,2465,-29.42333,153.24278
NSW,Hassall Grove,2761,-33.73167,150.83444
NSW,Hassans Walls,2790,-33.515,150.15111
NSW,Hastings Point,2489,-28.36389,153.57472
NSW,Hat Head,2440,-31.04833,153.05111
NSW,Hatfield,2715,-33.83167,143.73444
NSW,Hawkesbury Heights,2777,-33.66556,150.6425
NSW,Hawks Nest,2324,-32.67194,152.17556
NSW,Hay,2711,-34.49833,144.83444
NSW,Hay South,2711,-34.49833,144.83444
NSW,Haymarket,2000,-33.88167,151.20944
NSW,Haystack,2469,-28.66028,152.55
NSW,Haywards Bay,2530,-34.545,150.79417
NSW,Hazelbrook,2779,-33.725,150.45722
NSW,Hazelgrove,2787,-33.665,149.88444
NSW,Heathcote,2233,-34.08167,151.01778
NSW,Heatherbrae,2324,-32.78167,151.73444
NSW,Hebden,2330,-32.38167,151.05111
NSW,Hebersham,2770,-33.75111,150.98444
NSW,Heckenberg,2168,-33.915,150.90111
NSW,Heddon Greta,2321,-32.80389,151.51222
NSW,Heifer Station,2460,-29.46639,152.58472
NSW,Helensburgh,2508,-34.18889,150.98111
NSW,Henley,2111,-33.83167,151.13444
NSW,Henty,2658,-35.51667,147.03333
NSW,Hereford Hall,2622,-35.78972,149.55056
NSW,Hermitage Flat,2790,-33.48,150.14583
NSW,Hernani,2453,-30.3,152.41667
NSW,Herons Creek,2443,-31.6,152.73333
NSW,Hexham,2322,-32.83333,151.68333
NSW,Hickeys Creek,2440,-30.9,152.61667
NSW,High Range,2575,-34.36667,150.3
NSW,Higher Macdonald,2775,-33.21667,150.93333
NSW,Highfields,2289,-32.95,151.7
NSW,Hill Plain,2710,-35.65,144.88333
NSW,Hill Top,2627,-34.35,150.48333
NSW,Hilldale,2420,-32.51667,151.65
NSW,Hillgrove,2650,-30.56667,151.9
NSW,Hillsborough,2320,-32.65833,151.46667
NSW,Hillsdale,2036,-33.95,151.225
NSW,Hillston,2675,-33.48333,145.53333
NSW,Hillville,2430,-31.98333,152.35
NSW,Hillvue,2340,-31.12611,150.91389
NSW,Hinchinbrook,2168,-33.91667,150.86667
NSW,Hinton,2321,-32.71667,151.64722
NSW,Hobartville,2753,-33.6,150.73333
NSW,Hobbys Yards,2795,-33.68333,149.31667
NSW,Hogarth Range,2469,-28.90028,152.83028
NSW,Holbrook,2644,-35.71667,147.31667
NSW,Holgate,2250,-33.40833,151.40833
NSW,Hollisdale,2446,-31.4,152.55
NSW,Hollydeen,2328,-32.33333,150.61667
NSW,Holmesville,2286,-32.91667,151.56667
NSW,Holroyd,2142,-33.83139,150.99639
NSW,Holsworthy,2173,-33.96667,150.95
NSW,Holts Flat,2631,-36.63333,149.28333
NSW,Homebush,2140,-33.86667,151.09167
NSW,Homebush Bay,2127,-33.83889,151.06556
NSW,Homebush West,2140,-33.86667,151.075
NSW,Homeleigh,2474,-28.57,153.06306
NSW,Hopkins Creek,2484,-28.28889,153.23667
NSW,Horningsea Park,2171,-33.94389,150.84361
NSW,Hornsby,2077,-33.70167,151.09722
NSW,Hornsby Heights,2077,-33.665,151.09278
NSW,Horse Station Creek,2474,-28.6125,152.95778
NSW,Horseshoe Bend,2320,-32.73444,151.565
NSW,Horseshoe Creek,2474,-28.535,153.0375
NSW,Horsfield Bay,2256,-33.49194,151.30389
NSW,Horsley,2530,-34.49,150.77611
NSW,Horsley Park,2175,-33.84,150.85111
NSW,Hoskinstown,2621,-35.415,149.45111
NSW,Hovells Creek,2794,-34.04833,148.88444
NSW,Howards Grass,2480,-28.79278,153.30111
NSW,Howell,2360,-29.93167,151.03444
NSW,Howes Valley,2330,-32.84833,150.85111
NSW,Howick,2330,-32.47556,150.92528
NSW,Howlong,2643,-35.98167,146.63444
NSW,Hoxton Park,2171,-33.93167,150.85111
NSW,Humula,2652,-35.48167,147.75111
NSW,Hunters Hill,2110,-33.84,151.15111
NSW,Hunterview,2330,-32.54417,151.18028
NSW,Huntingdon,2446,-31.465,152.66778
NSW,Huntingwood,2148,-33.79833,150.88444
NSW,Huntley,2530,-33.36889,149.12361
NSW,Huntleys Cove,2111,-33.83833,151.1375
NSW,Huntleys Point,2111,-33.83167,151.13444
NSW,Huonbrook,2482,-28.54833,153.38444
NSW,Hurlstone Park,2193,-33.915,151.12611
NSW,Hurstville,2220,-33.965,151.10944
NSW,Hurstville Grove,2220,-33.98167,151.09278
NSW,Huskisson,2540,-35.045,150.65306
NSW,Hyams Beach,2540,-35.11528,150.68444
NSW,Hydes Creek,2454,-30.415,152.91778
NSW,Hyland Park,2448,-30.61222,153
NSW,Hyndmans Creek,2446,-31.48167,152.60111
NSW,Ilarwill,2463,-29.48167,153.18444
NSW,Illabo,2590,-34.83167,147.75361
NSW,Illaroo,2540,-34.84528,150.46222
NSW,Iluka,2466,-29.40667,153.35111
NSW,Indi,2642,-36.29139,148.14833
NSW,Ingebirah,2627,-36.615,148.48444
NSW,Ingleburn,2565,-33.99833,150.85111
NSW,Ingleside,2101,-33.665,151.26778
NSW,Innes View,2429,-31.58167,152.38444
NSW,Inverell,2360,-29.78167,151.11778
NSW,Invergordon,2422,-32.04833,151.76778
NSW,Invergowrie,2350,-30.51472,151.51806
NSW,Iron Pot Creek,2474,-28.635,152.86806
NSW,Ironbark,2347,-30.29833,150.80889
NSW,Ironmungy,2630,-36.615,148.91778
NSW,Irvington,2470,-28.865,153.08444
NSW,Isabella,2795,-33.94833,149.66778
NSW,Islington,2296,-32.915,151.73444
NSW,Ivanhoe,2878,-32.89833,144.28444
NSW,Jackadgery,2460,-29.58167,152.55111
NSW,Jacks Creek,2390,-30.49,149.72833
NSW,Jacksons Flat,2469,-28.82694,152.56667
NSW,Jacky Bulbin Flat,2463,-29.29833,153.13444
NSW,Jagumba,2642,-36.04833,148.23444
NSW,Jagungal Wilderness,2642,-36.165,148.40111
NSW,Jamberoo,2533,-34.64833,150.77611
NSW,James Creek,2463,-29.45667,153.24
NSW,Jamisontown,2750,-33.765,150.66778
NSW,Jannali,2226,-34.015,151.06778
NSW,Jaspers Brush,2535,-34.80167,150.6575
NSW,Jaunter,2787,-33.99833,149.90111
NSW,Jellat Jellat,2550,-36.715,149.86778
NSW,Jembaicumbene,2622,-35.515,149.78444
NSW,Jenolan,2790,-33.81639,150.06778
NSW,Jeogla,2350,-30.565,152.11778
NSW,Jerangle,2630,-35.865,149.36778
NSW,Jeremadra,2536,-35.82361,150.15694
NSW,Jeremy,2795,-34.00667,149.53444
NSW,Jerilderie,2716,-35.35944,145.74556
NSW,Jerrabomberra,2619,-35.38306,149.21611
NSW,Jerrara,2533,-34.665,150.81778
NSW,Jerrawa,2582,-34.77861,149.07472
NSW,Jerrawangala,2540,-35.13167,150.46778
NSW,Jerrong,2580,-34.13167,149.84278
NSW,Jerrys Plains,2330,-32.48167,150.90111
NSW,Jerseyville,2431,-30.93167,153.03444
NSW,Jesmond,2299,-32.89833,151.68444
NSW,Jewells,2280,-33.02333,151.69278
NSW,Jews Lagoon,2388,-29.915,149.48444
NSW,Jiggi,2480,-28.68167,153.18444
NSW,Jilliby,2259,-33.24833,151.38444
NSW,Jimaringle,2710,-35.315,144.25111
NSW,Jimenbuen,2630,-36.715,148.83444
NSW,Jindabyne,2627,-36.415,148.61778
NSW,Jinden,2622,-35.88861,149.59028
NSW,Jindera,2642,-35.965,146.88444
NSW,Jingellic,2642,-35.915,147.68444
NSW,Jingera,2622,-35.68167,149.43444
NSW,Joadja,2575,-34.39833,150.21778
NSW,Joes Box,2469,-28.67556,152.59417
NSW,Johns River,2443,-31.73167,152.70111
NSW,Jolly Nose,2445,-31.575,152.78333
NSW,Jones Bridge,2720,-35.37639,148.25417
NSW,Jones Creek,2722,-32.15,148.8
NSW,Jones Island,2430,-31.85833,152.6
NSW,Judds Creek,2795,-33.81667,149.55
NSW,Jugiong,2726,-34.79833,148.35111
NSW,Junction Hill,2460,-29.65,152.93333
NSW,Junction Point,2583,-34.13333,149.34167
NSW,Junee,2663,-34.86778,147.58111
NSW,Junee Reefs,2666,-34.73333,147.61667
NSW,Kahibah,2290,-32.96667,151.7
NSW,Kalang,2454,-30.50694,152.68889
NSW,Kalaru,2550,-36.68333,149.93333
NSW,Kalkite,2627,-36.33333,148.64167
NSW,Kamarah,2665,-34.31667,146.78333
NSW,Kameruka,2550,-36.73333,149.7
NSW,Kanahooka,2530,-34.49333,150.81778
NSW,Kanangra,2787,-33.99306,150.10694
NSW,Kangaloon,2576,-34.54833,150.60111
NSW,Kangaroo Creek,2460,-29.85,152.91667
NSW,Kangaroo Point,2224,-34.00278,151.09528
NSW,Kangaroo Valley,2577,-34.73222,150.45222
NSW,Kangiara,2582,-34.60139,148.79389
NSW,Kangy Angy,2258,-33.325,151.38333
NSW,Kanimbla,2790,-33.64028,150.20639
NSW,Kanoona,2550,-36.73333,149.78333
NSW,Kanwal,2259,-33.26667,151.48333
NSW,Kapooka,2661,-35.15,147.28333
NSW,Kaputar,2390,-30.3,150.01667
NSW,Karaak Flat,2429,-31.93333,152.3
NSW,Karabar,2620,-35.37694,149.22972
NSW,Karangi,2450,-30.25,153.03333
NSW,Kareela,2232,-34.01667,151.08333
NSW,Kariong,2250,-33.44167,151.3
NSW,Kars Springs,2337,-31.89833,150.56778
NSW,Karuah,2324,-32.64306,151.95722
NSW,Katoomba,2780,-33.70833,150.30194
NSW,Kayuga,2333,-32.19833,150.86778
NSW,Kearns,2558,-34.02333,150.80111
NSW,Kearsley,2325,-32.86083,151.39778
NSW,Keepit,2340,-30.87611,150.49833
NSW,Keera,2404,-29.98167,150.76778
NSW,Keerrong,2480,-28.715,153.26778
NSW,Keinbah,2320,-32.74972,151.38444
NSW,Keiraville,2500,-34.40833,150.87222
NSW,Keith Hall,2478,-28.87611,153.53444
NSW,Kellys Plains,2350,-30.565,151.65111
NSW,Kellyville,2155,-33.72889,150.95389
NSW,Kellyville Ridge,2155,-33.7025,150.91861
NSW,Kelso,2795,-33.41861,149.60556
NSW,Kelvin,2380,-30.815,150.35111
NSW,Kembla Grange,2526,-34.465,150.81778
NSW,Kembla Heights,2526,-34.42528,150.81083
NSW,Kemblawarra,2505,-34.49,150.89278
NSW,Kemps Creek,2178,-33.83167,150.78444
NSW,Kempsey,2440,-31.08167,152.83444
NSW,Kempton,2583,-34.28167,149.55111
NSW,Kendall,2439,-31.63222,152.70556
NSW,Kenebri,2396,-30.78167,149.01778
NSW,Kennaicle Creek,2449,-30.54833,152.81778
NSW,Kensington,2033,-33.90667,151.22611
NSW,Kenthurst,2156,-33.68722,150.99
NSW,Kentlyn,2560,-34.09,150.82611
NSW,Kentucky,2354,-30.76083,151.38944
NSW,Kentucky South,2354,-30.79667,151.44444
NSW,Kenyu,2586,-34.13167,148.83444
NSW,Kerewong,2439,-31.63167,152.53444
NSW,Kerrabee,2328,-32.415,150.31778
NSW,Kew,2439,-31.63167,152.71778
NSW,Keybarbin,2460,-29.14833,152.60111
NSW,Khancoban,2642,-36.19833,148.13444
NSW,Khatambuhl,2429,-31.79833,152.01778
NSW,Kia Ora,2422,-31.94833,151.96778
NSW,Kiah,2551,-37.14833,149.85111
NSW,Kialla,2583,-34.54,149.45944
NSW,Kiama,2533,-34.665,150.85111
NSW,Kiama Downs,2533,-34.63167,150.85111
NSW,Kiama Heights,2533,-34.69,150.85111
NSW,Kiandra,2629,-35.88167,148.50111
NSW,Kianga,2546,-36.19833,150.13444
NSW,Kiar,2259,-33.20667,151.44278
NSW,Kielvale,2484,-28.33611,153.44694
NSW,Kikiamah,2594,-34.065,148.13444
NSW,Kikoira,2669,-33.63167,146.65111
NSW,Kilaben Bay,2283,-33.02611,151.59278
NSW,Kilgin,2472,-29.04833,153.38444
NSW,Kilgra,2474,-28.55889,152.98389
NSW,Killabakh,2429,-31.73167,152.40111
NSW,Killara,2071,-33.765,151.15111
NSW,Killarney Heights,2087,-33.765,151.20111
NSW,Killarney Vale,2261,-33.365,151.45944
NSW,Killawarra,2429,-31.915,152.31778
NSW,Killcare,2257,-33.53167,151.36778
NSW,Killcare Heights,2257,-33.53167,151.36778
NSW,Killiekrankie,2449,-30.56639,152.56583
NSW,Killimicat,2720,-35.19833,148.21778
NSW,Killingworth,2278,-32.93167,151.55111
NSW,Killongbutta,2795,-33.18167,149.41778
NSW,Kimbriki,2429,-31.915,152.26778
NSW,Kinchela,2440,-30.98167,152.98444
NSW,Kincumber,2251,-33.465,151.39278
NSW,Kincumber South,2251,-33.48167,151.36778
NSW,Kindee,2446,-31.38167,152.43444
NSW,Kindervale,2622,-35.6425,149.54417
NSW,Kinghorne,2540,-34.98722,150.76833
NSW,Kings Creek,2446,-29.465,153.13444
NSW,Kings Forest,2487,-28.29722,153.54833
NSW,Kings Langley,2147,-33.74833,150.91778
NSW,Kings Park,2148,-33.73167,150.90111
NSW,Kings Plains,2360,-33.49833,149.31778
NSW,Kings Point,2539,-35.37167,150.44083
NSW,Kingscliff,2487,-28.26167,153.57694
NSW,Kingsford,2032,-33.92333,151.22611
NSW,Kingsgate,2370,-29.80056,152.07278
NSW,Kingsgrove,2208,-33.94833,151.10111
NSW,Kingstown,2358,-30.48972,151.12167
NSW,Kingswood,2747,-36.74306,149.82389
NSW,Kioloa,2539,-35.54333,150.37306
NSW,Kiora,2537,-35.93167,150.03444
NSW,Kippara,2441,-31.22333,152.52611
NSW,Kippaxs,2429,-31.64833,152.31778
NSW,Kippenduff,2469,-29.13167,152.86778
NSW,Kirkham,2570,-34.03167,150.70111
NSW,Kirrawee,2232,-34.03167,151.06778
NSW,Kirribilli,2061,-33.84833,151.21778
NSW,Kitchener,2325,-32.86722,151.37722
NSW,Kiwarrak,2430,-31.98167,152.51778
NSW,Klori,2346,-30.83167,150.76778
NSW,Knights Hill,2577,-34.615,150.70111
NSW,Knockrow,2479,-28.765,153.53444
NSW,Knorrit Flat,2424,-31.82333,152.08444
NSW,Kogarah,2217,-33.965,151.13444
NSW,Kogarah Bay,2217,-33.97333,151.12611
NSW,Kooba,2680,-34.43056,145.10417
NSW,Kookabookra,2370,-29.99833,152.01778
NSW,Koolewong,2256,-33.46583,151.31833
NSW,Koolkhan,2460,-29.615,152.93444
NSW,Koonawarra,2530,-34.505,150.80667
NSW,Koonorigan,2480,-28.665,153.25111
NSW,Koonyum Range,2482,-28.5275,153.40944
NSW,Kooragang,2304,-32.87611,151.76778
NSW,Koorainghat,2430,-32.015,152.47611
NSW,Kooringal,2650,-35.14833,147.36778
NSW,Kooroowi,2454,-30.48167,152.80111
NSW,Kootingal,2352,-31.05667,151.05111
NSW,Koraleigh,2735,-35.11778,143.4475
NSW,Korora,2450,-30.265,153.13444
NSW,Kosciuszko,2624,-36.44833,148.23444
NSW,Kotara,2289,-32.93167,151.68444
NSW,Kotara South,2289,-32.95111,151.69139
NSW,Krambach,2429,-32.04833,152.26778
NSW,Krawarree,2622,-35.815,149.63444
NSW,Kremnos,2460,-29.98167,152.96778
NSW,Kubura,2655,-35.315,147.08444
NSW,Kulnura,2250,-33.23167,151.21778
NSW,Kunama,2730,-35.565,148.08444
NSW,Kundabung,2441,-31.215,152.81778
NSW,Kundibakh,2429,-31.98167,152.25944
NSW,Kundle Kundle,2430,-31.84833,152.50111
NSW,Kungala,2460,-29.94833,153.01778
NSW,Kunghur,2484,-28.46611,153.23778
NSW,Kunghur Creek,2484,-28.49944,153.24028
NSW,Kurmond,2757,-33.54833,150.70111
NSW,Kurnell,2231,-34.015,151.20111
NSW,Kurrajong,2758,-33.565,150.66778
NSW,Kurrajong Heights,2758,-33.53167,150.63444
NSW,Kurrajong Hills,2758,-33.54833,150.65111
NSW,Kurri Kurri,2327,-32.81444,151.48056
NSW,Kyalite,2734,-34.88889,143.53306
NSW,Kyarran,2460,-29.58167,152.98444
NSW,Kybeyan,2631,-36.34833,149.41778
NSW,Kyeamba,2650,-35.44833,147.60111
NSW,Kyeemagh,2216,-33.94833,151.15944
NSW,Kyle Bay,2221,-33.98167,151.10111
NSW,Kynnumboon,2484,-28.30667,153.36778
NSW,Kyogle,2474,-28.62528,153.01167
NSW,Kywong,2700,-34.98167,146.73444
NSW,La Perouse,2036,-33.98167,151.23444
NSW,Lacmalac,2720,-35.315,148.31778
NSW,Lade Vale,2581,-34.84611,149.15194
NSW,Ladysmith,2652,-35.19833,147.50111
NSW,Laffing Waters,2795,-33.38167,149.61778
NSW,Laggan,2583,-34.34833,149.58444
NSW,Lagoon Grass,2480,-28.78861,153.31778
NSW,Laguna,2325,-32.99,151.13444
NSW,Lake Albert,2650,-35.165,147.38444
NSW,Lake Bathurst,2580,-35.015,149.65111
NSW,Lake Brewster,2675,-33.45083,146.00278
NSW,Lake Cathie,2445,-31.54833,152.85111
NSW,Lake Conjola,2539,-35.28417,150.46833
NSW,Lake Cowal,2671,-33.65667,147.36778
NSW,Lake George,2581,-35.10444,149.37194
NSW,Lake Haven,2263,-33.24,151.50111
NSW,Lake Heights,2502,-34.48333,150.86667
NSW,Lake Hiawatha,2462,-29.79833,153.25944
NSW,Lake Illawarra,2528,-34.54278,150.85944
NSW,Lake Innes,2446,-31.49833,152.85111
NSW,Lake Munmorah,2259,-33.18167,151.58444
NSW,Lake Tabourie,2539,-35.43889,150.40417
NSW,Lake Wyangan,2680,-34.24833,146.03444
NSW,Lakelands,2282,-34.50667,150.80111
NSW,Lakemba,2195,-33.92333,151.08444
NSW,Lakesland,2572,-34.165,150.53444
NSW,Lakewood,2443,-31.63167,152.75944
NSW,Lalor Park,2147,-33.765,150.92889
NSW,Lambs Valley,2370,-32.55667,151.45944
NSW,Lambton,2299,-32.89833,151.70111
NSW,Landervale,2663,-34.515,146.78444
NSW,Lane Cove,2066,-33.81556,151.16667
NSW,Lane Cove North,2066,-33.80639,151.16417
NSW,Lane Cove West,2066,-33.81194,151.15
NSW,Langley Vale,2426,-31.78167,152.56778
NSW,Lanitza,2460,-29.88167,153.00111
NSW,Lankeys Creek,2644,-35.815,147.65111
NSW,Lansdowne,2430,-33.89833,150.96778
NSW,Lansvale,2166,-33.89,150.95111
NSW,Lapstone,2773,-33.77333,150.63611
NSW,Larbert,2622,-35.29833,149.76778
NSW,Largs,2320,-32.70389,151.60111
NSW,Larnook,2480,-28.64833,153.11778
NSW,Laughtondale,2775,-33.40667,151.02611
NSW,Laurel Hill,2649,-35.59833,148.09278
NSW,Laurieton,2443,-31.64833,152.80111
NSW,Lavadia,2462,-29.75667,153.06778
NSW,Lavender Bay,2060,-33.83167,151.20111
NSW,Lavington,2641,-36.03167,146.93444
NSW,Lawrence,2460,-29.49833,153.10111
NSW,Lawson,2783,-33.71778,150.43222
NSW,Leconfield,2335,-32.65667,151.40111
NSW,Leeton,2705,-34.54833,146.40111
NSW,Leets Vale,2775,-33.43167,150.95111
NSW,Leichhardt,2040,-33.89,151.15111
NSW,Leigh,2453,-30.29833,152.75111
NSW,Leighwood,2580,-34.19833,149.62611
NSW,Lemington,2330,-32.50667,150.99278
NSW,Lemon Tree,2259,-33.14833,151.36778
NSW,Lemon Tree Passage,2319,-32.73167,152.03444
NSW,Lenaghan,2322,-32.84833,151.62889
NSW,Lennox Head,2478,-28.79833,153.58444
NSW,Leonay,2750,-33.765,150.65111
NSW,Leppington,2179,-33.965,150.80111
NSW,Lerida,2581,-34.87333,149.36778
NSW,Letchworth,2620,-35.35417,149.21278
NSW,Lethbridge Park,2770,-33.73167,150.79556
NSW,Leumeah,2560,-34.04833,150.83444
NSW,Leura,2780,-33.70889,150.33528
NSW,Levenstrath,2460,-29.815,152.93444
NSW,Lewinsbrook,2311,-32.44833,151.58444
NSW,Lewisham,2049,-33.89833,151.15111
NSW,Leycester,2480,-28.78167,153.20111
NSW,Liberty Grove,2138,-29.29611,150.71361
NSW,Lidcombe,2141,-33.85667,151.03444
NSW,Liddell,2333,-32.39833,151.01778
NSW,Lidsdale,2790,-33.39,150.08444
NSW,Lilli Pilli,2536,-34.065,151.11778
NSW,Lillian Rock,2480,-28.53472,153.15833
NSW,Lilydale,2460,-29.54833,152.66778
NSW,Lilyfield,2040,-33.87333,151.16778
NSW,Lilyvale,2508,-34.18139,151.01972
NSW,Limbri,2352,-31.04,151.15111
NSW,Limeburners Creek,2444,-32.57611,151.91639
NSW,Limekilns,2795,-32.67333,152.13444
NSW,Limerick,2583,-34.19833,149.46778
NSW,Limestone,2361,-29.2025,151.0225
NSW,Limpinwood,2484,-28.29972,153.19972
NSW,Linden,2778,-33.715,150.50528
NSW,Lindendale,2480,-28.83167,153.38444
NSW,Lindesay,2347,-30.34,150.29417
NSW,Lindesay Creek,2476,-28.34028,152.64861
NSW,Lindfield,2070,-33.765,151.16778
NSW,Lindifferon,2710,-35.41194,145.195
NSW,Linley Point,2066,-33.82722,151.15
NSW,Lionsville,2460,-29.19833,152.50111
NSW,Lisarow,2250,-33.38167,151.37611
NSW,Lismore,2480,-28.815,153.28444
NSW,Lismore Heights,2480,-28.815,153.31778
NSW,Lithgow,2790,-33.48167,150.15111
NSW,Little Back Creek,2474,-28.61306,153.045
NSW,Little Bay,2036,-33.98167,151.24278
NSW,Little Billabong,2644,-35.58167,147.53444
NSW,Little Forest,2538,-34.03167,150.97611
NSW,Little Hartley,2790,-33.565,150.21778
NSW,Little Jacks Creek,2339,-31.80333,150.53944
NSW,Little Jilliby,2259,-33.24,151.35944
NSW,Little Pelican,2281,-33.065,151.63444
NSW,Little Plain,2360,-29.715,150.93444
NSW,Little River,2720,-35.33778,148.31694
NSW,Little Wobby,2256,-33.54833,151.23444
NSW,Littleton,2790,-33.49417,150.13861
NSW,Liverpool,2170,-33.93167,150.91778
NSW,Llanarth,2795,-33.38167,149.55111
NSW,Llandilo,2747,-33.715,150.75111
NSW,Llangothlin,2365,-30.13167,151.68444
NSW,Lloyd,2650,-35.14833,147.33444
NSW,Loadstone,2474,-28.39056,152.99028
NSW,Lochiel,2549,-36.94833,149.81778
NSW,Lochinvar,2321,-32.69833,151.45111
NSW,Lockhart,2656,-35.215,146.71778
NSW,Locksley,2795,-33.515,149.76778
NSW,Loftus,2232,-34.04833,151.05111
NSW,Loftville,2480,-28.84,153.24
NSW,Logans Crossing,2439,-31.615,152.70111
NSW,Logie Brae,2713,-35.465,145.50111
NSW,Londonderry,2753,-33.64833,150.73444
NSW,Long Beach,2536,-35.69833,150.23444
NSW,Long Flat,2446,-31.43167,152.48444
NSW,Long Jetty,2261,-33.35667,151.48444
NSW,Long Plain,2629,-29.765,151.21778
NSW,Long Point,2564,-33.04889,149.23389
NSW,Longarm,2347,-30.48361,150.54806
NSW,Longreach,2540,-34.87139,150.52278
NSW,Longueville,2066,-33.82917,151.16861
NSW,Loomberah,2340,-31.23167,151.01778
NSW,Lords Hill,2632,-36.9625,149.16
NSW,Lorn,2320,-32.72611,151.55944
NSW,Lorne,2439,-31.64833,152.61778
NSW,Lostock,2311,-32.315,151.45111
NSW,Louisa Creek,2469,-29.02,152.61944
NSW,Louth Park,2320,-32.75667,151.55667
NSW,Lovedale,2325,-32.78167,151.38444
NSW,Lovett Bay,2105,-33.63167,151.26778
NSW,Lowanna,2450,-30.215,152.90111
NSW,Lower Acacia Creek,2476,-28.43167,152.23444
NSW,Lower Bago,2730,-35.565,147.96778
NSW,Lower Belford,2335,-32.60667,151.29278
NSW,Lower Bottle Creek,2469,-28.81944,152.60861
NSW,Lower Creek,2440,-30.73167,152.25111
NSW,Lower Duck Creek,2469,-28.72944,152.53417
NSW,Lower Dyraaba,2470,-28.80528,152.88694
NSW,Lower Macdonald,2775,-33.365,150.95111
NSW,Lower Mangrove,2250,-33.415,151.15944
NSW,Lower Pappinbarra,2446,-31.415,152.58444
NSW,Lower Peacock,2469,-28.77667,152.58472
NSW,Lower Portland,2756,-33.43167,150.88444
NSW,Lower Southgate,2460,-29.54833,153.07611
NSW,Lowesdale,2646,-35.83167,146.35111
NSW,Lowther,2790,-33.615,150.10111
NSW,Loxford,2326,-32.79833,151.48444
NSW,Luddenham,2745,-33.94833,150.75111
NSW,Lugarno,2210,-33.99,151.04556
NSW,Lurnea,2170,-33.915,150.93444
NSW,Luskintyre,2321,-32.665,151.41778
NSW,Lynchs Creek,2474,-28.45333,152.99444
NSW,Lyndhurst,2350,-30.35278,152.05861
NSW,Lynwood,2477,-28.87056,153.44278
NSW,Mabins Well,2716,-34.80667,145.56389
NSW,MacDonalds Creek,2339,-31.81,150.44333
NSW,Macksville,2447,-30.7175,152.91722
NSW,Maclean,2463,-29.45667,153.20111
NSW,MacMasters Beach,2251,-33.49,151.42611
NSW,Macquarie Fields,2564,-33.99,150.88444
NSW,Macquarie Hills,2285,-32.9525,151.64972
NSW,Macquarie Links,2565,-33.98167,150.87333
NSW,Macquarie Park,2113,-33.765,151.11778
NSW,Macquarie Pass,2577,-34.55917,150.64083
NSW,Maddens Plains,2508,-34.24833,150.96306
NSW,Maffra,2630,-36.53167,148.96778
NSW,Magenta,2261,-33.29833,151.54278
NSW,Maianbar,2230,-34.08167,151.13444
NSW,Maimuru,2594,-34.215,148.21778
NSW,Main Arm,2482,-28.49833,153.43444
NSW,Main Creek,2420,-32.31222,151.79722
NSW,Maison Dieu,2330,-32.53167,151.05944
NSW,Maitland,2320,-32.73167,151.55111
NSW,Maitland Vale,2320,-32.665,151.55111
NSW,Majors Creek,2622,-35.565,149.73444
NSW,Malabar,2036,-33.965,151.24278
NSW,Malabugilmah,2460,-29.165,152.61778
NSW,Maldon,2571,-34.19833,150.63444
NSW,Mallabula,2319,-32.73167,152.01778
NSW,Mallanganee,2469,-28.89833,152.71778
NSW,Mallowa,2400,-29.615,149.36778
NSW,Maloneys Beach,2536,-35.69889,150.25361
NSW,Malua Bay,2536,-35.78167,150.23444
NSW,Manar,2622,-35.29833,149.68444
NSW,Manchester Square,2577,-34.615,150.40111
NSW,Mandalong,2264,-33.13167,151.42611
NSW,Mandemar,2575,-34.415,150.28444
NSW,Mandurama,2792,-33.64333,148.99111
NSW,Manera Heights,2830,-32.23167,148.61778
NSW,Mangerton,2500,-34.43278,150.87056
NSW,Mangoola,2328,-32.33167,150.71778
NSW,Mangoplah,2652,-35.38167,147.25111
NSW,Mangrove Creek,2250,-33.34,151.14278
NSW,Mangrove Mountain,2250,-33.29833,151.19278
NSW,Manildra,2865,-33.18167,148.68444
NSW,Manilla,2346,-30.74833,150.71778
NSW,Manly,2095,-33.79833,151.28444
NSW,Manly Vale,2093,-33.78167,151.26778
NSW,Mannering Park,2259,-33.14833,151.53444
NSW,Manning Point,2430,-31.915,152.66778
NSW,Mannus,2653,-35.79833,147.93444
NSW,Manobalai,2333,-32.19833,150.68444
NSW,Manton,2582,-34.8475,149.02083
NSW,Manyana,2539,-35.25444,150.51722
NSW,Maragle,2653,-35.915,148.10111
NSW,Maraylya,2765,-33.59833,150.91778
NSW,Marayong,2148,-33.74833,150.90944
NSW,March,2800,-33.20278,149.09139
NSW,Mardi,2259,-33.29,151.40944
NSW,Marengo,2453,-30.15194,152.40944
NSW,Mares Run,2422,-31.64833,151.80944
NSW,Marinna,2663,-34.84833,147.65111
NSW,Marks Point,2280,-33.05944,151.65111
NSW,Markwell,2423,-32.30417,152.17472
NSW,Marlee,2429,-31.78167,152.31778
NSW,Marlo Merrican,2446,-31.19,152.68444
NSW,Marlow,2775,-33.46833,151.16556
NSW,Marlowe,2622,-35.29833,149.88444
NSW,Marmong Point,2284,-32.98167,151.61778
NSW,Marom Creek,2480,-28.89833,153.36778
NSW,Maroota,2756,-33.45667,150.99278
NSW,Maroubra,2035,-33.94833,151.24278
NSW,Marrangaroo,2790,-33.44,150.11778
NSW,Marrar,2652,-34.83167,147.33444
NSW,Marrickville,2204,-33.91222,151.15944
NSW,Marsden Park,2765,-33.69833,150.83444
NSW,Marsfield,2122,-33.765,151.10111
NSW,Marshall Mount,2530,-34.54417,150.73722
NSW,Marshdale,2420,-32.42556,151.79778
NSW,Martindale,2328,-32.465,150.66778
NSW,Martins Creek,2420,-32.55222,151.645
NSW,Martinsville,2265,-33.05667,151.40944
NSW,Marulan,2579,-34.715,150.00111
NSW,Marulan South,2579,-34.765,150.03444
NSW,Marx Hill,2454,-30.465,152.91778
NSW,Maryland,2287,-32.865,151.66778
NSW,Marys Mount,2380,-31.00111,149.99833
NSW,Maryville,2293,-32.915,151.75111
NSW,Mascot,2020,-33.93167,151.19278
NSW,Matcham,2250,-33.415,151.42611
NSW,Matheson,2370,-29.73167,151.56778
NSW,Mathoura,2710,-35.815,144.90111
NSW,Matong,2652,-34.765,146.91778
NSW,Matraville,2036,-33.95667,151.23444
NSW,Maude,2711,-34.465,144.30111
NSW,Maudville,2422,-32.03167,151.73444
NSW,Maules Creek,2382,-30.49833,150.13444
NSW,Maxwell,2650,-35.29,147.29278
NSW,Maybole,2365,-29.89833,151.58444
NSW,Mayers Flat,2423,-32.38778,152.33167
NSW,Mayfield,2787,-32.89833,151.73444
NSW,Mayfield East,2304,-32.89833,151.74972
NSW,Mayfield North,2304,-32.89,151.74278
NSW,Mayfield West,2304,-32.89,151.72611
NSW,Maynards Plains,2453,-30.39833,152.70111
NSW,Mayrung,2710,-35.465,145.28444
NSW,Mays Hill,2145,-33.815,150.99278
NSW,Mayvale,2347,-30.41222,150.415
NSW,Mcalister,2580,-34.44833,149.56778
NSW,McCullys Gap,2333,-32.215,150.98444
NSW,Mcdougalls Hill,2330,-32.54833,151.14278
NSW,McGraths Hill,2756,-33.615,150.83444
NSW,Mckees Hill,2480,-28.88167,153.20111
NSW,McKellars Park,2790,-33.45806,150.165
NSW,Mcleans Ridges,2480,-28.79833,153.38444
NSW,McLeods Shoot,2479,-28.64833,153.53444
NSW,McMahons Point,2060,-33.84833,151.20111
NSW,Meadow Flat,2795,-33.415,149.91778
NSW,Meadowbank,2114,-33.815,151.08444
NSW,Mebbin,2484,-28.44639,153.15917
NSW,Medlow Bath,2780,-33.67917,150.29167
NSW,Medowie,2318,-32.73167,151.85111
NSW,Medway,2577,-32.13167,149.16778
NSW,Meerschaum Vale,2477,-28.915,153.43444
NSW,Megalong,2785,-33.715,150.23444
NSW,Megan,2453,-30.28167,152.76778
NSW,Melbergen,2669,-33.69833,146.03444
NSW,Meldrum Downs,2453,-30.365,152.50111
NSW,Melinga,2430,-31.815,152.51778
NSW,Mellong,2756,-33.19833,150.68444
NSW,Mellool,2734,-35.39833,143.81778
NSW,Melrose Park,2114,-33.815,151.06778
NSW,Melville,2320,-32.68167,151.50111
NSW,Memagong,2594,-34.25667,148.04278
NSW,Menai,2234,-34.015,151.01778
NSW,Menangle,2568,-34.12333,150.74278
NSW,Menangle Park,2563,-34.10667,150.75111
NSW,Menindee,2879,-32.365,142.40111
NSW,Merah North,2388,-30.18167,149.30111
NSW,Merewether,2291,-32.94833,151.75111
NSW,Merewether Heights,2291,-32.94833,151.73444
NSW,Merimbula,2548,-36.89833,149.90111
NSW,Meringo,2537,-35.98167,150.15111
NSW,Mernot,2422,-31.71556,151.57056
NSW,Meroo Meadow,2540,-34.815,150.61778
NSW,Merriangaah,2632,-36.85556,149.01556
NSW,Merricumbene,2622,-35.73333,149.89583
NSW,Merrill,2581,-34.68167,149.26333
NSW,Merriwa,2329,-32.13167,150.35111
NSW,Merriwagga,2652,-33.815,145.61778
NSW,Merrylands,2160,-33.84,150.98444
NSW,Merrylands West,2160,-33.84,150.96778
NSW,Merton Vale,2646,-35.93167,146.19278
NSW,Merungle Hill,2705,-34.59833,146.43444
NSW,Meryla,2577,-34.69833,150.38444
NSW,Metford,2323,-32.765,151.61778
NSW,Methul,2701,-34.59833,147.15111
NSW,Metz,2350,-30.54833,151.88444
NSW,Miandetta,2825,-31.57194,146.94972
NSW,Micalo Island,2464,-29.44833,153.30944
NSW,Michelago,2620,-35.765,149.20111
NSW,Middle Arm,2580,-34.53167,149.75111
NSW,Middle Brook,2337,-31.965,150.80944
NSW,Middle Brother,2443,-31.69,152.70944
NSW,Middle Cove,2068,-33.78167,151.20111
NSW,Middle Dural,2158,-33.64,151.02611
NSW,Middle Falbrook,2330,-32.44833,151.15111
NSW,Middle Flat,2630,-36.23167,149.18444
NSW,Middle Pocket,2483,-28.48167,153.48444
NSW,Middleton Grange,2171,-33.88167,150.83444
NSW,Middlingbank,2630,-36.19833,148.78444
NSW,Midginbil,2484,-28.49694,153.25944
NSW,Mihi,2358,-30.71278,151.69639
NSW,Mila,2632,-37.04833,149.16778
NSW,Milbrodale,2330,-32.69833,151.00944
NSW,Milbrulong,2656,-35.315,146.91778
NSW,Milguy,2399,-29.34833,150.20111
NSW,Milkers Flat,2795,-33.27333,149.38444
NSW,Millah Murrah,2795,-33.17333,149.60944
NSW,Millbank,2440,-30.865,152.63444
NSW,Miller,2168,-33.915,150.88444
NSW,Millers Forest,2324,-32.74833,151.68444
NSW,Millers Point,2000,-33.84833,151.20111
NSW,Millfield,2325,-32.88167,151.26778
NSW,Millie,2397,-29.815,149.56778
NSW,Millingandi,2549,-36.88167,149.85111
NSW,Milperra,2214,-33.94,150.97611
NSW,Milroy,2380,-31.08167,150.13167
NSW,Milsons Passage,2083,-33.52333,151.16778
NSW,Milsons Point,2061,-33.98028,151.21056
NSW,Milton,2538,-35.30417,150.44083
NSW,Milvale,2594,-34.315,147.91778
NSW,Mimosa,2666,-34.58167,147.36778
NSW,Minchinbury,2770,-33.78167,150.83444
NSW,Mindaribba,2320,-32.665,151.58444
NSW,Mingay,2727,-34.965,148.15111
NSW,Mingoola,2372,-28.99833,151.55111
NSW,Minimbah,2312,-32.1575,152.37472
NSW,Minjary,2720,-35.19972,148.13444
NSW,Minmi,2287,-32.88167,151.61778
NSW,Minnamurra,2533,-34.615,150.85111
NSW,Minnie Water,2462,-29.765,153.30111
NSW,Minto,2566,-34.03167,150.85111
NSW,Minto Heights,2566,-34.04,150.85111
NSW,Miranda,2228,-34.04833,151.10111
NSW,Mirannie,2330,-32.38167,151.36778
NSW,Mirrabooka,2264,-33.115,151.55111
NSW,Mirrool,2665,-34.30667,147.08444
NSW,Missabotti,2449,-30.56306,152.79139
NSW,Mitchell,2795,-33.43167,149.56778
NSW,Mitchells Flat,2330,-32.54833,151.28444
NSW,Mitchells Island,2430,-31.90667,152.61778
NSW,Mittagong,2575,-34.44833,150.45111
NSW,Moama,2731,-36.09833,144.75111
NSW,Modanville,2480,-28.715,153.30111
NSW,Mogareeka,2550,-36.69417,149.97611
NSW,Mogendoura,2537,-35.865,150.05111
NSW,Moggs Swamp,2370,-29.965,152.03444
NSW,Mogilla,2550,-36.69833,149.58444
NSW,Mogo,2536,-35.78167,150.15111
NSW,Mogo Creek,2775,-33.165,151.06778
NSW,Mograni,2422,-32.03167,152.03444
NSW,Mograni Creek,2422,-32.03167,152.03444
NSW,Moira,2710,-35.93167,144.83444
NSW,Moleville Creek,2460,-29.57222,152.90333
NSW,Mollymook,2539,-35.33722,150.46667
NSW,Mollymook Beach,2539,-35.32306,150.47444
NSW,Molong,2866,-33.09833,148.85111
NSW,Mona Vale,2103,-33.665,151.30111
NSW,Monak,2738,-34.28167,142.26778
NSW,Monaltrie,2480,-28.85389,153.29
NSW,Mondayong,2540,-35.17444,150.50417
NSW,Mondrook,2430,-31.915,152.41778
NSW,Monga,2622,-35.58167,149.91778
NSW,Mongarlowe,2622,-35.415,149.93444
NSW,Mongogarie,2470,-28.94833,152.91778
NSW,Monia Gap,2675,-33.59833,145.96778
NSW,Monkerai,2415,-32.25278,151.85889
NSW,Monteagle,2594,-34.18167,148.35111
NSW,Montecollum,2482,-28.58167,153.46778
NSW,Monterey,2217,-33.965,151.15111
NSW,Mooball,2483,-28.43722,153.50389
NSW,Moobi,2337,-32.065,150.79278
NSW,Moogem,2370,-29.44889,152.24306
NSW,Mookima Wybra,2469,-29.00528,152.52917
NSW,Moombooldool,2665,-34.28167,146.66778
NSW,Moona Plains,2354,-31.015,151.91778
NSW,Moonahcullah,2710,-35.38167,144.63444
NSW,Moonan Brook,2337,-31.94833,151.28444
NSW,Moonan Flat,2337,-31.915,151.23444
NSW,Moonbah,2627,-36.48167,148.55111
NSW,Moonbi,2353,-31.015,151.06778
NSW,Moonbria,2710,-35.115,145.46778
NSW,Mooneba,2440,-31.04,152.68444
NSW,Moonee,2259,-33.17333,151.62611
NSW,Moonee Beach,2450,-29.99833,153.00111
NSW,Mooney Mooney,2083,-33.52333,151.20111
NSW,Mooney Mooney Creek,2250,-33.465,151.21778
NSW,Moonpar,2453,-30.22667,152.63833
NSW,Mooral Creek,2429,-31.715,152.35111
NSW,Moore Creek,2340,-30.98167,150.91778
NSW,Moore Park,2021,-33.89833,151.22611
NSW,Moorebank,2170,-33.94833,150.93444
NSW,Moorilda,2795,-33.615,149.33444
NSW,Moorland,2443,-31.78167,152.65111
NSW,Moorong,2650,-35.09833,147.27611
NSW,Moorwatha,2640,-35.915,146.70111
NSW,Mootai,2325,-32.94833,151.26778
NSW,Moparrabah,2440,-30.965,152.53444
NSW,Moppy,2422,-31.98167,151.60111
NSW,Morago,2710,-35.365,144.65111
NSW,Morangarell,2666,-34.14833,147.71778
NSW,Morans Crossing,2550,-36.665,149.65111
NSW,Moree,2400,-29.465,149.83444
NSW,Morisset,2264,-33.115,151.50111
NSW,Morisset Park,2264,-33.12056,151.53444
NSW,Morning Bay,2108,-33.62333,151.28444
NSW,Mororo,2469,-29.33167,153.23444
NSW,Morpeth,2321,-32.72611,151.63167
NSW,Mortdale,2223,-33.97333,151.08444
NSW,Mortlake,2137,-33.84833,151.10111
NSW,Morton,2538,-35.39833,150.35111
NSW,Mortons Creek,2446,-31.39833,152.65111
NSW,Morts Estate,2790,-33.46861,150.16722
NSW,Morundah,2700,-34.93167,146.30111
NSW,Moruya,2537,-35.915,150.08444
NSW,Moruya Heads,2537,-35.915,150.15111
NSW,Morven,2660,-35.665,147.11778
NSW,Mosman,2088,-33.8275,151.24306
NSW,Moss Vale,2577,-34.54833,150.36778
NSW,Mossy Point,2537,-35.84833,150.18444
NSW,Moto,2426,-31.84833,152.60111
NSW,Moulamein,2733,-35.08167,144.03444
NSW,Mount Adrah,2729,-35.23639,147.96139
NSW,Mount Annan,2567,-34.065,150.75944
NSW,Mount Austin,2650,-35.13167,147.35111
NSW,Mount Burrell,2484,-28.49694,153.20111
NSW,Mount Colah,2079,-33.665,151.11778
NSW,Mount Collins,2794,-33.98167,148.76778
NSW,Mount Cooper,2631,-36.665,149.21778
NSW,Mount Crystal,2665,-34.515,146.68444
NSW,Mount Darragh,2632,-36.84833,149.51778
NSW,Mount David,2795,-33.815,149.60111
NSW,Mount Dee,2320,-32.74,151.53722
NSW,Mount Druitt,2770,-33.77056,150.82056
NSW,Mount Elliot,2250,-33.40056,151.3875
NSW,Mount Fairy,2580,-35.165,149.58444
NSW,Mount George,2424,-31.88167,152.18444
NSW,Mount Horeb,2729,-35.215,148.03444
NSW,Mount Hunter,2570,-34.07056,150.63722
NSW,Mount Hutton,2290,-32.98167,151.67056
NSW,Mount Irvine,2786,-33.48472,150.46111
NSW,Mount Keira,2500,-34.40556,150.85361
NSW,Mount Kembla,2526,-34.42694,150.82556
NSW,Mount Kingiman,2539,-35.34222,150.34278
NSW,Mount Kuring-Gai,2080,-33.74833,151.06778
NSW,Mount Lambie,2790,-33.45667,149.98444
NSW,Mount Lewis,2200,-33.915,151.05111
NSW,Mount Marsh,2469,-29.275,152.89167
NSW,Mount Mitchell,2365,-29.93167,151.81778
NSW,Mount Olive,2787,-33.60528,149.93306
NSW,Mount Ousley,2519,-34.4,150.88028
NSW,Mount Panorama,2795,-33.44833,149.55944
NSW,Mount Pleasant,2519,-34.39556,150.86806
NSW,Mount Pritchard,2170,-33.89833,150.90111
NSW,Mount Rae,2580,-34.44833,149.71778
NSW,Mount Rankin,2795,-33.34,149.51778
NSW,Mount Rivers,2311,-32.365,151.48444
NSW,Mount Riverview,2774,-33.72889,150.63528
NSW,Mount Royal,2330,-35.65417,146.83972
NSW,Mount Russell,2360,-29.665,150.91778
NSW,Mount Saint Thomas,2500,-34.44111,150.87167
NSW,Mount Seaview,2446,-31.365,152.22167
NSW,Mount Thorley,2330,-32.615,151.10111
NSW,Mount Tomah,2758,-33.54361,150.42111
NSW,Mount Vernon,2178,-33.85667,150.80944
NSW,Mount Victoria,2786,-33.58417,150.2475
NSW,Mount View,2325,-32.84833,151.28444
NSW,Mount Vincent,2323,-32.99,149.90944
NSW,Mount Warning,2484,-28.38167,153.28444
NSW,Mount Warrigal,2528,-34.54833,150.84278
NSW,Mount Werong,2787,-34.08167,149.92611
NSW,Mount White,2250,-33.45667,151.19278
NSW,Mount Wilson,2786,-33.50083,150.39472
NSW,Mountain Creek,2644,-35.765,147.13444
NSW,Mountain Lagoon,2758,-33.44,150.63444
NSW,Mountain Top,2480,-30.38167,152.71778
NSW,Mountain View,2460,-29.59833,152.93444
NSW,Mourquong,2648,-34.13167,142.16778
NSW,Mowbray Park,2571,-34.14833,150.55111
NSW,Mozart,2787,-33.82056,149.8275
NSW,Mulbring,2323,-32.88667,151.51944
NSW,Muldiva,2453,-30.29833,152.60111
NSW,Mulgoa,2745,-33.83167,150.65111
NSW,Mulgowrie,2583,-34.23167,149.17611
NSW,Mulgrave,2756,-33.615,150.81778
NSW,Muli Muli,2476,-28.41806,152.58417
NSW,Mulla,2825,-31.82222,147.32944
NSW,Mulla Creek,2352,-31.14,151.15111
NSW,Mullaley,2379,-31.09833,149.91778
NSW,Mullaway,2456,-30.08167,153.20111
NSW,Mullengandra,2644,-35.915,147.13444
NSW,Mulloon,2622,-35.265,149.60111
NSW,Mullumbimby,2482,-28.54833,153.50111
NSW,Mullumbimby Creek,2482,-28.54833,153.46778
NSW,Mulwala,2647,-35.98167,146.00111
NSW,Mumbulla Mountain,2550,-36.545,149.87139
NSW,Mummel,2580,-34.68167,149.58444
NSW,Mummulgum,2469,-28.86722,152.80222
NSW,Mundamia,2540,-34.89667,150.56417
NSW,Mundarlo,2729,-35.08167,147.81778
NSW,Munderoo,2653,-35.83167,147.86778
NSW,Mundongo,2720,-35.2825,148.28528
NSW,Mungay Creek,2440,-30.90667,152.67611
NSW,Mungindi,2406,-28.99,149.97889
NSW,Mungle,2408,-28.88167,150.26778
NSW,Munni,2420,-32.31639,151.67139
NSW,Munyabla,2658,-35.49833,146.86778
NSW,Murrah,2550,-36.52333,150.03444
NSW,Murrami,2705,-34.43167,146.30111
NSW,Murrawombie,2825,-31.17417,147.23222
NSW,Murray Gorge,2642,-36.39833,148.08444
NSW,Murrengenburg,2622,-35.54194,149.99361
NSW,Murrin Bridge,2672,-33.20639,146.37056
NSW,Murringo,2586,-34.29833,148.53444
NSW,Murrulebale,2652,-34.73167,147.40111
NSW,Murrumbateman,2582,-34.9625,149.02611
NSW,Murrumbucca,2630,-36.09833,149.05111
NSW,Murrumburrah,2587,-34.54833,148.36778
NSW,Murrurundi,2338,-31.765,150.83444
NSW,Murwillumbah,2484,-28.33167,153.38444
NSW,Muscle Creek,2333,-32.265,150.98444
NSW,Muswellbrook,2333,-32.265,150.88444
NSW,Muttama,2722,-34.79833,148.11778
NSW,Myall Creek,2403,-29.765,150.71778
NSW,Myall Park,2681,-34.13167,146.10111
NSW,Myalla,2630,-36.39833,149.11778
NSW,Mylestom,2454,-30.465,153.05111
NSW,Mylneford,2460,-29.63167,152.85111
NSW,Myocum,2481,-28.615,153.51778
NSW,Myola,2540,-35.015,150.68444
NSW,Myra Vale,2577,-34.64833,150.50944
NSW,Myrtle Creek,2469,-29.09833,152.95111
NSW,Myrtle Mountain,2550,-36.84194,149.69028
NSW,Myrtle Park,2713,-35.565,145.45111
NSW,Mystery Bay,2546,-36.30306,150.12778
NSW,Myuna Bay,2264,-33.06222,151.54556
NSW,Nabiac,2312,-32.09889,152.38778
NSW,Nadgee,2551,-37.35472,149.84861
NSW,Nambucca Heads,2448,-30.64833,153.00111
NSW,Nana Glen,2450,-30.13167,153.00111
NSW,Nanangroe,2582,-34.965,148.48444
NSW,Nangus,2722,-35.015,147.95111
NSW,Napoleon Reef,2795,-33.43167,149.76778
NSW,Naradhan,2669,-33.74833,145.93444
NSW,Narara,2250,-33.39833,151.35111
NSW,Narellan,2567,-34.03167,150.73444
NSW,Narellan Vale,2567,-34.04833,150.73444
NSW,Naremburn,2065,-33.815,151.18444
NSW,Narooma,2546,-36.215,150.13444
NSW,Narrabarba,2551,-37.25667,149.81778
NSW,Narrabeen,2101,-33.715,151.28444
NSW,Narrabri,2390,-30.33167,149.76778
NSW,Narraburra,2666,-34.33167,147.65111
NSW,Narrandera,2700,-34.74833,146.55111
NSW,Narrawa,2583,-34.365,149.15111
NSW,Narrawallee,2539,-35.29833,150.46778
NSW,Narraweena,2099,-33.74833,151.26778
NSW,Narwee,2209,-33.94833,151.07611
NSW,Nashua,2479,-28.73167,153.46778
NSW,Nattai,2570,-34.065,150.45111
NSW,Nea,2381,-31.23167,150.28444
NSW,Neath,2326,-32.83167,151.40111
NSW,Nelligen,2536,-35.64833,150.13444
NSW,Nelson,2765,-33.64833,150.91778
NSW,Nelson Bay,2315,-32.715,152.15111
NSW,Nelsons Plains,2324,-32.715,151.71778
NSW,Nemingha,2340,-31.10667,150.99278
NSW,Nericon,2680,-34.215,146.05111
NSW,Neringla,2622,-35.71972,149.77333
NSW,Nerong,2423,-32.51083,152.21361
NSW,Nerriga,2622,-35.115,150.08444
NSW,Nerrigundah,2545,-36.115,149.90111
NSW,Nethercote,2549,-37.015,149.83444
NSW,Neutral Bay,2089,-33.83167,151.21778
NSW,Never Never,2453,-30.35889,152.82
NSW,New Brighton,2483,-28.515,153.55111
NSW,New Buildings,2550,-36.965,149.55111
NSW,New Italy,2472,-29.13167,153.26778
NSW,New Lambton,2305,-32.915,151.70111
NSW,New Lambton Heights,2305,-32.915,151.70111
NSW,New Park,2474,-28.60389,152.98444
NSW,New Valley,2365,-30.04,151.33444
NSW,Newbold,2460,-29.49833,152.66778
NSW,Newbridge,2795,-33.565,149.36778
NSW,Newcastle,2300,-32.93167,151.78444
NSW,Newcastle East,2300,-32.92611,151.79
NSW,Newcastle West,2302,-32.92472,151.77611
NSW,Newee Creek,2447,-30.63278,152.93333
NSW,Newington,2127,-33.83861,151.05528
NSW,Newnes,2790,-33.18889,150.24861
NSW,Newnes Plateau,2790,-33.30528,150.26222
NSW,Newport,2106,-33.64833,151.30111
NSW,Newport Beach,2106,-33.64833,151.31778
NSW,Newry,2455,-30.49833,150.60111
NSW,Newry Island,2455,-30.49833,153.00111
NSW,Newrybar,2479,-28.715,153.53444
NSW,Newstead,2360,-29.815,151.33444
NSW,Newton Boyd,2370,-29.74833,152.25111
NSW,Newtown,2042,-33.89833,151.18444
NSW,Niagara Park,2250,-33.38167,151.35111
NSW,Niangala,2354,-31.29833,151.40944
NSW,Niemur,2733,-35.22639,144.31667
NSW,Nightcap,2480,-28.54278,153.29
NSW,Nimbin,2480,-28.59833,153.23444
NSW,Nimmitabel,2631,-36.515,149.28444
NSW,Nimmo,2628,-36.18167,148.61778
NSW,Nobbys Creek,2484,-28.29417,153.3375
NSW,Noorong,2732,-35.34472,144.02444
NSW,Nooroo,2415,-32.37222,151.88722
NSW,Norah Head,2263,-33.28167,151.56778
NSW,Noraville,2263,-33.265,151.56778
NSW,Nords Wharf,2281,-33.13167,151.60111
NSW,Normanhurst,2076,-33.72333,151.09278
NSW,North Albury,2640,-36.04833,146.93444
NSW,North Arm,2484,-28.33028,153.34222
NSW,North Arm Cove,2324,-32.62528,152.04417
NSW,North Avoca,2260,-33.45667,151.43444
NSW,North Balgowlah,2093,-33.78167,151.25111
NSW,North Batemans Bay,2536,-35.68722,150.18806
NSW,North Bellingen,2454,-30.415,152.95111
NSW,North Boambee Valley,2450,-30.30833,153.07306
NSW,North Bondi,2026,-33.88167,151.26778
NSW,North Brother,2443,-31.65667,152.77611
NSW,North Casino,2470,-28.79361,153.06389
NSW,North Curl Curl,2099,-33.765,151.30111
NSW,North Dorrigo,2453,-32.28167,152.68444
NSW,North Dubbo,2830,-32.23167,148.60111
NSW,North Epping,2121,-33.765,151.08444
NSW,North Gosford,2250,-33.415,151.35111
NSW,North Haven,2443,-31.63167,152.81778
NSW,North Lambton,2299,-32.90389,151.70389
NSW,North Lismore,2480,-28.79833,153.28444
NSW,North Macksville,2447,-30.68944,152.94444
NSW,North Macquarie,2527,-34.57056,150.74278
NSW,North Manly,2100,-33.765,151.26778
NSW,North Narooma,2546,-36.20639,150.10389
NSW,North Narrabeen,2101,-33.69833,151.28444
NSW,North Parramatta,2151,-33.79833,151.01778
NSW,North Richmond,2754,-33.58167,150.71778
NSW,North Rocks,2151,-33.77056,151.02056
NSW,North Rothbury,2335,-32.69333,151.34389
NSW,North Ryde,2113,-33.79556,151.12194
NSW,North Shore,2444,-31.39833,152.90111
NSW,North St Marys,2760,-33.75667,150.79278
NSW,North Star,2408,-28.91833,150.43083
NSW,North Strathfield,2137,-33.85667,151.09278
NSW,North Sydney,2060,-33.83167,151.20111
NSW,North Tamworth,2340,-31.07778,150.92611
NSW,North Tumbulgum,2490,-28.26194,153.47167
NSW,North Turramurra,2074,-33.715,151.13444
NSW,North Wagga Wagga,2650,-35.09833,147.38444
NSW,North Wahroonga,2076,-33.69278,151.12611
NSW,North Willoughby,2068,-33.79444,151.20417
NSW,North Wollongong,2520,-34.41111,150.89333
NSW,North Woodburn,2471,-29.065,153.33444
NSW,North Yalgogrin,2671,-33.84833,146.83444
NSW,Northangera,2622,-35.46028,149.91056
NSW,Northbridge,2063,-33.79833,151.21778
NSW,Northmead,2152,-33.78444,150.99833
NSW,Northwood,2066,-33.82778,151.17833
NSW,Norway,2787,-33.765,149.81778
NSW,Nowendoc,2354,-31.54833,151.63444
NSW,Nowley,2386,-29.98167,149.18444
NSW,Nowra,2541,-34.88083,150.6075
NSW,Nowra Hill,2540,-34.93139,150.55167
NSW,Nubba,2587,-34.53167,148.21778
NSW,Nulkaba,2325,-32.80167,151.36361
NSW,Nullamanna,2360,-29.64833,151.21778
NSW,Nullica,2551,-37.09833,149.83444
NSW,Numbaa,2540,-34.87639,150.69389
NSW,Number One,2424,-31.73167,152.06778
NSW,Numbla Vale,2628,-36.63167,148.81778
NSW,Numbugga,2550,-36.64833,149.70111
NSW,Numeralla,2630,-36.165,149.33444
NSW,Numinbah,2484,-28.265,153.25944
NSW,Numulgi,2480,-28.74833,153.33444
NSW,Nunderi,2484,-28.32056,153.45944
NSW,Nundle,2340,-31.465,151.13444
NSW,Nungatta,2551,-37.215,149.40111
NSW,Nungatta South,2551,-37.27889,149.45417
NSW,Nurenmerenmong,2649,-35.815,148.27611
NSW,Nymboida,2460,-29.93167,152.71778
NSW,Nyngan,2825,-31.535,147.17806
NSW,Oak Flats,2529,-34.56222,150.81778
NSW,Oakdale,2570,-34.08167,150.50111
NSW,Oakhampton,2320,-32.69833,151.55111
NSW,Oakhampton Heights,2320,-32.69833,151.55111
NSW,Oakhurst,2761,-33.73167,150.83444
NSW,Oaklands,2646,-35.54833,146.16778
NSW,Oakville,2765,-33.62333,150.86778
NSW,Oakwood,2360,-29.63167,151.03444
NSW,Oaky Park,2790,-33.46222,150.18444
NSW,Oallen,2622,-35.13833,149.94389
NSW,Oatlands,2117,-33.79417,151.03167
NSW,Oatley,2223,-33.99139,151.07611
NSW,Oban,2365,-30.09,151.87611
NSW,Obanvale,2330,-32.50667,151.16778
NSW,Oberne,2652,-35.34833,147.80111
NSW,Oberne Creek,2650,-35.39833,147.84278
NSW,Oberon,2787,-33.69833,149.86778
NSW,Ocean Shores,2483,-28.50917,153.5375
NSW,Ogunbil,2340,-31.34,151.28444
NSW,Old Adaminaby,2629,-36.03167,148.70111
NSW,Old Bar,2430,-31.965,152.58444
NSW,Old Bonalbo,2469,-28.64694,152.595
NSW,Old Erowal Bay,2540,-35.08833,150.65056
NSW,Old Grevillia,2474,-28.44694,152.88472
NSW,Old Guildford,2161,-33.86361,150.98444
NSW,Old Junee,2652,-34.83167,147.51778
NSW,Old Mill,2369,-29.89833,151.20111
NSW,Old Station,2440,-31.0525,152.91778
NSW,Old Toongabbie,2146,-33.78722,150.97611
NSW,Omadale,2337,-31.8775,151.30111
NSW,One Mile,2316,-32.765,152.115
NSW,One Tree,2711,-34.18167,144.70111
NSW,Oolong,2581,-34.79056,149.17889
NSW,Orama,2454,-30.43167,152.66778
NSW,Oran Park,2570,-34.015,150.73444
NSW,Orana Heights,2830,-32.24833,148.61778
NSW,Orange,2800,-33.28167,149.10111
NSW,Orange Grove,2380,-30.97333,150.39278
NSW,Orangeville,2570,-34.04,150.56778
NSW,Orchard Hills,2748,-33.78167,150.71778
NSW,Orient Point,2540,-34.91111,150.74417
NSW,Orton Park,2795,-33.465,149.56778
NSW,Osborne,2656,-33.615,149.25111
NSW,Osborne Park,2066,-33.82333,151.17611
NSW,Osterley,2324,-32.72333,151.70111
NSW,Oswald,2321,-32.69,151.41778
NSW,Otford,2508,-34.20778,151.00278
NSW,Oura,2650,-35.115,147.53444
NSW,Ourimbah,2258,-33.365,151.36778
NSW,Ournie,2640,-35.93167,147.85111
NSW,Owens Gap,2337,-32.03167,150.71778
NSW,Oxford Falls,2100,-33.74,151.24278
NSW,Oxley,2711,-34.18167,144.10111
NSW,Oxley Island,2430,-31.915,152.56778
NSW,Oxley Park,2760,-33.765,150.78444
NSW,Oxley Vale,2340,-31.04833,150.88444
NSW,Oyster Bay,2225,-34.015,151.06778
NSW,Oyster Cove,2318,-32.73167,151.95111
NSW,Pacific Palms,2428,-32.33167,152.51778
NSW,Paddington,2021,-33.89,151.23444
NSW,Paddys Flat,2632,-37.015,149.33444
NSW,Paddys River,2653,-34.64833,150.13444
NSW,Padstow,2211,-33.95667,151.02611
NSW,Padstow Heights,2211,-33.97333,151.03444
NSW,Pagans Flat,2469,-28.94528,152.57222
NSW,Pages Creek,2337,-31.73167,151.23444
NSW,Pages River,2338,-31.79222,150.76444
NSW,Pagewood,2035,-33.94,151.23444
NSW,Palarang,2632,-36.82611,149.10333
NSW,Palerang,2622,-35.42306,149.56833
NSW,Palinyewah,2648,-33.83167,142.01778
NSW,Pallamallawa,2399,-29.36972,150.16639
NSW,Palm Beach,2108,-33.59833,151.31778
NSW,Palm Grove,2258,-33.32333,151.30944
NSW,Palmdale,2258,-33.33167,151.36778
NSW,Palmers Channel,2463,-29.465,153.26778
NSW,Palmers Island,2463,-29.415,153.28444
NSW,Palmers Oaky,2795,-33.215,149.84278
NSW,Palmvale,2484,-28.37472,153.48722
NSW,Palmwoods,2482,-28.515,153.40111
NSW,Pambula,2549,-36.93167,149.88444
NSW,Pambula Beach,2549,-36.93167,149.90111
NSW,Pampoolah,2430,-31.93167,152.53444
NSW,Panania,2213,-33.94833,151.00111
NSW,Pangee,2825,-31.98139,146.80111
NSW,Pappinbarra,2446,-31.3775,152.50389
NSW,Paradise,2360,-29.88639,151.47
NSW,Paradise Beach,2107,-33.62333,151.31639
NSW,Parkes,2870,-33.13167,148.16778
NSW,Parkesbourne,2580,-34.74833,149.53444
NSW,Parklea,2768,-33.73167,150.92611
NSW,Parkville,2337,-31.98167,150.86778
NSW,Parma,2540,-34.965,150.53444
NSW,Parramatta,2150,-33.815,151.00111
NSW,Parraweena,2339,-31.73639,150.41917
NSW,Patchs Beach,2478,-28.94694,153.50944
NSW,Paterson,2421,-32.59833,151.61778
NSW,Patonga,2256,-33.54833,151.26778
NSW,Paupong,2628,-36.59833,148.68444
NSW,Paxton,2325,-32.89833,151.28444
NSW,Paynes Crossing,2325,-32.865,151.06778
NSW,Paynters Siding,2700,-34.68167,146.51778
NSW,Peacock Creek,2469,-28.67111,152.70667
NSW,Peak Hill,2869,-32.715,148.18444
NSW,Peak View,2630,-36.065,149.38444
NSW,Peakhurst,2210,-33.95667,151.05944
NSW,Peakhurst Heights,2210,-33.98167,151.05111
NSW,Pearces Creek,2477,-28.765,153.43444
NSW,Pearl Beach,2256,-33.54139,151.3075
NSW,Peats Ridge,2250,-33.33167,151.23444
NSW,Pebbly Beach,2536,-35.60028,150.33167
NSW,Peelwood,2583,-34.10667,149.43444
NSW,Pejar,2583,-34.515,149.53444
NSW,Pelaw Main,2327,-32.83167,151.48167
NSW,Pelican,2281,-33.08167,151.64278
NSW,Pelton,2325,-32.87028,151.30472
NSW,Pembrooke,2446,-31.38167,152.75111
NSW,Pemulwuy,2145,-33.81667,150.92556
NSW,Penarie,2715,-34.39833,143.60111
NSW,Pendle Hill,2145,-33.79833,150.95944
NSW,Pennant Hills,2120,-33.74,151.07333
NSW,Penrith,2751,-33.75111,150.69417
NSW,Penrose,2579,-34.52278,150.77111
NSW,Penshurst,2222,-33.965,151.09278
NSW,Perekerten,2733,-34.915,143.83444
NSW,Pericoe,2550,-37.09833,149.58444
NSW,Perrys Crossing,2775,-33.19833,150.96778
NSW,Petersham,2049,-33.89833,151.15944
NSW,Pheasant Ground,2577,-34.60667,150.66778
NSW,Pheasants Nest,2574,-34.24833,150.65111
NSW,Phegans Bay,2256,-33.48778,151.30944
NSW,Phillip Bay,2036,-33.98167,151.22611
NSW,Phoenix Park,2321,-32.62889,151.71361
NSW,Piallamore,2340,-31.15667,151.05111
NSW,Piallaway,2342,-31.14833,150.58444
NSW,Picketts Valley,2251,-33.45667,151.40944
NSW,Picnic Point,2213,-33.97333,151.00111
NSW,Picton,2571,-34.18167,150.60111
NSW,Piggabeen,2486,-28.19833,153.43444
NSW,Pikapene,2469,-29.05417,152.64361
NSW,Pillar Valley,2462,-29.765,153.11778
NSW,Pilliga,2388,-30.35667,148.90111
NSW,Pilot Wilderness,2627,-36.63167,148.23444
NSW,Pimlico,2478,-28.915,153.48444
NSW,Pimlico Island,2478,-28.915,153.50111
NSW,Pinbeyan,2720,-35.68611,148.40056
NSW,Pindaroi,2361,-29.46972,151.27583
NSW,Pindimar,2324,-32.665,152.10111
NSW,Pine Lodge,2714,-35.69833,145.45111
NSW,Pine Ridge,2343,-31.49833,150.45111
NSW,Pine Valley,2630,-36.23167,149.05111
NSW,Pinkett,2370,-29.865,151.93444
NSW,Piora,2470,-28.85472,152.88778
NSW,Pipeclay,2446,-31.43167,152.53444
NSW,Pitlochry,2422,-31.94833,152.00944
NSW,Pitnacree,2323,-32.72611,151.59556
NSW,Pitt Town,2756,-33.58167,150.86778
NSW,Pitt Town Bottoms,2756,-33.58167,150.83444
NSW,Pleasure Point,2172,-33.965,150.96778
NSW,Plumpton,2761,-33.75667,150.84278
NSW,Point Clare,2250,-33.44,151.32611
NSW,Point Frederick,2250,-33.43167,151.33444
NSW,Point Piper,2027,-33.865,151.25111
NSW,Point Wolstoncroft,2259,-33.12611,151.58167
NSW,Pointer Mountain,2539,-35.21333,150.35444
NSW,Pokolbin,2320,-32.79833,151.28444
NSW,Pola Creek,2440,-31.0525,152.88167
NSW,Polo Flat,2630,-36.215,149.13444
NSW,Pomeroy,2580,-34.615,149.50111
NSW,Pomona,2648,-34.015,141.88444
NSW,Port Botany,2036,-33.97611,151.21778
NSW,Port Hacking,2229,-34.065,151.11778
NSW,Port Kembla,2505,-34.47028,150.89306
NSW,Port Macquarie,2444,-31.43167,152.91778
NSW,Porters Creek,2538,-35.25583,150.33472
NSW,Porters Retreat,2787,-33.9775,149.77611
NSW,Portland,2847,-33.34833,149.98444
NSW,Possum Brush,2430,-32.065,152.43444
NSW,Possum Creek,2479,-28.67222,152.49472
NSW,Potato Point,2545,-36.09833,150.13444
NSW,Pottery Estate,2790,-33.48694,150.14972
NSW,Potts Hill,2143,-33.89,151.03028
NSW,Potts Point,2011,-33.865,151.21778
NSW,Pottsville,2489,-28.38694,153.56083
NSW,Prairiewood,2176,-33.84833,150.90111
NSW,Premer,2381,-31.465,149.90111
NSW,Prestons,2170,-33.94833,150.86778
NSW,Pretty Beach,2257,-33.5275,151.34694
NSW,Pretty Gully,2469,-28.78167,152.43444
NSW,Pretty Pine,2710,-35.415,144.88444
NSW,Primbee,2502,-34.50583,150.88361
NSW,Primrose Valley,2621,-35.48222,149.39361
NSW,Private Village of Bellambi,2520,-34.365,150.91778
NSW,Private Village of Corrimal,2520,-34.365,150.90111
NSW,Promised Land,2454,-30.365,152.88444
NSW,Prospect,2148,-33.79833,150.92611
NSW,Providence Portal,2629,-35.94833,148.63444
NSW,Prunevale,2587,-34.39833,148.33444
NSW,Pucawan,2666,-34.415,147.35111
NSW,Puddledock,2350,-30.39,151.74278
NSW,Pulganbar,2460,-29.44917,152.68056
NSW,Pulletop,2650,-35.43167,147.38444
NSW,Pumpenbil,2484,-28.38,153.15389
NSW,Punchbowl,2460,-33.92333,151.05944
NSW,Purfleet,2430,-31.94833,152.46778
NSW,Purlewaugh,2357,-31.34833,149.50111
NSW,Putney,2112,-33.83167,151.10111
NSW,Putty,2330,-32.965,150.66778
NSW,Pyes Creek,2372,-29.24833,151.83444
NSW,Pymble,2073,-33.74833,151.14278
NSW,Pyree,2540,-34.91667,150.69917
NSW,Pyrmont,2009,-33.865,151.18444
NSW,Quaama,2550,-36.465,149.86778
NSW,Quakers Hill,2763,-33.73444,150.87889
NSW,Quandary,2665,-34.38167,147.31778
NSW,Quandialla,2721,-34.01222,147.7875
NSW,Queanbeyan,2620,-35.35278,149.23
NSW,Queanbeyan East,2620,-35.34639,149.24389
NSW,Queanbeyan West,2620,-35.3575,149.20806
NSW,Queens Park,2022,-33.89833,151.23444
NSW,Queenscliff,2096,-33.78222,151.28472
NSW,Quialigo,2580,-34.94528,149.76444
NSW,Quidong,2632,-36.93778,149.0575
NSW,Quipolly,2343,-31.41806,150.69778
NSW,Quirindi,2343,-31.49833,150.68444
NSW,Quorrobolong,2325,-32.915,151.36778
NSW,Raby,2566,-34.02333,150.81778
NSW,Raglan,2795,-33.43167,149.65111
NSW,Rainbow Flat,2430,-32.015,152.47611
NSW,Rainbow Reach,2440,-30.93167,153.00944
NSW,Raleigh,2454,-30.465,153.01778
NSW,Ramornie,2460,-29.64833,152.80111
NSW,Ramsgate,2217,-33.98167,151.14278
NSW,Ramsgate Beach,2217,-33.98167,151.14833
NSW,Rand,2642,-35.59833,146.56778
NSW,Randwick,2031,-33.915,151.23444
NSW,Rangari,2380,-30.65667,150.41778
NSW,Rangers Valley,2370,-29.515,151.68444
NSW,Rankin Park,2287,-32.93167,151.66778
NSW,Rankins Springs,2669,-33.83167,146.25111
NSW,Rannock,2701,-34.64833,147.25111
NSW,Rathmines,2283,-33.04278,151.59556
NSW,Ravensdale,2259,-33.165,151.30111
NSW,Ravensworth,2330,-32.43167,151.05111
NSW,Rawdon Island,2446,-31.415,152.79278
NSW,Rawdon Vale,2422,-31.99833,151.70111
NSW,Raworth,2321,-32.72889,151.615
NSW,Raymond Terrace,2324,-32.765,151.73444
NSW,Razorback,2571,-34.14833,150.63444
NSW,Red Head,2430,-32.05944,152.54
NSW,Red Hill,2720,-33.18167,148.55111
NSW,Red Range,2370,-29.765,151.90111
NSW,Red Rock,2456,-29.98167,153.21778
NSW,Red Rocks,2577,-34.76972,150.52167
NSW,Redbank,2446,-33.78167,151.13444
NSW,Redbournberry,2330,-32.565,151.20111
NSW,Reddestone,2370,-29.63167,151.66778
NSW,Redfern,2016,-33.89833,151.20944
NSW,Redhead,2290,-33.00944,151.72333
NSW,Redlands,2646,-35.93167,146.31778
NSW,Reedy Creek,2330,-32.48167,151.33444
NSW,Reedy Swamp,2550,-36.68167,149.86778
NSW,Reefton,2666,-34.23167,147.43444
NSW,Regents Park,2143,-33.88167,151.02611
NSW,Regentville,2745,-33.765,150.66778
NSW,Reids Flat,2586,-34.13167,149.01778
NSW,Reidsdale,2622,-35.58167,149.85111
NSW,Reidtown,2519,-34.38167,150.88444
NSW,Reno,2722,-35.015,148.01778
NSW,Repentance Creek,2480,-28.63167,153.40111
NSW,Repton,2454,-30.43167,153.03444
NSW,Reserve Creek,2484,-28.35139,153.49028
NSW,Retreat,2713,-30.60667,151.10667
NSW,Revesby,2212,-33.95667,151.00944
NSW,Revesby Heights,2212,-33.965,151.01778
NSW,Rhine Falls,2630,-36.18167,148.93444
NSW,Rhodes,2138,-33.83167,151.08444
NSW,Richmond,2753,-33.59833,150.75111
NSW,Richmond Hill,2480,-28.78167,153.35111
NSW,Richmond Lowlands,2753,-33.565,150.75944
NSW,Ringwood,2646,-35.79833,146.15111
NSW,Riverside,2444,-31.39833,152.86778
NSW,Riverstone,2765,-33.68167,150.86778
NSW,Rivertree,2372,-28.63167,152.30111
NSW,Riverview,2066,-33.82306,151.16083
NSW,Riverwood,2210,-33.95667,151.05944
NSW,Rixs Creek,2330,-32.53167,151.13444
NSW,Rob Roy,2360,-29.7125,151.00389
NSW,Robertson,2577,-34.59,150.59278
NSW,Robin Hill,2795,-33.43167,149.53444
NSW,Rock Flat,2630,-36.34833,149.20111
NSW,Rock Valley,2480,-28.74833,153.16778
NSW,Rockdale,2216,-33.95667,151.14278
NSW,Rockton,2632,-37.13167,149.31778
NSW,Rocky Creek,2371,-30.04833,150.28444
NSW,Rocky Glen,2357,-31.115,149.56778
NSW,Rocky Hall,2550,-36.93167,149.50944
NSW,Rocky Plain,2628,-36.215,148.66778
NSW,Rocky Point,2259,-33.29694,151.46778
NSW,Rocky River,2358,-30.59667,151.46167
NSW,Rodd Point,2046,-33.865,151.13444
NSW,Rollands Plains,2441,-31.28167,152.68444
NSW,Rookhurst,2422,-31.89833,151.88444
NSW,Rookwood,2141,-33.86917,151.05528
NSW,Rooty Hill,2766,-33.77333,150.84278
NSW,Ropes Crossing,2760,-33.72917,150.77889
NSW,Rose Bay,2029,-33.87333,151.26778
NSW,Rose Valley,2630,-34.72333,150.80944
NSW,Rosebank,2480,-28.665,153.40111
NSW,Roseberg,2793,-33.85056,149.05556
NSW,Roseberry,2474,-28.48861,152.90889
NSW,Roseberry Creek,2474,-28.47389,152.83361
NSW,Rosebery,2018,-33.92333,151.20111
NSW,Rosebrook,2320,-32.64833,151.50111
NSW,Rosedale,2536,-35.815,150.21778
NSW,Rosehill,2142,-33.815,151.03444
NSW,Roselands,2196,-33.93167,151.06778
NSW,Rosemeadow,2560,-34.10667,150.79278
NSW,Rosemeath,2632,-36.94833,149.23444
NSW,Roseville,2069,-33.78167,151.16778
NSW,Roseville Chase,2069,-33.765,151.18444
NSW,Rosewood,2652,-35.665,147.85111
NSW,Roslyn,2580,-34.49833,149.60111
NSW,Rossglen,2439,-31.665,152.71778
NSW,Rossgole,2336,-32.14833,150.73444
NSW,Rossi,2621,-35.465,149.50111
NSW,Rossmore,2557,-33.94833,150.76778
NSW,Rothbury,2320,-32.74833,151.34278
NSW,Roto,2675,-33.04833,145.46778
NSW,Rouchel,2336,-32.15194,151.01333
NSW,Rouchel Brook,2336,-32.15917,151.08972
NSW,Roughit,2330,-32.58167,151.25111
NSW,Round Mountain,2484,-28.35472,153.54417
NSW,Rous,2477,-28.865,153.41778
NSW,Rous Mill,2477,-28.88167,153.38444
NSW,Rouse Hill,2155,-33.69,150.92611
NSW,Rowan,2650,-35.19833,147.33444
NSW,Rowena,2387,-29.815,148.90111
NSW,Rowlands Creek,2484,-28.46222,153.34306
NSW,Royalla,2620,-35.515,149.15111
NSW,Rozelle,2039,-33.84833,151.16778
NSW,Rufus River,2648,-34.04833,141.26778
NSW,Rugby,2583,-34.39833,148.98444
NSW,Rukenvale,2474,-28.46722,152.89556
NSW,Run-O-Waters,2580,-34.77028,149.665
NSW,Runnyford,2536,-35.69833,150.10111
NSW,Ruse,2560,-34.065,150.85111
NSW,Rushcutters Bay,2011,-33.87333,151.23444
NSW,Rushforth,2460,-29.74389,152.84611
NSW,Russell Lea,2046,-33.85667,151.14278
NSW,Russell Vale,2517,-34.355,150.89389
NSW,Russellvale,2520,-34.365,150.90111
NSW,Rutherford,2320,-32.715,151.53167
NSW,Ruthven,2480,-28.93167,153.28444
NSW,Ryan,2658,-35.59833,146.73444
NSW,Rydal,2790,-33.48167,150.03444
NSW,Rydalmere,2116,-33.815,151.03444
NSW,Ryde,2112,-33.815,151.10111
NSW,Rye Park,2586,-34.515,148.91778
NSW,Ryhope,2283,-32.98167,151.51778
NSW,Sackville,2756,-33.50111,150.87611
NSW,Sackville North,2756,-33.48167,150.88444
NSW,Saddleback Mountain,2533,-34.69917,150.80306
NSW,Sadleir,2168,-33.915,150.90111
NSW,Safety Beach,2456,-30.09278,153.195
NSW,Salamander Bay,2317,-32.72333,152.08444
NSW,Salisbury,2420,-32.17806,151.54528
NSW,Salisbury Plains,2358,-30.80361,151.60694
NSW,Salt Ash,2318,-32.78167,151.92611
NSW,Saltwater,2430,-31.99833,152.56778
NSW,San Isidore,2650,-35.13167,147.30111
NSW,San Remo,2262,-33.19833,151.51778
NSW,Sancrox,2446,-31.43167,152.80111
NSW,Sanctuary Point,2540,-35.10278,150.62722
NSW,Sandbar,2428,-32.37889,152.52417
NSW,Sandgate,2304,-32.84833,151.70111
NSW,Sandigo,2700,-34.93167,146.65111
NSW,Sandilands,2469,-28.89611,152.66333
NSW,Sandon,2463,-29.68167,153.33444
NSW,Sandringham,2219,-33.99833,151.13444
NSW,Sandy Beach,2456,-30.14833,153.20111
NSW,Sandy Creek,2338,-31.82306,150.98
NSW,Sandy Crossing,2460,-29.165,153.17611
NSW,Sandy Flat,2372,-34.465,150.13444
NSW,Sandy Gully,2729,-35.29528,148.04194
NSW,Sandy Hill,2372,-28.915,152.23444
NSW,Sandy Hollow,2333,-32.33167,150.56778
NSW,Sans Souci,2219,-33.99833,151.13444
NSW,Sapphire,2360,-29.68333,151.33333
NSW,Sapphire Beach,2450,-30.23333,153.15
NSW,Saratoga,2251,-33.47639,151.34722
NSW,Sassafras,2622,-35.08333,150.25
NSW,Saumarez,2350,-30.55611,151.5825
NSW,Saumarez Ponds,2350,-30.50083,151.56417
NSW,Savernake,2646,-35.73333,146.05
NSW,Sawpit Creek,2627,-28.37194,152.82528
NSW,Sawtell,2452,-30.36667,153.1
NSW,Sawyers Gully,2326,-32.76667,151.43333
NSW,Scarborough,2515,-34.26917,150.95861
NSW,Scheyville,2756,-33.60833,150.88333
NSW,Schofields,2762,-33.7,150.88333
NSW,Scone,2337,-32.05,150.86667
NSW,Scotchman,2454,-30.46667,152.83333
NSW,Scotland Island,2105,-33.63333,151.28333
NSW,Scotts Creek,2338,-31.74222,150.96
NSW,Scotts Flat,2330,-32.60833,151.24167
NSW,Scotts Head,2447,-30.70583,152.9875
NSW,Seaforth,2092,-33.78333,151.23333
NSW,Seaham,2324,-32.66667,151.71667
NSW,Seahampton,2286,-32.925,151.58333
NSW,Seal Rocks,2423,-32.42194,152.50639
NSW,Sebastopol,2666,-34.58333,147.56667
NSW,Sedgefield,2330,-32.54167,151.25
NSW,Seelands,2460,-29.61667,152.91667
NSW,Sefton,2162,-33.89167,151.00833
NSW,Segenhoe,2337,-32.075,150.94167
NSW,Seven Hills,2147,-33.77778,150.94167
NSW,Seven Oaks,2440,-30.99722,152.93333
NSW,Sextonville,2470,-28.67417,152.79611
NSW,Shalvey,2770,-33.71778,150.80111
NSW,Shanes Park,2747,-33.69833,150.76778
NSW,Shannon Brook,2470,-28.915,152.95111
NSW,Shannon Vale,2370,-29.69833,151.86778
NSW,Shannondale,2460,-29.80111,152.82611
NSW,Shannons Flat,2630,-35.93167,148.95111
NSW,Shark Creek,2463,-29.54833,153.20111
NSW,Sharps Creek,2729,-35.38167,148.03583
NSW,Sheedys Gully,2790,-33.49639,150.15222
NSW,Shell Cove,2529,-34.5975,150.86333
NSW,Shellharbour,2529,-34.58167,150.86778
NSW,Shellharbour City Centre,2529,-34.565,150.83722
NSW,Shelly Beach,2261,-33.365,151.50111
NSW,Sherwood,2474,-31.08167,152.71778
NSW,Shoal Bay,2315,-32.72333,152.16778
NSW,Shoalhaven Heads,2535,-34.85,150.74167
NSW,Shooters Hill,2787,-33.89833,149.86778
NSW,Shortland,2307,-32.88167,151.68444
NSW,Silent Grove,2372,-29.14833,151.66778
NSW,Silverdale,2752,-33.915,150.60944
NSW,Silverwater,2264,-33.84,151.05111
NSW,Simpkins Creek,2469,-28.83833,152.77556
NSW,Singleton,2330,-32.565,151.16778
NSW,Singleton Heights,2330,-32.54833,151.15944
NSW,Six Mile Swamp,2469,-29.18722,152.87278
NSW,Skennars Head,2478,-28.83167,153.58861
NSW,Skillion Flat,2440,-31.03167,152.71778
NSW,Skinners Shoot,2481,-28.665,153.58444
NSW,Sleepy Hollow,2483,-28.4175,153.51972
NSW,Smeaton Grange,2567,-34.03167,150.73444
NSW,Smithfield,2164,-33.85667,150.91778
NSW,Smiths Creek,2484,-28.56194,152.85611
NSW,Smiths Lake,2428,-32.37472,152.50361
NSW,Smithtown,2440,-31.015,152.93444
NSW,Snowball,2622,-35.93167,149.58444
NSW,Sodwalls,2790,-33.49833,149.98444
NSW,Soldiers Point,2317,-32.70667,152.06778
NSW,Somersby,2250,-33.365,151.28444
NSW,Somerton,2340,-30.93167,150.63444
NSW,South Albury,2640,-36.08167,146.90111
NSW,South Arm,2460,-29.54833,153.15111
NSW,South Ballina,2478,-28.88444,153.55389
NSW,South Bathurst,2795,-33.44,149.57611
NSW,South Bowenfels,2790,-33.515,150.11778
NSW,South Broken Hill,2880,-31.98167,141.46778
NSW,South Coogee,2034,-33.93444,151.25111
NSW,South Dubbo,2830,-32.265,148.60111
NSW,South Durras,2536,-35.66222,150.29222
NSW,South Golden Beach,2483,-28.48167,153.53444
NSW,South Grafton,2460,-29.715,152.93444
NSW,South Granville,2150,-33.865,151.00111
NSW,South Gundagai,2722,-35.08167,148.10111
NSW,South Gundurimba,2480,-28.88167,153.25111
NSW,South Guyra,2365,-30.23167,151.66778
NSW,South Hurstville,2221,-33.9775,151.10389
NSW,South Kempsey,2440,-31.08167,152.83444
NSW,South Lismore,2480,-28.815,153.25111
NSW,South Littleton,2790,-33.49889,150.13472
NSW,South Maitland,2320,-32.74833,151.56222
NSW,South Maroota,2756,-33.51278,150.95222
NSW,South Nowra,2541,-34.91028,150.59639
NSW,South Pambula,2549,-36.95667,149.86778
NSW,South Penrith,2750,-33.7725,150.69806
NSW,South Tacoma,2259,-33.28167,151.45111
NSW,South Tamworth,2340,-31.10944,150.91472
NSW,South Turramurra,2074,-33.74833,151.10111
NSW,South Wentworthville,2145,-33.82333,150.96778
NSW,South West Rocks,2431,-30.865,153.08444
NSW,South Windsor,2756,-33.615,150.78444
NSW,South Wolumla,2550,-36.815,149.75111
NSW,Southampton,2460,-29.71306,152.89583
NSW,Southgate,2460,-29.62333,153.00944
NSW,Speers Point,2284,-32.965,151.61778
NSW,Spencer,2775,-33.45667,151.14278
NSW,Spicketts Creek,2455,-30.53389,152.87833
NSW,Splitters Creek,2640,-36.04833,146.83444
NSW,Spring Creek,2800,-33.34444,149.09833
NSW,Spring Farm,2570,-34.065,150.71778
NSW,Spring Grove,2470,-28.83167,153.18444
NSW,Spring Hill,2800,-34.45056,150.86778
NSW,Spring Mountain,2360,-29.815,151.51778
NSW,Spring Plains,2388,-29.915,149.30111
NSW,Spring Ridge,2343,-32.27333,149.35111
NSW,Springdale,2666,-34.465,147.71778
NSW,Springdale Heights,2641,-36.03167,146.95111
NSW,Springfield,2630,-33.42333,151.36778
NSW,Springside,2800,-33.3625,149.05889
NSW,Springvale,2650,-35.17333,147.34278
NSW,Springwood,2777,-33.69667,150.56833
NSW,St Albans,2775,-33.29,150.97611
NSW,St Andrews,2566,-34.02333,150.83444
NSW,St Clair,2759,-33.78167,150.76778
NSW,St George,2622,-35.05472,150.21944
NSW,St Georges Basin,2540,-35.13,150.62667
NSW,St Helena,2479,-33.75667,150.56778
NSW,St Helens Park,2560,-34.10667,150.80944
NSW,St Huberts Island,2257,-33.49833,151.35111
NSW,St Ives,2075,-33.73167,151.15944
NSW,St Ives Chase,2075,-33.73167,151.16778
NSW,St Johns Park,2176,-33.88167,150.90111
NSW,St Leonards,2065,-33.82444,151.19444
NSW,St Marys,2760,-33.765,150.76778
NSW,St Pauls,2031,-34.69833,144.15111
NSW,St Peters,2044,-33.915,151.17611
NSW,Stanborough,2360,-29.94833,151.11778
NSW,Stanbridge,2705,-34.515,146.23444
NSW,Stanford Merthyr,2327,-32.82333,151.49556
NSW,Stanhope,2335,-32.59833,151.38444
NSW,Stanhope Gardens,2768,-33.71028,150.92583
NSW,Stanmore,2048,-33.89833,151.15944
NSW,Stannifer,2369,-29.865,151.21778
NSW,Stannum,2371,-29.315,151.80111
NSW,Stanwell Park,2508,-34.2275,150.985
NSW,Stanwell Tops,2508,-34.21972,150.99167
NSW,State Mine Gully,2790,-33.45333,150.20861
NSW,Steam Plains,2710,-35.065,145.36778
NSW,Steeple Flat,2631,-36.54833,149.38444
NSW,Steinbrook,2372,-29.08167,152.10111
NSW,Stewarts Brook,2337,-31.99833,151.31778
NSW,Stewarts Mount,2795,-33.40667,149.51778
NSW,Stewarts River,2443,-31.73167,152.65111
NSW,Stockinbingal,2725,-34.49833,147.88444
NSW,Stockrington,2322,-32.84833,151.60111
NSW,Stockton,2295,-32.915,151.78444
NSW,Stockyard Creek,2460,-29.515,152.80111
NSW,Stokers Siding,2484,-28.40833,153.41417
NSW,Stonehenge,2370,-29.79833,151.73444
NSW,Stony Chute,2480,-28.58167,153.16778
NSW,Stony Creek,2550,-36.615,149.83444
NSW,Stony Crossing,2734,-29.20667,153.10111
NSW,Stotts Creek,2487,-28.28194,153.50889
NSW,Stratford,2422,-32.115,151.93444
NSW,Strathcedar,2429,-31.765,152.36778
NSW,Stratheden,2470,-28.765,152.93444
NSW,Strathfield,2135,-33.87333,151.09278
NSW,Strathfield South,2136,-33.89,151.08444
NSW,Stroud,2425,-32.37611,151.99472
NSW,Stroud Road,2415,-32.32,151.94056
NSW,Stuarts Point,2441,-30.815,152.98444
NSW,Stud Park,2710,-35.38194,144.95583
NSW,Suffolk Park,2481,-28.69833,153.61778
NSW,Summer Hill,2287,-33.89833,151.14278
NSW,Summer Island,2440,-30.98167,152.96778
NSW,Summerland Point,2259,-33.13167,151.56778
NSW,Sun Valley,2777,-33.7075,150.59583
NSW,Sunny Corner,2454,-33.54,151.15944
NSW,Sunnyside,2372,-33.865,151.11778
NSW,Sunshine,2264,-33.115,151.56778
NSW,Sunshine Bay,2536,-35.745,150.20778
NSW,Surf Beach,2536,-35.765,150.21778
NSW,Surfside,2536,-35.69833,150.18444
NSW,Surry Hills,2010,-33.89,151.21778
NSW,Sussex Inlet,2540,-35.125,150.54361
NSW,Sutherland,2232,-34.03167,151.05111
NSW,Sutton,2620,-35.14833,149.21778
NSW,Sutton Forest,2577,-34.615,150.25111
NSW,Swan Bay,2471,-32.69833,151.96778
NSW,Swan Creek,2462,-29.68167,152.96778
NSW,Swan Vale,2370,-29.765,151.45111
NSW,Swanbrook,2360,-29.71056,151.23639
NSW,Swanhaven,2540,-35.165,150.56778
NSW,Swans Crossing,2439,-31.59833,152.58444
NSW,Swansea,2281,-33.08444,151.63444
NSW,Swansea Heads,2281,-33.09278,151.66222
NSW,Sweetmans Creek,2325,-32.88167,151.18444
NSW,Sydenham,2044,-33.915,151.16778
NSW,Sydney,2001,-33.87306,151.20944
NSW,Sydney Markets,2129,0,0
NSW,Sylvania,2224,-34.015,151.10111
NSW,Sylvania Waters,2224,-34.015,151.11778
NSW,Tabbimoble,2472,-29.19833,153.26778
NSW,Tabbita,2652,-34.115,145.85111
NSW,Table Top,2640,-35.965,147.00111
NSW,Tabulam,2469,-28.85389,152.51639
NSW,Tacoma,2259,-33.29833,151.46778
NSW,Tacoma South,2259,-33.29556,151.4525
NSW,Tahlee,2324,-32.66056,152.00194
NSW,Tahmoor,2573,-34.22333,150.59278
NSW,Talarm,2447,-30.70139,152.85
NSW,Talbingo,2720,-35.58167,148.30111
NSW,Tallaganda,2581,-35.665,149.68444
NSW,Tallimba,2669,-33.98167,146.55111
NSW,Tallong,2579,-34.715,150.08444
NSW,Tallowwood Ridge,2453,-30.24833,152.73444
NSW,Tallwoods Village,2430,-32.05556,152.50944
NSW,Talmalmo,2640,-35.93167,147.50111
NSW,Talofa,2481,-28.665,153.55111
NSW,Taloumbi,2463,-29.465,153.21778
NSW,Tamarama,2026,-33.89833,151.26778
NSW,Tamban,2441,-30.8825,152.82583
NSW,Tambar Springs,2381,-31.34833,149.83444
NSW,Taminda,2340,-31.08167,150.90528
NSW,Tamworth,2340,-31.09056,150.93167
NSW,Tanglewood,2488,-28.33639,153.53528
NSW,Tangmangaroo,2582,-34.64833,148.78444
NSW,Tanilba Bay,2319,-32.715,151.98444
NSW,Tanja,2550,-36.63167,149.96778
NSW,Tantangara,2629,-35.865,148.63444
NSW,Tantawangalo,2550,-36.765,149.61778
NSW,Tantonan,2731,-35.70667,144.55111
NSW,Tapitallee,2540,-34.815,150.51778
NSW,Tara,2665,-34.48167,147.18444
NSW,Taradale,2653,-35.62611,147.93444
NSW,Tarago,2580,-35.08167,149.65111
NSW,Taralga,2580,-34.39833,149.81778
NSW,Tarana,2787,-33.515,149.90111
NSW,Tarbuck Bay,2428,-32.36361,152.47917
NSW,Tarcutta,2652,-35.265,147.73444
NSW,Taree,2430,-31.915,152.45111
NSW,Taree South,2430,-31.93167,152.45111
NSW,Taren Point,2229,-34.01778,151.13444
NSW,Tarkeeth,2455,-30.515,152.95111
NSW,Tarlo,2580,-34.59833,149.80111
NSW,Tarrabandra,2722,-35.115,148.18444
NSW,Tarraganda,2550,-36.665,149.85111
NSW,Tarrawanna,2518,-34.37556,150.87972
NSW,Tarriaro,2390,-30.38167,149.93444
NSW,Tarro,2322,-32.80667,151.66778
NSW,Tascott,2250,-33.45389,151.31361
NSW,Tatham,2471,-28.93167,153.16778
NSW,Tathra,2550,-36.73167,149.98444
NSW,Tatton,2650,-35.15667,147.36778
NSW,Taylor Square,2010,-33.88167,151.21778
NSW,Taylors Arm,2447,-30.76528,152.72833
NSW,Taylors Beach,2316,-32.73167,152.05944
NSW,Taylors Flat,2586,-34.27333,149.01778
NSW,Taylors Point,2107,-33.63167,151.30111
NSW,Tea Gardens,2324,-32.66694,152.15944
NSW,Telarah,2320,-32.72333,151.53167
NSW,Telegraph Point,2441,-31.315,152.80111
NSW,Telopea,2117,-33.79833,151.03444
NSW,Temagog,2440,-30.98167,152.65111
NSW,Temora,2666,-34.44833,147.53444
NSW,Tempe,2044,-33.92333,151.15944
NSW,Ten Mile Hollow,2250,-33.32056,151.08444
NSW,Tenambit,2323,-32.74278,151.60667
NSW,Tennyson,2754,-33.53167,150.73444
NSW,Tennyson Point,2111,-33.83139,151.11694
NSW,Tenterden,2365,-30.13167,151.43444
NSW,Tenterfield,2372,-29.04833,152.01778
NSW,Teralba,2284,-32.965,151.60111
NSW,Terania Creek,2480,-28.615,153.30111
NSW,Terara,2540,-34.86167,150.62889
NSW,Termeil,2539,-35.47583,150.35639
NSW,Terrace Creek,2474,-28.4125,152.84417
NSW,Terragon,2484,-28.44139,153.29139
NSW,Terranora,2486,-28.24556,153.5025
NSW,Terreel,2422,-32.19972,152.04111
NSW,Terrey Hills,2084,-33.68167,151.21778
NSW,Terrigal,2260,-33.44833,151.44278
NSW,Terry Hie Hie,2400,-30.815,150.15111
NSW,Teven,2478,-28.815,153.48444
NSW,Tewinga,2449,-30.64333,152.90333
NSW,Thalaba,2583,-34.28167,149.52611
NSW,Thalgarrah,2350,-30.405,151.89778
NSW,Tharbogang,2680,-34.24833,145.98444
NSW,The Angle,2620,-35.60972,149.10611
NSW,The Basin,2365,-35.04833,148.03444
NSW,The Bight,2429,-31.88167,152.38444
NSW,The Branch,2425,-32.55194,152.0375
NSW,The Brothers,2630,-36.33444,149.12056
NSW,The Channon,2480,-28.665,153.28444
NSW,The Entrance,2261,-33.34833,151.50111
NSW,The Entrance North,2261,-33.33167,151.50111
NSW,The Freshwater,2466,-29.37056,153.32611
NSW,The Gap,2650,-34.99833,147.26778
NSW,The Glen,2476,-32.17333,152.01778
NSW,The Gulf,2371,-29.2825,151.44139
NSW,The Hatch,2444,-31.365,152.85111
NSW,The Hill,2300,-32.93167,151.77611
NSW,The Island,2650,-35.10667,147.38028
NSW,The Junction,2291,-32.93167,151.75111
NSW,The Meadows,2787,-33.63167,149.93444
NSW,The Oaks,2570,-34.08167,150.56778
NSW,The Pilliga,2388,-30.89833,149.66778
NSW,The Pinnacles,2460,-36.98167,149.93444
NSW,The Pocket,2483,-28.49833,153.48444
NSW,The Risk,2474,-28.47389,152.93278
NSW,The Rock,2655,-35.265,147.11778
NSW,The Rocks,2000,-33.84833,151.20111
NSW,The Sandon,2463,-29.65667,153.30111
NSW,The Scrub,2372,-29.115,152.06778
NSW,The Slopes,2754,-33.53167,150.71778
NSW,The Whiteman,2460,-29.60667,152.88444
NSW,Theresa Creek,2469,-28.79056,152.79917
NSW,Theresa Park,2570,-34.00667,150.63444
NSW,Third Creek,2583,-34.515,149.51778
NSW,Thirlmere,2572,-34.19833,150.56778
NSW,Thirloene,2347,-30.34,150.90833
NSW,Thirroul,2515,-34.31444,150.91444
NSW,Thora,2454,-30.42861,152.78028
NSW,Thornleigh,2120,-33.72889,151.07611
NSW,Thornton,2322,-32.78167,151.64278
NSW,Thredbo,2625,-31.515,148.38444
NSW,Thrumster,2444,-31.465,152.83444
NSW,Thuddungra,2594,-34.14833,148.11778
NSW,Thule,2732,-35.665,144.35111
NSW,Thumb Creek,2447,-30.65861,152.58111
NSW,Thurgoona,2640,-36.03167,147.00111
NSW,Tianjara,2622,-35.13583,150.30333
NSW,Tibbuc,2422,-31.815,151.91778
NSW,Tighes Hill,2297,-32.89833,151.75111
NSW,Tikitere,2400,-29.03167,150.31778
NSW,Tilba Tilba,2546,-36.33167,150.06778
NSW,Tilbuster,2350,-30.465,151.68444
NSW,Tillegra,2420,-32.34833,151.70111
NSW,Timbillica,2551,-37.365,149.70111
NSW,Timbumburi,2340,-31.215,150.91778
NSW,Timor,2338,-31.74833,151.08444
NSW,Tinderry,2620,-35.69833,149.31778
NSW,Tingha,2369,-29.94833,151.20111
NSW,Tingira Heights,2290,-32.99556,151.65944
NSW,Tinonee,2430,-31.94833,152.41778
NSW,Tinpot,2546,-36.215,149.88444
NSW,Tintenbar,2478,-28.79833,153.51778
NSW,Tintinhull,2352,-31.09833,151.01778
NSW,Tiona,2428,-32.29944,152.52111
NSW,Tipperary,2429,-32.05944,152.16778
NSW,Tiri,2424,-31.84833,152.08444
NSW,Tirrannaville,2580,-34.83167,149.68444
NSW,Titaatee Creek,2422,-32.03167,152.11778
NSW,Tocal,2421,-32.64,151.59278
NSW,Tocumwal,2714,-35.815,145.56778
NSW,Tolland,2650,-35.14833,147.35111
NSW,Tomago,2322,-32.815,151.70111
NSW,Tomakin,2537,-35.83167,150.18444
NSW,Tomalla,2337,-31.80667,151.46778
NSW,Tombong,2633,-36.89833,148.91778
NSW,Tomboye,2622,-35.24833,149.96778
NSW,Tomerong,2540,-35.04944,150.56667
NSW,Tomewin,2484,-28.25417,153.375
NSW,Toms Creek,2446,-31.54833,152.40111
NSW,Tongarra,2527,-34.58167,150.70111
NSW,Tooleybuc,2736,-35.03611,143.405
NSW,Toolijooa,2534,-34.765,150.78444
NSW,Tooloom,2475,-28.59111,152.45833
NSW,Tooma,2642,-35.965,148.05111
NSW,Toongabbie,2146,-33.78722,150.95111
NSW,Toonumbar,2474,-28.53889,152.77139
NSW,Toormina,2452,-30.34833,153.08444
NSW,Toorooka,2440,-30.915,152.58444
NSW,Toothdale,2550,-36.78167,149.75111
NSW,Tootool,2655,-35.24833,147.00111
NSW,Toowoon Bay,2261,-33.35667,151.49278
NSW,Tooyal,2701,-34.99833,147.25111
NSW,Topi Topi,2423,-32.35472,152.33944
NSW,Toronto,2283,-33.01222,151.59833
NSW,Torrington,2371,-29.315,151.70111
NSW,Torryburn,2421,-32.465,151.60111
NSW,Tottenham,2873,-32.24833,147.35111
NSW,Toukley,2263,-33.26333,151.53139
NSW,Towallum,2460,-30.03167,152.86778
NSW,Towamba,2550,-37.08167,149.68444
NSW,Townsend,2463,-29.465,153.21778
NSW,Towradgi,2518,-34.385,150.90528
NSW,Towrang,2580,-34.69833,149.85111
NSW,Tralee,2620,-35.43028,149.16694
NSW,Tregeagle,2480,-28.84833,153.35111
NSW,Tregear,2770,-33.74833,150.79556
NSW,Trenayr,2460,-29.615,152.96778
NSW,Trentham Cliffs,2738,-34.215,142.25111
NSW,Trundle,2875,-32.93167,147.70111
NSW,Trungley Hall,2666,-34.29833,147.56778
NSW,Tubbamurra,2365,-30.115,151.76778
NSW,Tubbul,2594,-34.265,148.00111
NSW,Tucabia,2462,-29.665,153.10944
NSW,Tucki Tucki,2480,-28.915,153.31778
NSW,Tuckombil,2477,-28.815,153.46778
NSW,Tuckurimba,2480,-28.94833,153.31778
NSW,Tueloga,2734,-35.115,143.60111
NSW,Tuena,2583,-34.02333,149.32611
NSW,Tuggerah,2259,-33.29833,151.43444
NSW,Tuggerawong,2259,-33.28167,151.48444
NSW,Tugrabakh,2422,-31.965,151.98444
NSW,Tullakool,2732,-35.37306,144.16556
NSW,Tullamore,2874,-32.63167,147.56778
NSW,Tullarwalla,2540,-35.10389,150.52306
NSW,Tullera,2480,-28.765,153.30111
NSW,Tullimbar,2527,-34.57611,150.73444
NSW,Tulloona,2400,-28.88278,150.08417
NSW,Tullymorgan,2463,-29.37333,153.11778
NSW,Tumbarumba,2653,-35.765,148.00111
NSW,Tumbi Umbi,2261,-33.365,151.44278
NSW,Tumblong,2729,-35.14833,148.01778
NSW,Tumbulgum,2490,-28.28167,153.47611
NSW,Tumorrama,2720,-35.165,148.43444
NSW,Tumut,2720,-35.30389,148.22333
NSW,Tumut Plains,2720,-35.33167,148.26778
NSW,Tuncester,2480,-28.79833,153.21778
NSW,Tuncurry,2428,-32.17472,152.49861
NSW,Tunglebung,2469,-28.82028,152.68028
NSW,Tungsten,2371,-29.265,151.66778
NSW,Tuntable Creek,2480,-28.63167,153.26778
NSW,Tuppal,2714,-35.68167,145.25111
NSW,Tura Beach,2548,-36.84833,149.92611
NSW,Turlinjah,2537,-36.03167,150.08444
NSW,Turners Flat,2440,-31.015,152.70111
NSW,Tuross,2630,-36.29833,149.50944
NSW,Tuross Head,2537,-36.065,150.13444
NSW,Turramurra,2074,-33.73167,151.13444
NSW,Turrawan,2390,-30.465,149.93444
NSW,Turrella,2205,-33.93167,151.14278
NSW,Turvey Park,2650,-35.13167,147.36778
NSW,Tweed Heads,2485,-28.17889,153.53444
NSW,Tweed Heads South,2486,-28.19833,153.53472
NSW,Tweed Heads West,2485,-28.18361,153.50583
NSW,Twelve Mile Creek,2324,-32.64,151.86778
NSW,Tyagarah,2481,-28.59833,153.55111
NSW,Tyalgum,2484,-28.365,153.21778
NSW,Tyalgum Creek,2484,-28.33972,153.16528
NSW,Tygalgah,2484,-28.29806,153.42639
NSW,Tyndale,2460,-29.53167,153.18444
NSW,Tyringham,2453,-30.215,152.53444
NSW,Uarbry,2329,-32.04833,149.76778
NSW,Uki,2484,-28.41528,153.33056
NSW,Ulamambri,2357,-31.33167,149.38444
NSW,Ulladulla,2539,-35.3575,150.46083
NSW,Ulmarra,2462,-29.63167,153.03444
NSW,Ulong,2450,-30.23167,152.88444
NSW,Ultimo,2007,-33.88167,151.20111
NSW,Umina,2250,-33.52333,151.31778
NSW,Umina Beach,2257,-33.51778,151.30944
NSW,Unanderra,2526,-34.45694,150.84417
NSW,Underbank,2420,-32.28306,151.61111
NSW,Undercliffe,2206,-33.93167,151.14278
NSW,Ungarie,2669,-33.63167,146.96778
NSW,Unumgar,2474,-28.40944,152.74278
NSW,Upper Bingara,2404,-30.065,150.63444
NSW,Upper Burringbar,2483,-28.45083,153.42306
NSW,Upper Colo,2756,-33.415,150.71778
NSW,Upper Coopers Creek,2482,-28.59833,153.40111
NSW,Upper Copmanhurst,2460,-29.565,152.73444
NSW,Upper Corindi,2456,-30.04833,153.13444
NSW,Upper Crystal Creek,2484,-28.26944,153.30639
NSW,Upper Dartbrook,2336,-31.92333,150.72611
NSW,Upper Duck Creek,2469,-28.52611,152.69722
NSW,Upper Duroby,2486,-28.25167,153.43639
NSW,Upper Eden Creek,2474,-28.53167,152.88444
NSW,Upper Fine Flower,2460,-29.265,152.73444
NSW,Upper Horseshoe Creek,2474,-28.53167,153.06778
NSW,Upper Horton,2347,-30.14833,150.45111
NSW,Upper Kangaroo River,2577,-34.70917,150.58083
NSW,Upper Kangaroo Valley,2577,-34.68167,150.60111
NSW,Upper Lansdowne,2430,-31.69833,152.46778
NSW,Upper Macdonald,2775,-33.265,150.95111
NSW,Upper Main Arm,2482,-28.49833,153.41778
NSW,Upper Mangrove,2250,-33.30667,151.12611
NSW,Upper Manilla,2346,-30.63167,150.66778
NSW,Upper Mongogarie,2470,-28.98167,152.85111
NSW,Upper Myall,2423,-32.2525,152.16306
NSW,Upper Orara,2450,-30.28111,152.99444
NSW,Upper Pappinbarra,2446,-31.28167,152.43444
NSW,Upper Rollands Plains,2441,-31.23167,152.61778
NSW,Upper Rouchel,2336,-32.115,151.08444
NSW,Upper Taylors Arm,2447,-30.77583,152.67778
NSW,Upper Thora,2454,-30.43167,152.71778
NSW,Upper Turon,2795,-33.115,149.77611
NSW,Upper Wilsons Creek,2482,-28.5275,153.39278
NSW,Upper Yarrowitch,2354,-31.315,151.91778
NSW,Upsalls Creek,2439,-31.63167,152.66778
NSW,Uralba,2477,-28.865,153.46778
NSW,Uralla,2358,-30.64833,151.50111
NSW,Urana,2645,-35.33167,146.26778
NSW,Urangeline,2656,-35.365,146.51778
NSW,Uranquinty,2652,-35.19833,147.25111
NSW,Urbenville,2475,-28.48167,152.55111
NSW,Uriarra,2611,-35.2425,148.81833
NSW,Urila,2620,-35.56222,149.28667
NSW,Urliup,2484,-28.2525,153.40611
NSW,Uroly,2700,-34.69833,146.33444
NSW,Urunga,2455,-30.49833,153.01778
NSW,Utungun,2447,-30.7425,152.8275
NSW,Vacy,2421,-32.53139,151.56889
NSW,Vale of Clwydd,2790,-33.48222,150.17694
NSW,Valentine,2280,-33.015,151.63444
NSW,Valery,2454,-30.40528,152.95139
NSW,Valla,2448,-30.58833,152.95611
NSW,Valla Beach,2448,-30.59,153.0075
NSW,Valley Heights,2777,-33.70889,150.58472
NSW,Varroville,2566,-34.00667,150.81778
NSW,Vaucluse,2030,-33.85667,151.26778
NSW,Verges Creek,2440,-31.08167,152.89278
NSW,Verona,2550,-36.465,149.80111
NSW,Villawood,2163,-33.88167,150.97611
NSW,Vincentia,2540,-35.07583,150.67417
NSW,Vinegar Hill,2148,-33.7025,150.91861
NSW,Vineyard,2765,-33.64833,150.86778
NSW,Voyager Point,2172,-33.94833,150.96778
NSW,Wadalba,2259,-33.27333,151.46778
NSW,Wadbilliga,2546,-36.25528,149.65111
NSW,Wadeville,2474,-28.56056,153.13528
NSW,Wagga Wagga,2650,-35.115,147.36778
NSW,Wagragobilly,2722,-35.09833,148.21778
NSW,Wagstaffe,2257,-33.52417,151.34278
NSW,Wahroonga,2076,-33.70667,151.11778
NSW,Waitara,2077,-33.70667,151.10111
NSW,Waitui,2443,-31.69833,152.55111
NSW,Wakefield,2278,-32.94833,151.55111
NSW,Wakeley,2176,-33.865,150.90111
NSW,Wakool,2710,-35.46222,144.35917
NSW,Walbundrie,2642,-35.69833,146.71778
NSW,Walcha,2354,-30.98167,151.58444
NSW,Walla Walla,2659,-35.765,146.90111
NSW,Wallabadah,2343,-33.04833,151.01778
NSW,Wallabi Point,2430,-31.98167,152.56778
NSW,Wallaby Creek,2475,-28.515,152.45111
NSW,Wallacetown,2650,-34.975,147.47528
NSW,Wallacia,2745,-33.865,150.63444
NSW,Wallaga Lake,2546,-36.37028,150.06694
NSW,Wallagoot,2550,-36.755,149.95944
NSW,Wallalong,2320,-32.69833,151.65111
NSW,Wallamore,2340,-31.04,150.81778
NSW,Wallanbah,2422,-32.08167,152.10111
NSW,Wallangra,2360,-29.23167,150.88444
NSW,Wallanthery,2675,-33.34833,145.83444
NSW,Wallarah,2259,-33.22278,151.465
NSW,Wallarobba,2420,-32.50444,151.70056
NSW,Wallaroo,2618,-35.13472,149.01111
NSW,Wallendbeen,2588,-34.53167,148.16778
NSW,Wallerawang,2845,-33.40667,150.06778
NSW,Walleroobie,2665,-34.49,147.01778
NSW,Wallingat,2423,-32.27667,152.42222
NSW,Wallsend,2287,-32.89833,151.66778
NSW,Wamban,2537,-35.97556,149.99361
NSW,Wamberal,2260,-33.43167,151.44278
NSW,Wamboin,2620,-35.25667,149.28444
NSW,Wambrook,2630,-36.20667,148.95111
NSW,Wandandian,2540,-35.08167,150.50333
NSW,Wandella,2550,-36.315,149.85111
NSW,Wandera,2360,-29.07056,151.13444
NSW,Wandook,2710,-35.44833,144.96778
NSW,Wandsworth,2365,-30.065,151.51778
NSW,Wang Wauk,2423,-32.165,152.31778
NSW,Wanganella,2710,-35.19833,144.80111
NSW,Wanganui,2482,-28.54833,153.36778
NSW,Wangi Wangi,2267,-33.065,151.56778
NSW,Wantabadgery,2650,-35.02444,147.72361
NSW,Wantagong,2644,-35.79694,147.49306
NSW,Wantiool,2663,-34.89833,147.70111
NSW,Wapengo,2550,-36.59833,149.98444
NSW,Wapra,2422,-31.89833,151.90111
NSW,Warabrook,2304,-32.88167,151.71778
NSW,Waratah,2298,-32.89833,151.71778
NSW,Waratah West,2298,-32.90111,151.715
NSW,Warburn,2680,-34.18167,145.93444
NSW,Wardell,2477,-28.94833,153.46778
NSW,Wardrop Valley,2484,-28.36278,153.45444
NSW,Wards Mistake,2350,-30.13167,152.00944
NSW,Wards River,2422,-32.21639,151.94222
NSW,Wareemba,2046,-33.86083,151.13167
NSW,Wargambegal,2672,-33.34833,146.46778
NSW,Warialda,2402,-29.53167,150.56778
NSW,Warialda Rail,2402,-29.63083,150.545
NSW,Warilla,2528,-34.5525,150.85944
NSW,Warkworth,2330,-32.57333,151.01778
NSW,Warners Bay,2282,-32.98167,151.65111
NSW,Warnervale,2259,-33.24833,151.43111
NSW,Warragai Creek,2460,-29.54833,152.98444
NSW,Warragamba,2752,-33.88167,150.60111
NSW,Warragoon,2710,-35.615,145.20111
NSW,Warrah,2339,-31.665,150.66778
NSW,Warrah Creek,2339,-31.715,150.65111
NSW,Warrah Ridge,2343,-31.59,150.57361
NSW,Warral,2340,-31.165,150.85111
NSW,Warranulla,2423,-32.19611,152.13528
NSW,Warrawee,2074,-33.72333,151.12611
NSW,Warrawidgee,2680,-34.28167,145.80111
NSW,Warrawong,2502,-34.48694,150.88361
NSW,Warrazambil Creek,2474,-28.44167,153.04083
NSW,Warregah Island,2469,-29.39,153.22333
NSW,Warrell Creek,2447,-30.765,152.90111
NSW,Warri,2622,-35.3175,149.67028
NSW,Warriewood,2102,-33.68167,151.28444
NSW,Warrimoo,2774,-33.72,150.61083
NSW,Warumbul,2229,-34.08167,151.10111
NSW,Warwick Farm,2170,-33.915,150.93444
NSW,Washpool,2425,-32.37111,151.92056
NSW,Watagan,2325,-33.02333,151.18444
NSW,Watanobbi,2259,-33.26917,151.42611
NSW,Waterfall,2233,-34.13167,150.99278
NSW,Waterloo,2017,-33.90667,151.20944
NSW,Watersleigh,2540,-34.84833,150.50111
NSW,Waterview,2460,-29.68167,152.90111
NSW,Waterview Heights,2460,-29.665,152.86778
NSW,Watsons Bay,2030,-33.84833,151.28444
NSW,Watsons Creek,2355,-30.73167,151.05111
NSW,Wattamolla,2535,-34.72472,150.63222
NSW,Wattamondara,2794,-33.93722,148.59389
NSW,Wattanobbi,2259,0,0
NSW,Wattle Grove,2173,-33.95667,150.94139
NSW,Wattle Ponds,2330,-32.53167,151.21778
NSW,Wauchope,2446,-31.465,152.73444
NSW,Waukivory,2422,-32.10667,152.05111
NSW,Waverley,2024,-33.89833,151.25944
NSW,Waverly,2337,-31.92333,151.05111
NSW,Waverton,2060,-33.83167,151.18444
NSW,Way Way,2447,-30.77528,152.95222
NSW,Wayo,2580,-34.60111,149.61833
NSW,Weabonga,2340,-31.215,151.31778
NSW,Wean,2382,-30.77056,150.26778
NSW,Webbs Creek,2775,-33.35667,150.92611
NSW,Wedderburn,2560,-34.14833,150.81778
NSW,Wee Jasper,2582,-35.12806,148.6725
NSW,Wee Waa,2388,-30.215,149.43444
NSW,Weedallion,2594,-34.19833,147.95111
NSW,Weemelah,2406,-29.015,149.25111
NSW,Weetaliba,2395,-31.63167,149.58444
NSW,Weethalle,2669,-33.88167,146.63444
NSW,Weismantels,2415,-32.25639,151.92417
NSW,Weja,2669,-33.53167,146.81778
NSW,Welby,2575,-34.44833,150.41778
NSW,Wellingrove,2370,-29.63167,151.56778
NSW,Wellington Vale,2371,-29.415,151.75111
NSW,Wells Crossing,2460,-29.89833,153.06778
NSW,Wendoree Park,2250,-33.44833,151.15111
NSW,Wenonah Head,2455,-30.54833,153.03444
NSW,Wentworth,2648,-34.09833,141.90111
NSW,Wentworth Falls,2782,-33.71639,150.37722
NSW,Wentworthville,2145,-33.80667,150.96778
NSW,Werai,2577,-34.58167,150.35111
NSW,Wereboldera,2720,-35.39833,148.15111
NSW,Wermatong,2720,-35.38167,148.30944
NSW,Werombi,2570,-33.98167,150.58444
NSW,Werri Beach,2534,-34.73167,150.83444
NSW,Werrikimbe,2446,-31.28167,152.20111
NSW,Werrington,2747,-33.74833,150.75111
NSW,Werrington County,2747,-33.765,150.75111
NSW,Werrington Downs,2747,-33.73167,150.73444
NSW,Werris Creek,2341,-31.34833,150.65111
NSW,West Albury,2640,-36.065,146.88444
NSW,West Ballina,2478,-28.85806,153.52333
NSW,West Gosford,2250,-33.41667,151.31667
NSW,West Haven,2443,-31.63333,152.78333
NSW,West Hoxton,2171,-33.93333,150.83333
NSW,West Kempsey,2440,-31.06667,152.81667
NSW,West Nowra,2541,-34.89028,150.58278
NSW,West Pennant Hills,2125,-33.73333,151
NSW,West Pymble,2073,-33.75833,151.12778
NSW,West Ryde,2114,-33.81111,151.08472
NSW,West Tamworth,2340,-31.10139,150.90417
NSW,West Wallsend,2286,-32.9,151.58333
NSW,West Wiangaree,2474,-28.54722,152.9525
NSW,West Wyalong,2671,-33.93333,147.2
NSW,Westbrook,2330,-32.45,151.28333
NSW,Westby,2650,-35.44833,147.45111
NSW,Westdale,2650,-31.09167,150.85
NSW,Westleigh,2120,-33.71667,151.06667
NSW,Westmead,2145,-33.80833,150.98333
NSW,Weston,2326,-32.81194,151.455
NSW,Westwood,2729,-35.39639,147.97722
NSW,Wetherill Park,2164,-33.85,150.9
NSW,Wetuppa,2734,-35.3275,143.86139
NSW,Whalan,2770,-33.75833,150.80833
NSW,Whale Beach,2107,-33.60833,151.33333
NSW,Wheeny Creek,2758,-32.44722,150.76667
NSW,Wheeo,2583,-34.51667,149.28333
NSW,Wherrol Flat,2429,-31.78333,152.23333
NSW,Whian Whian,2480,-28.63333,153.31667
NSW,Whiporie,2469,-29.28333,152.98333
NSW,Whitebridge,2290,-32.98333,151.71667
NSW,Whiteman Creek,2460,-29.58333,152.85
NSW,Whittingham,2330,-32.60833,151.2
NSW,Whitton,2705,-34.515,146.18444
NSW,Whoota,2428,-32.31556,152.48167
NSW,Wiangaree,2474,-28.5075,152.97639
NSW,Wiarborough,2580,-34.20667,149.90944
NSW,Wickham,2293,-32.92333,151.75944
NSW,Widden,2328,-32.515,150.36778
NSW,Widgelli,2680,-34.33167,146.13444
NSW,Widgiewa,2700,-35.065,146.20111
NSW,Wilberforce,2756,-33.55667,150.83444
NSW,Wild Cattle Creek,2453,-30.15417,152.74806
NSW,Wiley Park,2195,-33.92333,151.07611
NSW,Willala,2382,-30.815,149.86778
NSW,Willawarrin,2440,-30.93167,152.63444
NSW,Willbriggie,2680,-34.465,146.01778
NSW,Willi Willi,2440,-30.94833,152.43444
NSW,Williamsdale,2620,-35.565,149.13444
NSW,Williamtown,2318,-32.815,151.84278
NSW,Willie Ploma,2722,-35.115,148.06778
NSW,Willigobung,2653,-35.65389,148.04278
NSW,Willina,2423,-32.17639,152.27111
NSW,Willmot,2770,-33.71778,150.78444
NSW,Willoughby,2068,-33.79833,151.20111
NSW,Willoughby East,2068,-33.79917,151.20611
NSW,Willow Tree,2339,-31.64833,150.73444
NSW,Willow Vale,2575,-34.715,143.88444
NSW,Willsons Downfall,2372,-28.68167,152.08444
NSW,Willurah,2710,-34.98417,145.095
NSW,Wilsons Creek,2482,-28.565,153.43444
NSW,Wilton,2571,-34.24,150.70111
NSW,Windale,2306,-32.99556,151.68444
NSW,Windang,2528,-34.5275,150.87139
NSW,Windella,2320,-32.69,151.48028
NSW,Windellama,2580,-35.03167,149.86778
NSW,Windermere,2321,-32.68167,151.44278
NSW,Windermere Park,2264,-33.115,151.53444
NSW,Windowie,2720,-35.365,148.15111
NSW,Windradyne,2795,-33.40389,149.54556
NSW,Windsor,2756,-33.615,150.80944
NSW,Windsor Downs,2756,-33.65667,150.80944
NSW,Windy,2343,-31.61972,150.40639
NSW,Winegrove,2460,-29.54833,152.68444
NSW,Wingello,2579,-34.69833,150.15111
NSW,Wingen,2337,-31.88167,150.88444
NSW,Wingham,2429,-31.865,152.36778
NSW,Winifred,2631,-36.48167,149.35111
NSW,Winmalee,2777,-33.68167,150.60111
NSW,Winston Hills,2153,-33.77611,150.98167
NSW,Winton,2344,-31.08167,150.71778
NSW,Wirlinga,2640,-36.065,146.99278
NSW,Wirradgurie,2422,-31.90667,152.06778
NSW,Wirrimbi,2447,-30.67278,152.92917
NSW,Wisemans Ferry,2775,-33.38167,150.98444
NSW,Wittitrin,2440,-31.09833,152.65111
NSW,Wog Wog,2622,-37.08083,149.43333
NSW,Woko,2422,-31.83167,151.86778
NSW,Wolgan Valley,2790,-33.24833,150.21778
NSW,Wollangambe,2790,-33.36028,150.45556
NSW,Wollemi,2330,-32.93028,150.45556
NSW,Wolli Creek,2205,-33.93444,151.15361
NSW,Wollogorang,2581,-34.88167,149.51778
NSW,Wollombi,2325,-33.00056,151.205
NSW,Wollomombi,2350,-30.515,152.05111
NSW,Wollongbar,2477,-28.815,153.40111
NSW,Wollongong,2520,-34.42694,150.89306
NSW,Wollstonecraft,2065,-33.83167,151.18444
NSW,Wollumboola,2540,-34.95667,150.7325
NSW,Wollun,2354,-30.85694,151.43972
NSW,Wolumla,2550,-36.83167,149.80944
NSW,Wombarra,2515,-34.27694,150.95083
NSW,Wombat Creek,2460,-29.50833,152.75472
NSW,Wombeyan Caves,2580,-34.30667,149.96778
NSW,Womboota,2731,-35.915,144.60111
NSW,Wonboyn,2551,-37.25028,149.93806
NSW,Wonboyn North,2551,-37.20278,149.90944
NSW,Wondabyne,2256,-33.48722,151.23444
NSW,Wondalga,2729,-35.39833,148.11778
NSW,Wongawilli,2530,-34.47667,150.755
NSW,Wongwibinda,2350,-30.29833,152.16778
NSW,Wonona,2520,-34.34833,150.90111
NSW,Woodberry,2322,-32.79,151.66778
NSW,Woodbine,2560,-34.04,150.82611
NSW,Woodburn,2538,-35.37306,150.37639
NSW,Woodcroft,2767,-33.75861,150.87833
NSW,Woodenbong,2476,-28.38167,152.61778
NSW,Woodford,2778,-33.73472,150.47889
NSW,Woodhill,2535,-34.73167,150.68444
NSW,Woodlands,2536,-35.80028,150.18306
NSW,Woodlawn,2480,-35.04833,149.58444
NSW,Woodpark,2164,-33.84833,150.96778
NSW,Woodrising,2284,-32.98722,151.60667
NSW,Woodside,2424,-29.07056,151.84556
NSW,Woodsreef,2347,-30.38167,150.73444
NSW,Woodstock,2793,-35.35222,150.39667
NSW,Woodville,2321,-32.665,151.60111
NSW,Woody Head,2466,-29.36917,153.36778
NSW,Woolbrook,2354,-30.965,151.35111
NSW,Woolgarlo,2582,-34.8725,148.72639
NSW,Woolgoolga,2456,-30.115,153.20111
NSW,Wooli,2462,-29.865,153.26778
NSW,Woollahra,2025,-33.89,151.24278
NSW,Woollamia,2540,-35.01389,150.63972
NSW,Woolloomooloo,2011,-33.865,151.21778
NSW,Woolners Arm,2470,-28.68472,152.84139
NSW,Woolomin,2340,-31.30667,151.15111
NSW,Woolooma,2337,-31.99833,151.21778
NSW,Woolooware,2230,-34.04833,151.15111
NSW,Wooloweyah,2464,-29.48167,153.35111
NSW,Woolwich,2110,-33.84,151.16778
NSW,Woomargama,2644,-35.83167,147.23444
NSW,Woombah,2469,-29.365,153.28444
NSW,Woongarrah,2259,-33.23167,151.46778
NSW,Woonona,2517,-34.34556,150.90417
NSW,Woonona Heights,2520,-34.34833,150.90111
NSW,Wooroowoolgan,2470,-28.84833,153.00111
NSW,Wootton,2423,-32.30194,152.31694
NSW,Wooyung,2483,-28.43167,153.53444
NSW,Woronora,2232,-34.03167,151.05111
NSW,Worrigee,2540,-34.91361,150.63917
NSW,Worrowing Heights,2540,-35.07583,150.63917
NSW,Wowagin,2580,-34.415,149.70111
NSW,Woy Woy,2256,-33.48806,151.3275
NSW,Woy Woy Bay,2256,-33.48361,151.31361
NSW,Wrights Beach,2540,-35.115,150.66778
NSW,Wrights Creek,2775,-33.32333,151.00944
NSW,Wyalong,2671,-33.915,147.23444
NSW,Wyan,2469,-29.08167,152.88444
NSW,Wyanbene,2622,-35.77778,149.67389
NSW,Wyangle,2720,-35.23167,148.33861
NSW,Wybong,2333,-32.265,150.63444
NSW,Wybung,2259,-33.19,151.60111
NSW,Wyee,2259,-33.18167,151.48444
NSW,Wyee Point,2259,-33.14,151.52611
NSW,Wylie Creek,2372,-28.54833,152.15111
NSW,Wylies Flat,2330,-32.58167,151.10944
NSW,Wymah,2640,-36.03333,147.29806
NSW,Wyndham,2550,-36.93167,149.65111
NSW,Wyneden,2474,-28.54833,152.91778
NSW,Wyoming,2250,-33.40667,151.35944
NSW,Wyong,2259,-33.28167,151.41778
NSW,Wyong Creek,2259,-33.265,151.36778
NSW,Wyongah,2259,-33.27333,151.48444
NSW,Wyrallah,2480,-28.88167,153.30111
NSW,Yabbra,2469,-28.62806,152.50944
NSW,Yadboro,2539,-35.34417,150.22306
NSW,Yaddra,2669,-33.24833,146.63444
NSW,Yagoona,2199,-33.90667,151.02611
NSW,Yalbraith,2580,-34.29833,149.75111
NSW,Yallah,2530,-34.53306,150.79083
NSW,Yallakool,2710,-35.54833,144.45111
NSW,Yallambie,2325,-33.03167,151.13444
NSW,Yalwal,2540,-34.98167,150.34389
NSW,Yamba,2464,-29.44,153.35944
NSW,Yambulla,2550,-37.215,149.55111
NSW,Yanco,2703,-34.59833,146.41778
NSW,Yanderra,2574,-34.315,150.56778
NSW,Yankees Creek,2550,-36.48333,149.53917
NSW,Yannergee,2343,-31.46278,150.06972
NSW,Yaouk,2629,-35.815,148.80111
NSW,Yarra,2580,-34.815,149.63444
NSW,Yarragundry,2650,-35.115,147.23444
NSW,Yarrahapinni,2441,-30.83167,152.95111
NSW,Yarramalong,2259,-33.22333,151.28444
NSW,Yarraman,2400,-31.59833,150.18444
NSW,Yarramundi,2753,-33.63167,150.66778
NSW,Yarranbella,2447,-30.72389,152.77583
NSW,Yarrangobilly,2720,-35.64833,148.46778
NSW,Yarras,2446,-31.40389,152.34056
NSW,Yarratt Forest,2429,-31.73167,152.43444
NSW,Yarravel,2440,-31.04833,152.74694
NSW,Yarrawa,2328,-32.39833,150.60111
NSW,Yarrawarrah,2233,-34.04833,151.03444
NSW,Yarrawonga Park,2264,-33.09833,151.53444
NSW,Yarrie Lake,2388,-30.365,149.51778
NSW,Yarrow,2620,-35.44639,149.31167
NSW,Yarrowford,2370,-29.64833,151.76778
NSW,Yarrowitch,2354,-31.265,151.96778
NSW,Yarrowyck,2358,-30.44083,151.35306
NSW,Yarrunga,2577,-34.58167,150.43444
NSW,Yass,2582,-34.84,148.91778
NSW,Yathella,2650,-34.93167,147.45111
NSW,Yattalunga,2251,-33.465,151.35111
NSW,Yatte Yattah,2539,-35.28361,150.4275
NSW,Yaven Creek,2729,-35.49833,147.93444
NSW,Yelgun,2483,-28.48167,153.51778
NSW,Yellow Dam,2371,-29.36722,151.39722
NSW,Yellow Pinch,2548,-36.85667,149.81778
NSW,Yellow Rock,2777,-34.59,150.74278
NSW,Yenda,2681,-34.24833,146.20111
NSW,Yennora,2161,-33.865,150.97611
NSW,Yeoval,2868,-32.74833,148.63444
NSW,Yerranderie,2787,-34.115,150.21778
NSW,Yerriyong,2540,-34.965,150.51778
NSW,Yessabah,2440,-31.09833,152.68444
NSW,Yetman,2410,-28.89833,150.76778
NSW,Yippin Creek,2446,-31.45667,152.70944
NSW,Yoogali,2680,-34.29833,146.08444
NSW,Yosemite,2780,-33.69833,150.31778
NSW,Young,2594,-34.315,148.30111
NSW,Yowie Bay,2228,-34.03167,151.11778
NSW,Yowrie,2550,-36.315,149.73444
NSW,Yuluma,2645,-35.165,146.50111
NSW,Yuraygir,2464,-29.53167,153.33444
NSW,Yuulong,2830,-32.215,148.56778
NSW,Zara,2484,-28.31611,153.25833
NSW,Zetland,2017,-33.915,151.20944
